[{"location":"Alex Theater","address":"7165 Beverly Blvd. Los Angeles, ","formattedAddress":"7165 Beverly Blvd, Los Angeles, CA 90036, USA","lat":34.0764408,"lng":-118.3457564,"zipcode":"90036","city":"Los Angeles","neighborhood":"Central LA"},{"location":"Alex Theater","address":"7165 Beverly Blvd. Los Angeles, ","formattedAddress":"7165 Beverly Blvd, Los Angeles, CA 90036, USA","lat":34.0764408,"lng":-118.3457564,"zipcode":"90036","city":"Los Angeles","neighborhood":"Central LA"},{"location":"Alex Theater","address":"7165 Beverly Blvd. Los Angeles, ","formattedAddress":"7165 Beverly Blvd, Los Angeles, CA 90036, USA","lat":34.0764408,"lng":-118.3457564,"zipcode":"90036","city":"Los Angeles","neighborhood":"Central LA"},{"location":"Alex Theater","address":"7165 Beverly Blvd. Los Angeles, ","formattedAddress":"7165 Beverly Blvd, Los Angeles, CA 90036, USA","lat":34.0764408,"lng":-118.3457564,"zipcode":"90036","city":"Los Angeles","neighborhood":"Central LA"},{"location":"Alex Theater","address":"7165 Beverly Blvd. Los Angeles, ","formattedAddress":"7165 Beverly Blvd, Los Angeles, CA 90036, USA","lat":34.0764408,"lng":-118.3457564,"zipcode":"90036","city":"Los Angeles","neighborhood":"Central LA"},{"location":"Alex Theater","address":"7165 Beverly Blvd. Los Angeles, ","formattedAddress":"7165 Beverly Blvd, Los Angeles, CA 90036, USA","lat":34.0764408,"lng":-118.3457564,"zipcode":"90036","city":"Los Angeles","neighborhood":"Central LA"},{"location":"Alex Theater","address":"7165 Beverly Blvd. Los Angeles, ","formattedAddress":"7165 Beverly Blvd, Los Angeles, CA 90036, USA","lat":34.0764408,"lng":-118.3457564,"zipcode":"90036","city":"Los Angeles","neighborhood":"Central LA"},{"location":"Alex Theater","address":"7165 Beverly Blvd. Los Angeles, ","formattedAddress":"7165 Beverly Blvd, Los Angeles, CA 90036, USA","lat":34.0764408,"lng":-118.3457564,"zipcode":"90036","city":"Los Angeles","neighborhood":"Central LA"},{"location":"Alex Theater","address":"7165 Beverly Blvd. Los Angeles, ","formattedAddress":"7165 Beverly Blvd, Los Angeles, CA 90036, USA","lat":34.0764408,"lng":-118.3457564,"zipcode":"90036","city":"Los Angeles","neighborhood":"Central LA"},{"location":"Alex Theater","address":"7165 Beverly Blvd. Los Angeles, ","formattedAddress":"7165 Beverly Blvd, Los Angeles, CA 90036, USA","lat":34.0764408,"lng":-118.3457564,"zipcode":"90036","city":"Los Angeles","neighborhood":"Central LA"},{"location":"Alex Theater","address":"7165 Beverly Blvd. Los Angeles, ","formattedAddress":"7165 Beverly Blvd, Los Angeles, CA 90036, USA","lat":34.0764408,"lng":-118.3457564,"zipcode":"90036","city":"Los Angeles","neighborhood":"Central LA"},{"location":"Alex Theater","address":"7165 Beverly Blvd. Los Angeles, ","formattedAddress":"7165 Beverly Blvd, Los Angeles, CA 90036, USA","lat":34.0764408,"lng":-118.3457564,"zipcode":"90036","city":"Los Angeles","neighborhood":"Central LA"},{"location":"Alex Theater","address":"7165 Beverly Blvd. Los Angeles, ","formattedAddress":"7165 Beverly Blvd, Los Angeles, CA 90036, USA","lat":34.0764408,"lng":-118.3457564,"zipcode":"90036","city":"Los Angeles","neighborhood":"Central LA"},{"location":"Alex Theater","address":"7165 Beverly Blvd. Los Angeles, ","formattedAddress":"7165 Beverly Blvd, Los Angeles, CA 90036, USA","lat":34.0764408,"lng":-118.3457564,"zipcode":"90036","city":"Los Angeles","neighborhood":"Central LA"},{"location":"Alex Theater","address":"7165 Beverly Blvd. Los Angeles, ","formattedAddress":"7165 Beverly Blvd, Los Angeles, CA 90036, USA","lat":34.0764408,"lng":-118.3457564,"zipcode":"90036","city":"Los Angeles","neighborhood":"Central LA"},{"location":"Alex Theater","address":"7165 Beverly Blvd. Los Angeles, ","formattedAddress":"7165 Beverly Blvd, Los Angeles, CA 90036, USA","lat":34.0764408,"lng":-118.3457564,"zipcode":"90036","city":"Los Angeles","neighborhood":"Central LA"},{"location":"Alex Theater","address":"7165 Beverly Blvd. Los Angeles, ","formattedAddress":"7165 Beverly Blvd, Los Angeles, CA 90036, USA","lat":34.0764408,"lng":-118.3457564,"zipcode":"90036","city":"Los Angeles","neighborhood":"Central LA"},{"location":"Alex Theater","address":"7165 Beverly Blvd. Los Angeles, ","formattedAddress":"7165 Beverly Blvd, Los Angeles, CA 90036, USA","lat":34.0764408,"lng":-118.3457564,"zipcode":"90036","city":"Los Angeles","neighborhood":"Central LA"},{"location":"Alex Theater","address":"7165 Beverly Blvd. Los Angeles, ","formattedAddress":"7165 Beverly Blvd, Los Angeles, CA 90036, USA","lat":34.0764408,"lng":-118.3457564,"zipcode":"90036","city":"Los Angeles","neighborhood":"Central LA"},{"location":"Alex Theater","address":"7165 Beverly Blvd. Los Angeles, ","formattedAddress":"7165 Beverly Blvd, Los Angeles, CA 90036, USA","lat":34.0764408,"lng":-118.3457564,"zipcode":"90036","city":"Los Angeles","neighborhood":"Central LA"},{"location":"Alex Theater","address":"7165 Beverly Blvd. Los Angeles, ","formattedAddress":"7165 Beverly Blvd, Los Angeles, CA 90036, USA","lat":34.0764408,"lng":-118.3457564,"zipcode":"90036","city":"Los Angeles","neighborhood":"Central LA"},{"location":"Alex Theater","address":"7165 Beverly Blvd. Los Angeles, ","formattedAddress":"7165 Beverly Blvd, Los Angeles, CA 90036, USA","lat":34.0764408,"lng":-118.3457564,"zipcode":"90036","city":"Los Angeles","neighborhood":"Central LA"},{"location":"Alex Theater","address":"7165 Beverly Blvd. Los Angeles, ","formattedAddress":"7165 Beverly Blvd, Los Angeles, CA 90036, USA","lat":34.0764408,"lng":-118.3457564,"zipcode":"90036","city":"Los Angeles","neighborhood":"Central LA"},{"location":"Alex Theater","address":"7165 Beverly Blvd. Los Angeles, ","formattedAddress":"7165 Beverly Blvd, Los Angeles, CA 90036, USA","lat":34.0764408,"lng":-118.3457564,"zipcode":"90036","city":"Los Angeles","neighborhood":"Central LA"},{"location":"Alex Theater","address":"7165 Beverly Blvd. Los Angeles, ","formattedAddress":"7165 Beverly Blvd, Los Angeles, CA 90036, USA","lat":34.0764408,"lng":-118.3457564,"zipcode":"90036","city":"Los Angeles","neighborhood":"Central LA"},{"location":"Alex Theater","address":"7165 Beverly Blvd. Los Angeles, ","formattedAddress":"7165 Beverly Blvd, Los Angeles, CA 90036, USA","lat":34.0764408,"lng":-118.3457564,"zipcode":"90036","city":"Los Angeles","neighborhood":"Central LA"},{"location":"Alex Theater","address":"7165 Beverly Blvd. Los Angeles, ","formattedAddress":"7165 Beverly Blvd, Los Angeles, CA 90036, USA","lat":34.0764408,"lng":-118.3457564,"zipcode":"90036","city":"Los Angeles","neighborhood":"Central LA"},{"location":"Alex Theater","address":"7165 Beverly Blvd. Los Angeles, ","formattedAddress":"7165 Beverly Blvd, Los Angeles, CA 90036, USA","lat":34.0764408,"lng":-118.3457564,"zipcode":"90036","city":"Los Angeles","neighborhood":"Central LA"},{"location":"Alex Theater","address":"7165 Beverly Blvd. Los Angeles, ","formattedAddress":"7165 Beverly Blvd, Los Angeles, CA 90036, USA","lat":34.0764408,"lng":-118.3457564,"zipcode":"90036","city":"Los Angeles","neighborhood":"Central LA"},{"location":"Alex Theater","address":"7165 Beverly Blvd. Los Angeles, ","formattedAddress":"7165 Beverly Blvd, Los Angeles, CA 90036, USA","lat":34.0764408,"lng":-118.3457564,"zipcode":"90036","city":"Los Angeles","neighborhood":"Central LA"},{"location":"Alex Theater","address":"7165 Beverly Blvd. Los Angeles, ","formattedAddress":"7165 Beverly Blvd, Los Angeles, CA 90036, USA","lat":34.0764408,"lng":-118.3457564,"zipcode":"90036","city":"Los Angeles","neighborhood":"Central LA"},{"location":"Alex Theater","address":"7165 Beverly Blvd. Los Angeles, ","formattedAddress":"7165 Beverly Blvd, Los Angeles, CA 90036, USA","lat":34.0764408,"lng":-118.3457564,"zipcode":"90036","city":"Los Angeles","neighborhood":"Central LA"},{"location":"Alex Theater","address":"7165 Beverly Blvd. Los Angeles, ","formattedAddress":"7165 Beverly Blvd, Los Angeles, CA 90036, USA","lat":34.0764408,"lng":-118.3457564,"zipcode":"90036","city":"Los Angeles","neighborhood":"Central LA"},{"location":"Alex Theater","address":"7165 Beverly Blvd. Los Angeles, ","formattedAddress":"7165 Beverly Blvd, Los Angeles, CA 90036, USA","lat":34.0764408,"lng":-118.3457564,"zipcode":"90036","city":"Los Angeles","neighborhood":"Central LA"},{"location":"Alex Theater","address":"7165 Beverly Blvd. Los Angeles, ","formattedAddress":"7165 Beverly Blvd, Los Angeles, CA 90036, USA","lat":34.0764408,"lng":-118.3457564,"zipcode":"90036","city":"Los Angeles","neighborhood":"Central LA"},{"location":"Alex Theater","address":"7165 Beverly Blvd. Los Angeles, ","formattedAddress":"7165 Beverly Blvd, Los Angeles, CA 90036, USA","lat":34.0764408,"lng":-118.3457564,"zipcode":"90036","city":"Los Angeles","neighborhood":"Central LA"},{"location":"Alex Theater","address":"7165 Beverly Blvd. Los Angeles, ","formattedAddress":"7165 Beverly Blvd, Los Angeles, CA 90036, USA","lat":34.0764408,"lng":-118.3457564,"zipcode":"90036","city":"Los Angeles","neighborhood":"Central LA"},{"location":"Alex Theater","address":"7165 Beverly Blvd. Los Angeles, ","formattedAddress":"7165 Beverly Blvd, Los Angeles, CA 90036, USA","lat":34.0764408,"lng":-118.3457564,"zipcode":"90036","city":"Los Angeles","neighborhood":"Central LA"},{"location":"Alex Theater","address":"7165 Beverly Blvd. Los Angeles, ","formattedAddress":"7165 Beverly Blvd, Los Angeles, CA 90036, USA","lat":34.0764408,"lng":-118.3457564,"zipcode":"90036","city":"Los Angeles","neighborhood":"Central LA"},{"location":"Alex Theater","address":"7165 Beverly Blvd. Los Angeles, ","formattedAddress":"7165 Beverly Blvd, Los Angeles, CA 90036, USA","lat":34.0764408,"lng":-118.3457564,"zipcode":"90036","city":"Los Angeles","neighborhood":"Central LA"},{"location":"Alex Theater","address":"7165 Beverly Blvd. Los Angeles, ","formattedAddress":"7165 Beverly Blvd, Los Angeles, CA 90036, USA","lat":34.0764408,"lng":-118.3457564,"zipcode":"90036","city":"Los Angeles","neighborhood":"Central LA"},{"location":"Alex Theater","address":"7165 Beverly Blvd. Los Angeles, ","formattedAddress":"7165 Beverly Blvd, Los Angeles, CA 90036, USA","lat":34.0764408,"lng":-118.3457564,"zipcode":"90036","city":"Los Angeles","neighborhood":"Central LA"},{"location":"Alex Theater","address":"7165 Beverly Blvd. Los Angeles, ","formattedAddress":"7165 Beverly Blvd, Los Angeles, CA 90036, USA","lat":34.0764408,"lng":-118.3457564,"zipcode":"90036","city":"Los Angeles","neighborhood":"Central LA"},{"location":"Alex Theater","address":"7165 Beverly Blvd. Los Angeles, ","formattedAddress":"7165 Beverly Blvd, Los Angeles, CA 90036, USA","lat":34.0764408,"lng":-118.3457564,"zipcode":"90036","city":"Los Angeles","neighborhood":"Central LA"},{"location":"Alex Theater","address":"7165 Beverly Blvd. Los Angeles, ","formattedAddress":"7165 Beverly Blvd, Los Angeles, CA 90036, USA","lat":34.0764408,"lng":-118.3457564,"zipcode":"90036","city":"Los Angeles","neighborhood":"Central LA"},{"location":"Alex Theater","address":"7165 Beverly Blvd. Los Angeles, ","formattedAddress":"7165 Beverly Blvd, Los Angeles, CA 90036, USA","lat":34.0764408,"lng":-118.3457564,"zipcode":"90036","city":"Los Angeles","neighborhood":"Central LA"},{"location":"Alex Theater","address":"7165 Beverly Blvd. Los Angeles, ","formattedAddress":"7165 Beverly Blvd, Los Angeles, CA 90036, USA","lat":34.0764408,"lng":-118.3457564,"zipcode":"90036","city":"Los Angeles","neighborhood":"Central LA"},{"location":"Alex Theater","address":"7165 Beverly Blvd. Los Angeles, ","formattedAddress":"7165 Beverly Blvd, Los Angeles, CA 90036, USA","lat":34.0764408,"lng":-118.3457564,"zipcode":"90036","city":"Los Angeles","neighborhood":"Central LA"},{"location":"Alex Theater","address":"7165 Beverly Blvd. Los Angeles, ","formattedAddress":"7165 Beverly Blvd, Los Angeles, CA 90036, USA","lat":34.0764408,"lng":-118.3457564,"zipcode":"90036","city":"Los Angeles","neighborhood":"Central LA"},{"location":"Alex Theater","address":"7165 Beverly Blvd. Los Angeles, ","formattedAddress":"7165 Beverly Blvd, Los Angeles, CA 90036, USA","lat":34.0764408,"lng":-118.3457564,"zipcode":"90036","city":"Los Angeles","neighborhood":"Central LA"},{"location":"Alex Theater","address":"7165 Beverly Blvd. Los Angeles, ","formattedAddress":"7165 Beverly Blvd, Los Angeles, CA 90036, USA","lat":34.0764408,"lng":-118.3457564,"zipcode":"90036","city":"Los Angeles","neighborhood":"Central LA"},{"location":"Alex Theater","address":"7165 Beverly Blvd. Los Angeles, ","formattedAddress":"7165 Beverly Blvd, Los Angeles, CA 90036, USA","lat":34.0764408,"lng":-118.3457564,"zipcode":"90036","city":"Los Angeles","neighborhood":"Central LA"},{"location":"Alex Theater","address":"7165 Beverly Blvd. Los Angeles, ","formattedAddress":"7165 Beverly Blvd, Los Angeles, CA 90036, USA","lat":34.0764408,"lng":-118.3457564,"zipcode":"90036","city":"Los Angeles","neighborhood":"Central LA"},{"location":"Alex Theater","address":"7165 Beverly Blvd. Los Angeles, ","formattedAddress":"7165 Beverly Blvd, Los Angeles, CA 90036, USA","lat":34.0764408,"lng":-118.3457564,"zipcode":"90036","city":"Los Angeles","neighborhood":"Central LA"},{"location":"Alex Theater","address":"7165 Beverly Blvd. Los Angeles, ","formattedAddress":"7165 Beverly Blvd, Los Angeles, CA 90036, USA","lat":34.0764408,"lng":-118.3457564,"zipcode":"90036","city":"Los Angeles","neighborhood":"Central LA"},{"location":"Alex Theater","address":"7165 Beverly Blvd. Los Angeles, ","formattedAddress":"7165 Beverly Blvd, Los Angeles, CA 90036, USA","lat":34.0764408,"lng":-118.3457564,"zipcode":"90036","city":"Los Angeles","neighborhood":"Central LA"},{"location":"Alex Theater","address":"7165 Beverly Blvd. Los Angeles, ","formattedAddress":"7165 Beverly Blvd, Los Angeles, CA 90036, USA","lat":34.0764408,"lng":-118.3457564,"zipcode":"90036","city":"Los Angeles","neighborhood":"Central LA"},{"location":"Alex Theater","address":"7165 Beverly Blvd. Los Angeles, ","formattedAddress":"7165 Beverly Blvd, Los Angeles, CA 90036, USA","lat":34.0764408,"lng":-118.3457564,"zipcode":"90036","city":"Los Angeles","neighborhood":"Central LA"},{"location":"Alex Theater","address":"7165 Beverly Blvd. Los Angeles, ","formattedAddress":"7165 Beverly Blvd, Los Angeles, CA 90036, USA","lat":34.0764408,"lng":-118.3457564,"zipcode":"90036","city":"Los Angeles","neighborhood":"Central LA"},{"location":"Alex Theater","address":"7165 Beverly Blvd. Los Angeles, ","formattedAddress":"7165 Beverly Blvd, Los Angeles, CA 90036, USA","lat":34.0764408,"lng":-118.3457564,"zipcode":"90036","city":"Los Angeles","neighborhood":"Central LA"},{"location":"Alex Theater","address":"7165 Beverly Blvd. Los Angeles, ","formattedAddress":"7165 Beverly Blvd, Los Angeles, CA 90036, USA","lat":34.0764408,"lng":-118.3457564,"zipcode":"90036","city":"Los Angeles","neighborhood":"Central LA"},{"location":"Alex Theater","address":"7165 Beverly Blvd. Los Angeles, ","formattedAddress":"7165 Beverly Blvd, Los Angeles, CA 90036, USA","lat":34.0764408,"lng":-118.3457564,"zipcode":"90036","city":"Los Angeles","neighborhood":"Central LA"},{"location":"Alex Theater","address":"7165 Beverly Blvd. Los Angeles, ","formattedAddress":"7165 Beverly Blvd, Los Angeles, CA 90036, USA","lat":34.0764408,"lng":-118.3457564,"zipcode":"90036","city":"Los Angeles","neighborhood":"Central LA"},{"location":"Alex Theater","address":"7165 Beverly Blvd. Los Angeles, ","formattedAddress":"7165 Beverly Blvd, Los Angeles, CA 90036, USA","lat":34.0764408,"lng":-118.3457564,"zipcode":"90036","city":"Los Angeles","neighborhood":"Central LA"},{"location":"Alex Theater","address":"7165 Beverly Blvd. Los Angeles, ","formattedAddress":"7165 Beverly Blvd, Los Angeles, CA 90036, USA","lat":34.0764408,"lng":-118.3457564,"zipcode":"90036","city":"Los Angeles","neighborhood":"Central LA"},{"location":"Alex Theater","address":"7165 Beverly Blvd. Los Angeles, ","formattedAddress":"7165 Beverly Blvd, Los Angeles, CA 90036, USA","lat":34.0764408,"lng":-118.3457564,"zipcode":"90036","city":"Los Angeles","neighborhood":"Central LA"},{"location":"Alex Theater","address":"7165 Beverly Blvd. Los Angeles, ","formattedAddress":"7165 Beverly Blvd, Los Angeles, CA 90036, USA","lat":34.0764408,"lng":-118.3457564,"zipcode":"90036","city":"Los Angeles","neighborhood":"Central LA"},{"location":"Alex Theater","address":"7165 Beverly Blvd. Los Angeles, ","formattedAddress":"7165 Beverly Blvd, Los Angeles, CA 90036, USA","lat":34.0764408,"lng":-118.3457564,"zipcode":"90036","city":"Los Angeles","neighborhood":"Central LA"},{"location":"Alex Theater","address":"7165 Beverly Blvd. Los Angeles, ","formattedAddress":"7165 Beverly Blvd, Los Angeles, CA 90036, USA","lat":34.0764408,"lng":-118.3457564,"zipcode":"90036","city":"Los Angeles","neighborhood":"Central LA"},{"location":"Alex Theater","address":"7165 Beverly Blvd. Los Angeles, ","formattedAddress":"7165 Beverly Blvd, Los Angeles, CA 90036, USA","lat":34.0764408,"lng":-118.3457564,"zipcode":"90036","city":"Los Angeles","neighborhood":"Central LA"},{"location":"Alex Theater","address":"7165 Beverly Blvd. Los Angeles, ","formattedAddress":"7165 Beverly Blvd, Los Angeles, CA 90036, USA","lat":34.0764408,"lng":-118.3457564,"zipcode":"90036","city":"Los Angeles","neighborhood":"Central LA"},{"location":"Alex Theater","address":"7165 Beverly Blvd. Los Angeles, ","formattedAddress":"7165 Beverly Blvd, Los Angeles, CA 90036, USA","lat":34.0764408,"lng":-118.3457564,"zipcode":"90036","city":"Los Angeles","neighborhood":"Central LA"},{"location":"Alex Theater","address":"7165 Beverly Blvd. Los Angeles, ","formattedAddress":"7165 Beverly Blvd, Los Angeles, CA 90036, USA","lat":34.0764408,"lng":-118.3457564,"zipcode":"90036","city":"Los Angeles","neighborhood":"Central LA"},{"location":"Alex Theater","address":"7165 Beverly Blvd. Los Angeles, ","formattedAddress":"7165 Beverly Blvd, Los Angeles, CA 90036, USA","lat":34.0764408,"lng":-118.3457564,"zipcode":"90036","city":"Los Angeles","neighborhood":"Central LA"},{"location":"Alex Theater","address":"7165 Beverly Blvd. Los Angeles, ","formattedAddress":"7165 Beverly Blvd, Los Angeles, CA 90036, USA","lat":34.0764408,"lng":-118.3457564,"zipcode":"90036","city":"Los Angeles","neighborhood":"Central LA"},{"location":"Alex Theater","address":"7165 Beverly Blvd. Los Angeles, ","formattedAddress":"7165 Beverly Blvd, Los Angeles, CA 90036, USA","lat":34.0764408,"lng":-118.3457564,"zipcode":"90036","city":"Los Angeles","neighborhood":"Central LA"},{"location":"Alex Theater","address":"7165 Beverly Blvd. Los Angeles, ","formattedAddress":"7165 Beverly Blvd, Los Angeles, CA 90036, USA","lat":34.0764408,"lng":-118.3457564,"zipcode":"90036","city":"Los Angeles","neighborhood":"Central LA"},{"location":"Alex Theater","address":"7165 Beverly Blvd. Los Angeles, ","formattedAddress":"7165 Beverly Blvd, Los Angeles, CA 90036, USA","lat":34.0764408,"lng":-118.3457564,"zipcode":"90036","city":"Los Angeles","neighborhood":"Central LA"},{"location":"Alex Theater","address":"7165 Beverly Blvd. Los Angeles, ","formattedAddress":"7165 Beverly Blvd, Los Angeles, CA 90036, USA","lat":34.0764408,"lng":-118.3457564,"zipcode":"90036","city":"Los Angeles","neighborhood":"Central LA"},{"location":"Alex Theater","address":"7165 Beverly Blvd. Los Angeles, ","formattedAddress":"7165 Beverly Blvd, Los Angeles, CA 90036, USA","lat":34.0764408,"lng":-118.3457564,"zipcode":"90036","city":"Los Angeles","neighborhood":"Central LA"},{"location":"Alex Theater","address":"7165 Beverly Blvd. Los Angeles, ","formattedAddress":"7165 Beverly Blvd, Los Angeles, CA 90036, USA","lat":34.0764408,"lng":-118.3457564,"zipcode":"90036","city":"Los Angeles","neighborhood":"Central LA"},{"location":"Alex Theater","address":"7165 Beverly Blvd. Los Angeles, ","formattedAddress":"7165 Beverly Blvd, Los Angeles, CA 90036, USA","lat":34.0764408,"lng":-118.3457564,"zipcode":"90036","city":"Los Angeles","neighborhood":"Central LA"},{"location":"Alex Theater","address":"7165 Beverly Blvd. Los Angeles, ","formattedAddress":"7165 Beverly Blvd, Los Angeles, CA 90036, USA","lat":34.0764408,"lng":-118.3457564,"zipcode":"90036","city":"Los Angeles","neighborhood":"Central LA"},{"location":"Alex Theater","address":"7165 Beverly Blvd. Los Angeles, ","formattedAddress":"7165 Beverly Blvd, Los Angeles, CA 90036, USA","lat":34.0764408,"lng":-118.3457564,"zipcode":"90036","city":"Los Angeles","neighborhood":"Central LA"},{"location":"Alex Theater","address":"7165 Beverly Blvd. Los Angeles, ","formattedAddress":"7165 Beverly Blvd, Los Angeles, CA 90036, USA","lat":34.0764408,"lng":-118.3457564,"zipcode":"90036","city":"Los Angeles","neighborhood":"Central LA"},{"location":"Alex Theater","address":"7165 Beverly Blvd. Los Angeles, ","formattedAddress":"7165 Beverly Blvd, Los Angeles, CA 90036, USA","lat":34.0764408,"lng":-118.3457564,"zipcode":"90036","city":"Los Angeles","neighborhood":"Central LA"},{"location":"Alex Theater","address":"7165 Beverly Blvd. Los Angeles, ","formattedAddress":"7165 Beverly Blvd, Los Angeles, CA 90036, USA","lat":34.0764408,"lng":-118.3457564,"zipcode":"90036","city":"Los Angeles","neighborhood":"Central LA"},{"location":"Alex Theater","address":"7165 Beverly Blvd. Los Angeles, ","formattedAddress":"7165 Beverly Blvd, Los Angeles, CA 90036, USA","lat":34.0764408,"lng":-118.3457564,"zipcode":"90036","city":"Los Angeles","neighborhood":"Central LA"},{"location":"Alex Theater","address":"7165 Beverly Blvd. Los Angeles, ","formattedAddress":"7165 Beverly Blvd, Los Angeles, CA 90036, USA","lat":34.0764408,"lng":-118.3457564,"zipcode":"90036","city":"Los Angeles","neighborhood":"Central LA"},{"location":"Alex Theater","address":"7165 Beverly Blvd. Los Angeles, ","formattedAddress":"7165 Beverly Blvd, Los Angeles, CA 90036, USA","lat":34.0764408,"lng":-118.3457564,"zipcode":"90036","city":"Los Angeles","neighborhood":"Central LA"},{"location":"Alex Theater","address":"7165 Beverly Blvd. Los Angeles, ","formattedAddress":"7165 Beverly Blvd, Los Angeles, CA 90036, USA","lat":34.0764408,"lng":-118.3457564,"zipcode":"90036","city":"Los Angeles","neighborhood":"Central LA"},{"location":"Alex Theater","address":"7165 Beverly Blvd. Los Angeles, ","formattedAddress":"7165 Beverly Blvd, Los Angeles, CA 90036, USA","lat":34.0764408,"lng":-118.3457564,"zipcode":"90036","city":"Los Angeles","neighborhood":"Central LA"},{"location":"Alex Theater","address":"7165 Beverly Blvd. Los Angeles, ","formattedAddress":"7165 Beverly Blvd, Los Angeles, CA 90036, USA","lat":34.0764408,"lng":-118.3457564,"zipcode":"90036","city":"Los Angeles","neighborhood":"Central LA"},{"location":"Alex Theater","address":"7165 Beverly Blvd. Los Angeles, ","formattedAddress":"7165 Beverly Blvd, Los Angeles, CA 90036, USA","lat":34.0764408,"lng":-118.3457564,"zipcode":"90036","city":"Los Angeles","neighborhood":"Central LA"},{"location":"Alex Theater","address":"7165 Beverly Blvd. Los Angeles, ","formattedAddress":"7165 Beverly Blvd, Los Angeles, CA 90036, USA","lat":34.0764408,"lng":-118.3457564,"zipcode":"90036","city":"Los Angeles","neighborhood":"Central LA"},{"location":"Alex Theater","address":"7165 Beverly Blvd. Los Angeles, ","formattedAddress":"7165 Beverly Blvd, Los Angeles, CA 90036, USA","lat":34.0764408,"lng":-118.3457564,"zipcode":"90036","city":"Los Angeles","neighborhood":"Central LA"},{"location":"Alex Theater","address":"7165 Beverly Blvd. Los Angeles, ","formattedAddress":"7165 Beverly Blvd, Los Angeles, CA 90036, USA","lat":34.0764408,"lng":-118.3457564,"zipcode":"90036","city":"Los Angeles","neighborhood":"Central LA"},{"location":"Alex Theater","address":"7165 Beverly Blvd. Los Angeles, ","formattedAddress":"7165 Beverly Blvd, Los Angeles, CA 90036, USA","lat":34.0764408,"lng":-118.3457564,"zipcode":"90036","city":"Los Angeles","neighborhood":"Central LA"},{"location":"Alex Theater","address":"7165 Beverly Blvd. Los Angeles, ","formattedAddress":"7165 Beverly Blvd, Los Angeles, CA 90036, USA","lat":34.0764408,"lng":-118.3457564,"zipcode":"90036","city":"Los Angeles","neighborhood":"Central LA"},{"location":"Alex Theater","address":"7165 Beverly Blvd. Los Angeles, ","formattedAddress":"7165 Beverly Blvd, Los Angeles, CA 90036, USA","lat":34.0764408,"lng":-118.3457564,"zipcode":"90036","city":"Los Angeles","neighborhood":"Central LA"},{"location":"Alex Theater","address":"7165 Beverly Blvd. Los Angeles, ","formattedAddress":"7165 Beverly Blvd, Los Angeles, CA 90036, USA","lat":34.0764408,"lng":-118.3457564,"zipcode":"90036","city":"Los Angeles","neighborhood":"Central LA"},{"location":"Alex Theater","address":"7165 Beverly Blvd. Los Angeles, ","formattedAddress":"7165 Beverly Blvd, Los Angeles, CA 90036, USA","lat":34.0764408,"lng":-118.3457564,"zipcode":"90036","city":"Los Angeles","neighborhood":"Central LA"},{"location":"Alex Theater","address":"7165 Beverly Blvd. Los Angeles, ","formattedAddress":"7165 Beverly Blvd, Los Angeles, CA 90036, USA","lat":34.0764408,"lng":-118.3457564,"zipcode":"90036","city":"Los Angeles","neighborhood":"Central LA"},{"location":"Alex Theater","address":"7165 Beverly Blvd. Los Angeles, ","formattedAddress":"7165 Beverly Blvd, Los Angeles, CA 90036, USA","lat":34.0764408,"lng":-118.3457564,"zipcode":"90036","city":"Los Angeles","neighborhood":"Central LA"},{"location":"Alex Theater","address":"7165 Beverly Blvd. Los Angeles, ","formattedAddress":"7165 Beverly Blvd, Los Angeles, CA 90036, USA","lat":34.0764408,"lng":-118.3457564,"zipcode":"90036","city":"Los Angeles","neighborhood":"Central LA"},{"location":"Alex Theater","address":"7165 Beverly Blvd. Los Angeles, ","formattedAddress":"7165 Beverly Blvd, Los Angeles, CA 90036, USA","lat":34.0764408,"lng":-118.3457564,"zipcode":"90036","city":"Los Angeles","neighborhood":"Central LA"},{"location":"Alex Theater","address":"7165 Beverly Blvd. Los Angeles, ","formattedAddress":"7165 Beverly Blvd, Los Angeles, CA 90036, USA","lat":34.0764408,"lng":-118.3457564,"zipcode":"90036","city":"Los Angeles","neighborhood":"Central LA"},{"location":"Alex Theater","address":"7165 Beverly Blvd. Los Angeles, ","formattedAddress":"7165 Beverly Blvd, Los Angeles, CA 90036, USA","lat":34.0764408,"lng":-118.3457564,"zipcode":"90036","city":"Los Angeles","neighborhood":"Central LA"},{"location":"Alex Theater","address":"7165 Beverly Blvd. Los Angeles, ","formattedAddress":"7165 Beverly Blvd, Los Angeles, CA 90036, USA","lat":34.0764408,"lng":-118.3457564,"zipcode":"90036","city":"Los Angeles","neighborhood":"Central LA"},{"location":"Alex Theater","address":"7165 Beverly Blvd. Los Angeles, ","formattedAddress":"7165 Beverly Blvd, Los Angeles, CA 90036, USA","lat":34.0764408,"lng":-118.3457564,"zipcode":"90036","city":"Los Angeles","neighborhood":"Central LA"},{"location":"Alex Theater","address":"7165 Beverly Blvd. Los Angeles, ","formattedAddress":"7165 Beverly Blvd, Los Angeles, CA 90036, USA","lat":34.0764408,"lng":-118.3457564,"zipcode":"90036","city":"Los Angeles","neighborhood":"Central LA"},{"location":"Alex Theater","address":"7165 Beverly Blvd. Los Angeles, ","formattedAddress":"7165 Beverly Blvd, Los Angeles, CA 90036, USA","lat":34.0764408,"lng":-118.3457564,"zipcode":"90036","city":"Los Angeles","neighborhood":"Central LA"},{"location":"Alex Theater","address":"7165 Beverly Blvd. Los Angeles, ","formattedAddress":"7165 Beverly Blvd, Los Angeles, CA 90036, USA","lat":34.0764408,"lng":-118.3457564,"zipcode":"90036","city":"Los Angeles","neighborhood":"Central LA"},{"location":"Alex Theater","address":"7165 Beverly Blvd. Los Angeles, ","formattedAddress":"7165 Beverly Blvd, Los Angeles, CA 90036, USA","lat":34.0764408,"lng":-118.3457564,"zipcode":"90036","city":"Los Angeles","neighborhood":"Central LA"},{"location":"Alex Theater","address":"7165 Beverly Blvd. Los Angeles, ","formattedAddress":"7165 Beverly Blvd, Los Angeles, CA 90036, USA","lat":34.0764408,"lng":-118.3457564,"zipcode":"90036","city":"Los Angeles","neighborhood":"Central LA"},{"location":"Alex Theater","address":"7165 Beverly Blvd. Los Angeles, ","formattedAddress":"7165 Beverly Blvd, Los Angeles, CA 90036, USA","lat":34.0764408,"lng":-118.3457564,"zipcode":"90036","city":"Los Angeles","neighborhood":"Central LA"},{"location":"Alex Theater","address":"7165 Beverly Blvd. Los Angeles, ","formattedAddress":"7165 Beverly Blvd, Los Angeles, CA 90036, USA","lat":34.0764408,"lng":-118.3457564,"zipcode":"90036","city":"Los Angeles","neighborhood":"Central LA"},{"location":"Alex Theater","address":"7165 Beverly Blvd. Los Angeles, ","formattedAddress":"7165 Beverly Blvd, Los Angeles, CA 90036, USA","lat":34.0764408,"lng":-118.3457564,"zipcode":"90036","city":"Los Angeles","neighborhood":"Central LA"},{"location":"Alex Theater","address":"7165 Beverly Blvd. Los Angeles, ","formattedAddress":"7165 Beverly Blvd, Los Angeles, CA 90036, USA","lat":34.0764408,"lng":-118.3457564,"zipcode":"90036","city":"Los Angeles","neighborhood":"Central LA"},{"location":"Alex Theater","address":"7165 Beverly Blvd. Los Angeles, ","formattedAddress":"7165 Beverly Blvd, Los Angeles, CA 90036, USA","lat":34.0764408,"lng":-118.3457564,"zipcode":"90036","city":"Los Angeles","neighborhood":"Central LA"},{"location":"Alex Theater","address":"7165 Beverly Blvd. Los Angeles, ","formattedAddress":"7165 Beverly Blvd, Los Angeles, CA 90036, USA","lat":34.0764408,"lng":-118.3457564,"zipcode":"90036","city":"Los Angeles","neighborhood":"Central LA"},{"location":"Alex Theater","address":"7165 Beverly Blvd. Los Angeles, ","formattedAddress":"7165 Beverly Blvd, Los Angeles, CA 90036, USA","lat":34.0764408,"lng":-118.3457564,"zipcode":"90036","city":"Los Angeles","neighborhood":"Central LA"},{"location":"Alex Theater","address":"7165 Beverly Blvd. Los Angeles, ","formattedAddress":"7165 Beverly Blvd, Los Angeles, CA 90036, USA","lat":34.0764408,"lng":-118.3457564,"zipcode":"90036","city":"Los Angeles","neighborhood":"Central LA"},{"location":"Alex Theater","address":"7165 Beverly Blvd. Los Angeles, ","formattedAddress":"7165 Beverly Blvd, Los Angeles, CA 90036, USA","lat":34.0764408,"lng":-118.3457564,"zipcode":"90036","city":"Los Angeles","neighborhood":"Central LA"},{"location":"Alex Theater","address":"7165 Beverly Blvd. Los Angeles, ","formattedAddress":"7165 Beverly Blvd, Los Angeles, CA 90036, USA","lat":34.0764408,"lng":-118.3457564,"zipcode":"90036","city":"Los Angeles","neighborhood":"Central LA"},{"location":"Alex Theater","address":"7165 Beverly Blvd. Los Angeles, ","formattedAddress":"7165 Beverly Blvd, Los Angeles, CA 90036, USA","lat":34.0764408,"lng":-118.3457564,"zipcode":"90036","city":"Los Angeles","neighborhood":"Central LA"},{"location":"Alex Theater","address":"7165 Beverly Blvd. Los Angeles, ","formattedAddress":"7165 Beverly Blvd, Los Angeles, CA 90036, USA","lat":34.0764408,"lng":-118.3457564,"zipcode":"90036","city":"Los Angeles","neighborhood":"Central LA"},{"location":"Alex Theater","address":"7165 Beverly Blvd. Los Angeles, ","formattedAddress":"7165 Beverly Blvd, Los Angeles, CA 90036, USA","lat":34.0764408,"lng":-118.3457564,"zipcode":"90036","city":"Los Angeles","neighborhood":"Central LA"},{"location":"Alex Theater","address":"7165 Beverly Blvd. Los Angeles, ","formattedAddress":"7165 Beverly Blvd, Los Angeles, CA 90036, USA","lat":34.0764408,"lng":-118.3457564,"zipcode":"90036","city":"Los Angeles","neighborhood":"Central LA"},{"location":"Alex Theater","address":"7165 Beverly Blvd. Los Angeles, ","formattedAddress":"7165 Beverly Blvd, Los Angeles, CA 90036, USA","lat":34.0764408,"lng":-118.3457564,"zipcode":"90036","city":"Los Angeles","neighborhood":"Central LA"},{"location":"Alex Theater","address":"7165 Beverly Blvd. Los Angeles, ","formattedAddress":"7165 Beverly Blvd, Los Angeles, CA 90036, USA","lat":34.0764408,"lng":-118.3457564,"zipcode":"90036","city":"Los Angeles","neighborhood":"Central LA"},{"location":"Alex Theater","address":"7165 Beverly Blvd. Los Angeles, ","formattedAddress":"7165 Beverly Blvd, Los Angeles, CA 90036, USA","lat":34.0764408,"lng":-118.3457564,"zipcode":"90036","city":"Los Angeles","neighborhood":"Central LA"},{"location":"Alex Theater","address":"7165 Beverly Blvd. Los Angeles, ","formattedAddress":"7165 Beverly Blvd, Los Angeles, CA 90036, USA","lat":34.0764408,"lng":-118.3457564,"zipcode":"90036","city":"Los Angeles","neighborhood":"Central LA"},{"location":"Alex Theater","address":"7165 Beverly Blvd. Los Angeles, ","formattedAddress":"7165 Beverly Blvd, Los Angeles, CA 90036, USA","lat":34.0764408,"lng":-118.3457564,"zipcode":"90036","city":"Los Angeles","neighborhood":"Central LA"},{"location":"Alex Theater","address":"7165 Beverly Blvd. Los Angeles, ","formattedAddress":"7165 Beverly Blvd, Los Angeles, CA 90036, USA","lat":34.0764408,"lng":-118.3457564,"zipcode":"90036","city":"Los Angeles","neighborhood":"Central LA"},{"location":"Alex Theater","address":"7165 Beverly Blvd. Los Angeles, ","formattedAddress":"7165 Beverly Blvd, Los Angeles, CA 90036, USA","lat":34.0764408,"lng":-118.3457564,"zipcode":"90036","city":"Los Angeles","neighborhood":"Central LA"},{"location":"Alex Theater","address":"7165 Beverly Blvd. Los Angeles, ","formattedAddress":"7165 Beverly Blvd, Los Angeles, CA 90036, USA","lat":34.0764408,"lng":-118.3457564,"zipcode":"90036","city":"Los Angeles","neighborhood":"Central LA"},{"location":"Alex Theater","address":"7165 Beverly Blvd. Los Angeles, ","formattedAddress":"7165 Beverly Blvd, Los Angeles, CA 90036, USA","lat":34.0764408,"lng":-118.3457564,"zipcode":"90036","city":"Los Angeles","neighborhood":"Central LA"},{"location":"Alex Theater","address":"7165 Beverly Blvd. Los Angeles, ","formattedAddress":"7165 Beverly Blvd, Los Angeles, CA 90036, USA","lat":34.0764408,"lng":-118.3457564,"zipcode":"90036","city":"Los Angeles","neighborhood":"Central LA"},{"location":"Alex Theater","address":"7165 Beverly Blvd. Los Angeles, ","formattedAddress":"7165 Beverly Blvd, Los Angeles, CA 90036, USA","lat":34.0764408,"lng":-118.3457564,"zipcode":"90036","city":"Los Angeles","neighborhood":"Central LA"},{"location":"Alex Theater","address":"7165 Beverly Blvd. Los Angeles, ","formattedAddress":"7165 Beverly Blvd, Los Angeles, CA 90036, USA","lat":34.0764408,"lng":-118.3457564,"zipcode":"90036","city":"Los Angeles","neighborhood":"Central LA"},{"location":"Alex Theater","address":"7165 Beverly Blvd. Los Angeles, ","formattedAddress":"7165 Beverly Blvd, Los Angeles, CA 90036, USA","lat":34.0764408,"lng":-118.3457564,"zipcode":"90036","city":"Los Angeles","neighborhood":"Central LA"},{"location":"Alex Theater","address":"7165 Beverly Blvd. Los Angeles, ","formattedAddress":"7165 Beverly Blvd, Los Angeles, CA 90036, USA","lat":34.0764408,"lng":-118.3457564,"zipcode":"90036","city":"Los Angeles","neighborhood":"Central LA"},{"location":"Alex Theater","address":"7165 Beverly Blvd. Los Angeles, ","formattedAddress":"7165 Beverly Blvd, Los Angeles, CA 90036, USA","lat":34.0764408,"lng":-118.3457564,"zipcode":"90036","city":"Los Angeles","neighborhood":"Central LA"},{"location":"Alex Theater","address":"7165 Beverly Blvd. Los Angeles, ","formattedAddress":"7165 Beverly Blvd, Los Angeles, CA 90036, USA","lat":34.0764408,"lng":-118.3457564,"zipcode":"90036","city":"Los Angeles","neighborhood":"Central LA"},{"location":"Alex Theater","address":"7165 Beverly Blvd. Los Angeles, ","formattedAddress":"7165 Beverly Blvd, Los Angeles, CA 90036, USA","lat":34.0764408,"lng":-118.3457564,"zipcode":"90036","city":"Los Angeles","neighborhood":"Central LA"},{"location":"Alex Theater","address":"7165 Beverly Blvd. Los Angeles, ","formattedAddress":"7165 Beverly Blvd, Los Angeles, CA 90036, USA","lat":34.0764408,"lng":-118.3457564,"zipcode":"90036","city":"Los Angeles","neighborhood":"Central LA"},{"location":"Alex Theater","address":"7165 Beverly Blvd. Los Angeles, ","formattedAddress":"7165 Beverly Blvd, Los Angeles, CA 90036, USA","lat":34.0764408,"lng":-118.3457564,"zipcode":"90036","city":"Los Angeles","neighborhood":"Central LA"},{"location":"Alex Theater","address":"7165 Beverly Blvd. Los Angeles, ","formattedAddress":"7165 Beverly Blvd, Los Angeles, CA 90036, USA","lat":34.0764408,"lng":-118.3457564,"zipcode":"90036","city":"Los Angeles","neighborhood":"Central LA"},{"location":"Alex Theater","address":"7165 Beverly Blvd. Los Angeles, ","formattedAddress":"7165 Beverly Blvd, Los Angeles, CA 90036, USA","lat":34.0764408,"lng":-118.3457564,"zipcode":"90036","city":"Los Angeles","neighborhood":"Central LA"},{"location":"Alex Theater","address":"7165 Beverly Blvd. Los Angeles, ","formattedAddress":"7165 Beverly Blvd, Los Angeles, CA 90036, USA","lat":34.0764408,"lng":-118.3457564,"zipcode":"90036","city":"Los Angeles","neighborhood":"Central LA"},{"location":"Alex Theater","address":"7165 Beverly Blvd. Los Angeles, ","formattedAddress":"7165 Beverly Blvd, Los Angeles, CA 90036, USA","lat":34.0764408,"lng":-118.3457564,"zipcode":"90036","city":"Los Angeles","neighborhood":"Central LA"},{"location":"Alex Theater","address":"7165 Beverly Blvd. Los Angeles, ","formattedAddress":"7165 Beverly Blvd, Los Angeles, CA 90036, USA","lat":34.0764408,"lng":-118.3457564,"zipcode":"90036","city":"Los Angeles","neighborhood":"Central LA"},{"location":"Alex Theater","address":"7165 Beverly Blvd. Los Angeles, ","formattedAddress":"7165 Beverly Blvd, Los Angeles, CA 90036, USA","lat":34.0764408,"lng":-118.3457564,"zipcode":"90036","city":"Los Angeles","neighborhood":"Central LA"},{"location":"Alex Theater","address":"7165 Beverly Blvd. Los Angeles, ","formattedAddress":"7165 Beverly Blvd, Los Angeles, CA 90036, USA","lat":34.0764408,"lng":-118.3457564,"zipcode":"90036","city":"Los Angeles","neighborhood":"Central LA"},{"location":"Alex Theater","address":"7165 Beverly Blvd. Los Angeles, ","formattedAddress":"7165 Beverly Blvd, Los Angeles, CA 90036, USA","lat":34.0764408,"lng":-118.3457564,"zipcode":"90036","city":"Los Angeles","neighborhood":"Central LA"},{"location":"Alex Theater","address":"7165 Beverly Blvd. Los Angeles, ","formattedAddress":"7165 Beverly Blvd, Los Angeles, CA 90036, USA","lat":34.0764408,"lng":-118.3457564,"zipcode":"90036","city":"Los Angeles","neighborhood":"Central LA"},{"location":"Alex Theater","address":"7165 Beverly Blvd. Los Angeles, ","formattedAddress":"7165 Beverly Blvd, Los Angeles, CA 90036, USA","lat":34.0764408,"lng":-118.3457564,"zipcode":"90036","city":"Los Angeles","neighborhood":"Central LA"},{"location":"Alex Theater","address":"7165 Beverly Blvd. Los Angeles, ","formattedAddress":"7165 Beverly Blvd, Los Angeles, CA 90036, USA","lat":34.0764408,"lng":-118.3457564,"zipcode":"90036","city":"Los Angeles","neighborhood":"Central LA"},{"location":"Alex Theater","address":"7165 Beverly Blvd. Los Angeles, ","formattedAddress":"7165 Beverly Blvd, Los Angeles, CA 90036, USA","lat":34.0764408,"lng":-118.3457564,"zipcode":"90036","city":"Los Angeles","neighborhood":"Central LA"},{"location":"Alex Theater","address":"7165 Beverly Blvd. Los Angeles, ","formattedAddress":"7165 Beverly Blvd, Los Angeles, CA 90036, USA","lat":34.0764408,"lng":-118.3457564,"zipcode":"90036","city":"Los Angeles","neighborhood":"Central LA"},{"location":"Alex Theater","address":"7165 Beverly Blvd. Los Angeles, ","formattedAddress":"7165 Beverly Blvd, Los Angeles, CA 90036, USA","lat":34.0764408,"lng":-118.3457564,"zipcode":"90036","city":"Los Angeles","neighborhood":"Central LA"},{"location":"Alex Theater","address":"7165 Beverly Blvd. Los Angeles, ","formattedAddress":"7165 Beverly Blvd, Los Angeles, CA 90036, USA","lat":34.0764408,"lng":-118.3457564,"zipcode":"90036","city":"Los Angeles","neighborhood":"Central LA"},{"location":"Alex Theater","address":"7165 Beverly Blvd. Los Angeles, ","formattedAddress":"7165 Beverly Blvd, Los Angeles, CA 90036, USA","lat":34.0764408,"lng":-118.3457564,"zipcode":"90036","city":"Los Angeles","neighborhood":"Central LA"},{"location":"Alex Theater","address":"7165 Beverly Blvd. Los Angeles, ","formattedAddress":"7165 Beverly Blvd, Los Angeles, CA 90036, USA","lat":34.0764408,"lng":-118.3457564,"zipcode":"90036","city":"Los Angeles","neighborhood":"Central LA"},{"location":"Alex Theater","address":"7165 Beverly Blvd. Los Angeles, ","formattedAddress":"7165 Beverly Blvd, Los Angeles, CA 90036, USA","lat":34.0764408,"lng":-118.3457564,"zipcode":"90036","city":"Los Angeles","neighborhood":"Central LA"},{"location":"Alex Theater","address":"7165 Beverly Blvd. Los Angeles, ","formattedAddress":"7165 Beverly Blvd, Los Angeles, CA 90036, USA","lat":34.0764408,"lng":-118.3457564,"zipcode":"90036","city":"Los Angeles","neighborhood":"Central LA"},{"location":"Alex Theater","address":"7165 Beverly Blvd. Los Angeles, ","formattedAddress":"7165 Beverly Blvd, Los Angeles, CA 90036, USA","lat":34.0764408,"lng":-118.3457564,"zipcode":"90036","city":"Los Angeles","neighborhood":"Central LA"},{"location":"Alex Theater","address":"7165 Beverly Blvd. Los Angeles, ","formattedAddress":"7165 Beverly Blvd, Los Angeles, CA 90036, USA","lat":34.0764408,"lng":-118.3457564,"zipcode":"90036","city":"Los Angeles","neighborhood":"Central LA"},{"location":"Alex Theater","address":"7165 Beverly Blvd. Los Angeles, ","formattedAddress":"7165 Beverly Blvd, Los Angeles, CA 90036, USA","lat":34.0764408,"lng":-118.3457564,"zipcode":"90036","city":"Los Angeles","neighborhood":"Central LA"},{"location":"Alex Theater","address":"7165 Beverly Blvd. Los Angeles, ","formattedAddress":"7165 Beverly Blvd, Los Angeles, CA 90036, USA","lat":34.0764408,"lng":-118.3457564,"zipcode":"90036","city":"Los Angeles","neighborhood":"Central LA"},{"location":"Alex Theater","address":"7165 Beverly Blvd. Los Angeles, ","formattedAddress":"7165 Beverly Blvd, Los Angeles, CA 90036, USA","lat":34.0764408,"lng":-118.3457564,"zipcode":"90036","city":"Los Angeles","neighborhood":"Central LA"},{"location":"Alex Theater","address":"7165 Beverly Blvd. Los Angeles, ","formattedAddress":"7165 Beverly Blvd, Los Angeles, CA 90036, USA","lat":34.0764408,"lng":-118.3457564,"zipcode":"90036","city":"Los Angeles","neighborhood":"Central LA"},{"location":"Alex Theater","address":"7165 Beverly Blvd. Los Angeles, ","formattedAddress":"7165 Beverly Blvd, Los Angeles, CA 90036, USA","lat":34.0764408,"lng":-118.3457564,"zipcode":"90036","city":"Los Angeles","neighborhood":"Central LA"},{"location":"Alex Theater","address":"7165 Beverly Blvd. Los Angeles, ","formattedAddress":"7165 Beverly Blvd, Los Angeles, CA 90036, USA","lat":34.0764408,"lng":-118.3457564,"zipcode":"90036","city":"Los Angeles","neighborhood":"Central LA"},{"location":"Alex Theater","address":"7165 Beverly Blvd. Los Angeles, ","formattedAddress":"7165 Beverly Blvd, Los Angeles, CA 90036, USA","lat":34.0764408,"lng":-118.3457564,"zipcode":"90036","city":"Los Angeles","neighborhood":"Central LA"},{"location":"Alex Theater","address":"7165 Beverly Blvd. Los Angeles, ","formattedAddress":"7165 Beverly Blvd, Los Angeles, CA 90036, USA","lat":34.0764408,"lng":-118.3457564,"zipcode":"90036","city":"Los Angeles","neighborhood":"Central LA"},{"location":"Alex Theater","address":"7165 Beverly Blvd. Los Angeles, ","formattedAddress":"7165 Beverly Blvd, Los Angeles, CA 90036, USA","lat":34.0764408,"lng":-118.3457564,"zipcode":"90036","city":"Los Angeles","neighborhood":"Central LA"},{"location":"Alex Theater","address":"7165 Beverly Blvd. Los Angeles, ","formattedAddress":"7165 Beverly Blvd, Los Angeles, CA 90036, USA","lat":34.0764408,"lng":-118.3457564,"zipcode":"90036","city":"Los Angeles","neighborhood":"Central LA"},{"location":"Alex Theater","address":"7165 Beverly Blvd. Los Angeles, ","formattedAddress":"7165 Beverly Blvd, Los Angeles, CA 90036, USA","lat":34.0764408,"lng":-118.3457564,"zipcode":"90036","city":"Los Angeles","neighborhood":"Central LA"},{"location":"Alex Theater","address":"7165 Beverly Blvd. Los Angeles, ","formattedAddress":"7165 Beverly Blvd, Los Angeles, CA 90036, USA","lat":34.0764408,"lng":-118.3457564,"zipcode":"90036","city":"Los Angeles","neighborhood":"Central LA"},{"location":"Alex Theater","address":"7165 Beverly Blvd. Los Angeles, ","formattedAddress":"7165 Beverly Blvd, Los Angeles, CA 90036, USA","lat":34.0764408,"lng":-118.3457564,"zipcode":"90036","city":"Los Angeles","neighborhood":"Central LA"},{"location":"Alex Theater","address":"7165 Beverly Blvd. Los Angeles, ","formattedAddress":"7165 Beverly Blvd, Los Angeles, CA 90036, USA","lat":34.0764408,"lng":-118.3457564,"zipcode":"90036","city":"Los Angeles","neighborhood":"Central LA"},{"location":"Alex Theater","address":"7165 Beverly Blvd. Los Angeles, ","formattedAddress":"7165 Beverly Blvd, Los Angeles, CA 90036, USA","lat":34.0764408,"lng":-118.3457564,"zipcode":"90036","city":"Los Angeles","neighborhood":"Central LA"},{"location":"Alex Theater","address":"7165 Beverly Blvd. Los Angeles, ","formattedAddress":"7165 Beverly Blvd, Los Angeles, CA 90036, USA","lat":34.0764408,"lng":-118.3457564,"zipcode":"90036","city":"Los Angeles","neighborhood":"Central LA"},{"location":"Alex Theater","address":"7165 Beverly Blvd. Los Angeles, ","formattedAddress":"7165 Beverly Blvd, Los Angeles, CA 90036, USA","lat":34.0764408,"lng":-118.3457564,"zipcode":"90036","city":"Los Angeles","neighborhood":"Central LA"},{"location":"Alex Theater","address":"7165 Beverly Blvd. Los Angeles, ","formattedAddress":"7165 Beverly Blvd, Los Angeles, CA 90036, USA","lat":34.0764408,"lng":-118.3457564,"zipcode":"90036","city":"Los Angeles","neighborhood":"Central LA"},{"location":"Alex Theater","address":"7165 Beverly Blvd. Los Angeles, ","formattedAddress":"7165 Beverly Blvd, Los Angeles, CA 90036, USA","lat":34.0764408,"lng":-118.3457564,"zipcode":"90036","city":"Los Angeles","neighborhood":"Central LA"},{"location":"Alex Theater","address":"7165 Beverly Blvd. Los Angeles, ","formattedAddress":"7165 Beverly Blvd, Los Angeles, CA 90036, USA","lat":34.0764408,"lng":-118.3457564,"zipcode":"90036","city":"Los Angeles","neighborhood":"Central LA"},{"location":"Alex Theater","address":"7165 Beverly Blvd. Los Angeles, ","formattedAddress":"7165 Beverly Blvd, Los Angeles, CA 90036, USA","lat":34.0764408,"lng":-118.3457564,"zipcode":"90036","city":"Los Angeles","neighborhood":"Central LA"},{"location":"Alex Theater","address":"7165 Beverly Blvd. Los Angeles, ","formattedAddress":"7165 Beverly Blvd, Los Angeles, CA 90036, USA","lat":34.0764408,"lng":-118.3457564,"zipcode":"90036","city":"Los Angeles","neighborhood":"Central LA"},{"location":"Alex Theater","address":"7165 Beverly Blvd. Los Angeles, ","formattedAddress":"7165 Beverly Blvd, Los Angeles, CA 90036, USA","lat":34.0764408,"lng":-118.3457564,"zipcode":"90036","city":"Los Angeles","neighborhood":"Central LA"},{"location":"Alex Theater","address":"7165 Beverly Blvd. Los Angeles, ","formattedAddress":"7165 Beverly Blvd, Los Angeles, CA 90036, USA","lat":34.0764408,"lng":-118.3457564,"zipcode":"90036","city":"Los Angeles","neighborhood":"Central LA"},{"location":"Alex Theater","address":"7165 Beverly Blvd. Los Angeles, ","formattedAddress":"7165 Beverly Blvd, Los Angeles, CA 90036, USA","lat":34.0764408,"lng":-118.3457564,"zipcode":"90036","city":"Los Angeles","neighborhood":"Central LA"},{"location":"Alex Theater","address":"7165 Beverly Blvd. Los Angeles, ","formattedAddress":"7165 Beverly Blvd, Los Angeles, CA 90036, USA","lat":34.0764408,"lng":-118.3457564,"zipcode":"90036","city":"Los Angeles","neighborhood":"Central LA"},{"location":"Alex Theater","address":"7165 Beverly Blvd. Los Angeles, ","formattedAddress":"7165 Beverly Blvd, Los Angeles, CA 90036, USA","lat":34.0764408,"lng":-118.3457564,"zipcode":"90036","city":"Los Angeles","neighborhood":"Central LA"},{"location":"Alex Theater","address":"7165 Beverly Blvd. Los Angeles, ","formattedAddress":"7165 Beverly Blvd, Los Angeles, CA 90036, USA","lat":34.0764408,"lng":-118.3457564,"zipcode":"90036","city":"Los Angeles","neighborhood":"Central LA"},{"location":"Alex Theater","address":"7165 Beverly Blvd. Los Angeles, ","formattedAddress":"7165 Beverly Blvd, Los Angeles, CA 90036, USA","lat":34.0764408,"lng":-118.3457564,"zipcode":"90036","city":"Los Angeles","neighborhood":"Central LA"},{"location":"Alex Theater","address":"7165 Beverly Blvd. Los Angeles, ","formattedAddress":"7165 Beverly Blvd, Los Angeles, CA 90036, USA","lat":34.0764408,"lng":-118.3457564,"zipcode":"90036","city":"Los Angeles","neighborhood":"Central LA"},{"location":"Alex Theater","address":"7165 Beverly Blvd. Los Angeles, ","formattedAddress":"7165 Beverly Blvd, Los Angeles, CA 90036, USA","lat":34.0764408,"lng":-118.3457564,"zipcode":"90036","city":"Los Angeles","neighborhood":"Central LA"},{"location":"Alex Theater","address":"7165 Beverly Blvd. Los Angeles, ","formattedAddress":"7165 Beverly Blvd, Los Angeles, CA 90036, USA","lat":34.0764408,"lng":-118.3457564,"zipcode":"90036","city":"Los Angeles","neighborhood":"Central LA"},{"location":"Alex Theater","address":"7165 Beverly Blvd. Los Angeles, ","formattedAddress":"7165 Beverly Blvd, Los Angeles, CA 90036, USA","lat":34.0764408,"lng":-118.3457564,"zipcode":"90036","city":"Los Angeles","neighborhood":"Central LA"},{"location":"Alex Theater","address":"7165 Beverly Blvd. Los Angeles, ","formattedAddress":"7165 Beverly Blvd, Los Angeles, CA 90036, USA","lat":34.0764408,"lng":-118.3457564,"zipcode":"90036","city":"Los Angeles","neighborhood":"Central LA"},{"location":"Alex Theater","address":"7165 Beverly Blvd. Los Angeles, ","formattedAddress":"7165 Beverly Blvd, Los Angeles, CA 90036, USA","lat":34.0764408,"lng":-118.3457564,"zipcode":"90036","city":"Los Angeles","neighborhood":"Central LA"},{"location":"Alex Theater","address":"7165 Beverly Blvd. Los Angeles, ","formattedAddress":"7165 Beverly Blvd, Los Angeles, CA 90036, USA","lat":34.0764408,"lng":-118.3457564,"zipcode":"90036","city":"Los Angeles","neighborhood":"Central LA"},{"location":"Alex Theater","address":"7165 Beverly Blvd. Los Angeles, ","formattedAddress":"7165 Beverly Blvd, Los Angeles, CA 90036, USA","lat":34.0764408,"lng":-118.3457564,"zipcode":"90036","city":"Los Angeles","neighborhood":"Central LA"},{"location":"Alex Theater","address":"7165 Beverly Blvd. Los Angeles, ","formattedAddress":"7165 Beverly Blvd, Los Angeles, CA 90036, USA","lat":34.0764408,"lng":-118.3457564,"zipcode":"90036","city":"Los Angeles","neighborhood":"Central LA"},{"location":"Alex Theater","address":"7165 Beverly Blvd. Los Angeles, ","formattedAddress":"7165 Beverly Blvd, Los Angeles, CA 90036, USA","lat":34.0764408,"lng":-118.3457564,"zipcode":"90036","city":"Los Angeles","neighborhood":"Central LA"},{"location":"Alex Theater","address":"7165 Beverly Blvd. Los Angeles, ","formattedAddress":"7165 Beverly Blvd, Los Angeles, CA 90036, USA","lat":34.0764408,"lng":-118.3457564,"zipcode":"90036","city":"Los Angeles","neighborhood":"Central LA"},{"location":"Alex Theater","address":"7165 Beverly Blvd. Los Angeles, ","formattedAddress":"7165 Beverly Blvd, Los Angeles, CA 90036, USA","lat":34.0764408,"lng":-118.3457564,"zipcode":"90036","city":"Los Angeles","neighborhood":"Central LA"},{"location":"Alex Theater","address":"7165 Beverly Blvd. Los Angeles, ","formattedAddress":"7165 Beverly Blvd, Los Angeles, CA 90036, USA","lat":34.0764408,"lng":-118.3457564,"zipcode":"90036","city":"Los Angeles","neighborhood":"Central LA"},{"location":"Alex Theater","address":"7165 Beverly Blvd. Los Angeles, ","formattedAddress":"7165 Beverly Blvd, Los Angeles, CA 90036, USA","lat":34.0764408,"lng":-118.3457564,"zipcode":"90036","city":"Los Angeles","neighborhood":"Central LA"},{"location":"Alex Theater","address":"7165 Beverly Blvd. Los Angeles, ","formattedAddress":"7165 Beverly Blvd, Los Angeles, CA 90036, USA","lat":34.0764408,"lng":-118.3457564,"zipcode":"90036","city":"Los Angeles","neighborhood":"Central LA"},{"location":"Alex Theater","address":"7165 Beverly Blvd. Los Angeles, ","formattedAddress":"7165 Beverly Blvd, Los Angeles, CA 90036, USA","lat":34.0764408,"lng":-118.3457564,"zipcode":"90036","city":"Los Angeles","neighborhood":"Central LA"},{"location":"Alex Theater","address":"7165 Beverly Blvd. Los Angeles, ","formattedAddress":"7165 Beverly Blvd, Los Angeles, CA 90036, USA","lat":34.0764408,"lng":-118.3457564,"zipcode":"90036","city":"Los Angeles","neighborhood":"Central LA"},{"location":"Alex Theater","address":"7165 Beverly Blvd. Los Angeles, ","formattedAddress":"7165 Beverly Blvd, Los Angeles, CA 90036, USA","lat":34.0764408,"lng":-118.3457564,"zipcode":"90036","city":"Los Angeles","neighborhood":"Central LA"},{"location":"Alex Theater","address":"7165 Beverly Blvd. Los Angeles, ","formattedAddress":"7165 Beverly Blvd, Los Angeles, CA 90036, USA","lat":34.0764408,"lng":-118.3457564,"zipcode":"90036","city":"Los Angeles","neighborhood":"Central LA"},{"location":"Alex Theater","address":"7165 Beverly Blvd. Los Angeles, ","formattedAddress":"7165 Beverly Blvd, Los Angeles, CA 90036, USA","lat":34.0764408,"lng":-118.3457564,"zipcode":"90036","city":"Los Angeles","neighborhood":"Central LA"},{"location":"Alex Theater","address":"7165 Beverly Blvd. Los Angeles, ","formattedAddress":"7165 Beverly Blvd, Los Angeles, CA 90036, USA","lat":34.0764408,"lng":-118.3457564,"zipcode":"90036","city":"Los Angeles","neighborhood":"Central LA"},{"location":"Alex Theater","address":"7165 Beverly Blvd. Los Angeles, ","formattedAddress":"7165 Beverly Blvd, Los Angeles, CA 90036, USA","lat":34.0764408,"lng":-118.3457564,"zipcode":"90036","city":"Los Angeles","neighborhood":"Central LA"},{"location":"Alex Theater","address":"7165 Beverly Blvd. Los Angeles, ","formattedAddress":"7165 Beverly Blvd, Los Angeles, CA 90036, USA","lat":34.0764408,"lng":-118.3457564,"zipcode":"90036","city":"Los Angeles","neighborhood":"Central LA"},{"location":"Alex Theater","address":"7165 Beverly Blvd. Los Angeles, ","formattedAddress":"7165 Beverly Blvd, Los Angeles, CA 90036, USA","lat":34.0764408,"lng":-118.3457564,"zipcode":"90036","city":"Los Angeles","neighborhood":"Central LA"},{"location":"Alex Theater","address":"7165 Beverly Blvd. Los Angeles, ","formattedAddress":"7165 Beverly Blvd, Los Angeles, CA 90036, USA","lat":34.0764408,"lng":-118.3457564,"zipcode":"90036","city":"Los Angeles","neighborhood":"Central LA"},{"location":"Alex Theater","address":"7165 Beverly Blvd. Los Angeles, ","formattedAddress":"7165 Beverly Blvd, Los Angeles, CA 90036, USA","lat":34.0764408,"lng":-118.3457564,"zipcode":"90036","city":"Los Angeles","neighborhood":"Central LA"},{"location":"Alex Theater","address":"7165 Beverly Blvd. Los Angeles, ","formattedAddress":"7165 Beverly Blvd, Los Angeles, CA 90036, USA","lat":34.0764408,"lng":-118.3457564,"zipcode":"90036","city":"Los Angeles","neighborhood":"Central LA"},{"location":"Alex Theater","address":"7165 Beverly Blvd. Los Angeles, ","formattedAddress":"7165 Beverly Blvd, Los Angeles, CA 90036, USA","lat":34.0764408,"lng":-118.3457564,"zipcode":"90036","city":"Los Angeles","neighborhood":"Central LA"},{"location":"Alex Theater","address":"7165 Beverly Blvd. Los Angeles, ","formattedAddress":"7165 Beverly Blvd, Los Angeles, CA 90036, USA","lat":34.0764408,"lng":-118.3457564,"zipcode":"90036","city":"Los Angeles","neighborhood":"Central LA"},{"location":"Alex Theater","address":"7165 Beverly Blvd. Los Angeles, ","formattedAddress":"7165 Beverly Blvd, Los Angeles, CA 90036, USA","lat":34.0764408,"lng":-118.3457564,"zipcode":"90036","city":"Los Angeles","neighborhood":"Central LA"},{"location":"Alex Theater","address":"7165 Beverly Blvd. Los Angeles, ","formattedAddress":"7165 Beverly Blvd, Los Angeles, CA 90036, USA","lat":34.0764408,"lng":-118.3457564,"zipcode":"90036","city":"Los Angeles","neighborhood":"Central LA"},{"location":"Alex Theater","address":"7165 Beverly Blvd. Los Angeles, ","formattedAddress":"7165 Beverly Blvd, Los Angeles, CA 90036, USA","lat":34.0764408,"lng":-118.3457564,"zipcode":"90036","city":"Los Angeles","neighborhood":"Central LA"},{"location":"Alex Theater","address":"7165 Beverly Blvd. Los Angeles, ","formattedAddress":"7165 Beverly Blvd, Los Angeles, CA 90036, USA","lat":34.0764408,"lng":-118.3457564,"zipcode":"90036","city":"Los Angeles","neighborhood":"Central LA"},{"location":"Alex Theater","address":"7165 Beverly Blvd. Los Angeles, ","formattedAddress":"7165 Beverly Blvd, Los Angeles, CA 90036, USA","lat":34.0764408,"lng":-118.3457564,"zipcode":"90036","city":"Los Angeles","neighborhood":"Central LA"},{"location":"Alex Theater","address":"7165 Beverly Blvd. Los Angeles, ","formattedAddress":"7165 Beverly Blvd, Los Angeles, CA 90036, USA","lat":34.0764408,"lng":-118.3457564,"zipcode":"90036","city":"Los Angeles","neighborhood":"Central LA"},{"location":"Alex Theater","address":"7165 Beverly Blvd. Los Angeles, ","formattedAddress":"7165 Beverly Blvd, Los Angeles, CA 90036, USA","lat":34.0764408,"lng":-118.3457564,"zipcode":"90036","city":"Los Angeles","neighborhood":"Central LA"},{"location":"Alex Theater","address":"7165 Beverly Blvd. Los Angeles, ","formattedAddress":"7165 Beverly Blvd, Los Angeles, CA 90036, USA","lat":34.0764408,"lng":-118.3457564,"zipcode":"90036","city":"Los Angeles","neighborhood":"Central LA"},{"location":"Alex Theater","address":"7165 Beverly Blvd. Los Angeles, ","formattedAddress":"7165 Beverly Blvd, Los Angeles, CA 90036, USA","lat":34.0764408,"lng":-118.3457564,"zipcode":"90036","city":"Los Angeles","neighborhood":"Central LA"},{"location":"Alex Theater","address":"7165 Beverly Blvd. Los Angeles, ","formattedAddress":"7165 Beverly Blvd, Los Angeles, CA 90036, USA","lat":34.0764408,"lng":-118.3457564,"zipcode":"90036","city":"Los Angeles","neighborhood":"Central LA"},{"location":"Alex Theater","address":"7165 Beverly Blvd. Los Angeles, ","formattedAddress":"7165 Beverly Blvd, Los Angeles, CA 90036, USA","lat":34.0764408,"lng":-118.3457564,"zipcode":"90036","city":"Los Angeles","neighborhood":"Central LA"},{"location":"Alex Theater","address":"7165 Beverly Blvd. Los Angeles, ","formattedAddress":"7165 Beverly Blvd, Los Angeles, CA 90036, USA","lat":34.0764408,"lng":-118.3457564,"zipcode":"90036","city":"Los Angeles","neighborhood":"Central LA"},{"location":"Alex Theater","address":"7165 Beverly Blvd. Los Angeles, ","formattedAddress":"7165 Beverly Blvd, Los Angeles, CA 90036, USA","lat":34.0764408,"lng":-118.3457564,"zipcode":"90036","city":"Los Angeles","neighborhood":"Central LA"},{"location":"Alex Theater","address":"7165 Beverly Blvd. Los Angeles, ","formattedAddress":"7165 Beverly Blvd, Los Angeles, CA 90036, USA","lat":34.0764408,"lng":-118.3457564,"zipcode":"90036","city":"Los Angeles","neighborhood":"Central LA"},{"location":"Alex Theater","address":"7165 Beverly Blvd. Los Angeles, ","formattedAddress":"7165 Beverly Blvd, Los Angeles, CA 90036, USA","lat":34.0764408,"lng":-118.3457564,"zipcode":"90036","city":"Los Angeles","neighborhood":"Central LA"},{"location":"Alex Theater","address":"7165 Beverly Blvd. Los Angeles, ","formattedAddress":"7165 Beverly Blvd, Los Angeles, CA 90036, USA","lat":34.0764408,"lng":-118.3457564,"zipcode":"90036","city":"Los Angeles","neighborhood":"Central LA"},{"location":"Alex Theater","address":"7165 Beverly Blvd. Los Angeles, ","formattedAddress":"7165 Beverly Blvd, Los Angeles, CA 90036, USA","lat":34.0764408,"lng":-118.3457564,"zipcode":"90036","city":"Los Angeles","neighborhood":"Central LA"},{"location":"Alex Theater","address":"7165 Beverly Blvd. Los Angeles, ","formattedAddress":"7165 Beverly Blvd, Los Angeles, CA 90036, USA","lat":34.0764408,"lng":-118.3457564,"zipcode":"90036","city":"Los Angeles","neighborhood":"Central LA"},{"location":"Alex Theater","address":"7165 Beverly Blvd. Los Angeles, ","formattedAddress":"7165 Beverly Blvd, Los Angeles, CA 90036, USA","lat":34.0764408,"lng":-118.3457564,"zipcode":"90036","city":"Los Angeles","neighborhood":"Central LA"},{"location":"Alex Theater","address":"7165 Beverly Blvd. Los Angeles, ","formattedAddress":"7165 Beverly Blvd, Los Angeles, CA 90036, USA","lat":34.0764408,"lng":-118.3457564,"zipcode":"90036","city":"Los Angeles","neighborhood":"Central LA"},{"location":"Alex Theater","address":"7165 Beverly Blvd. Los Angeles, ","formattedAddress":"7165 Beverly Blvd, Los Angeles, CA 90036, USA","lat":34.0764408,"lng":-118.3457564,"zipcode":"90036","city":"Los Angeles","neighborhood":"Central LA"},{"location":"Alex Theater","address":"7165 Beverly Blvd. Los Angeles, ","formattedAddress":"7165 Beverly Blvd, Los Angeles, CA 90036, USA","lat":34.0764408,"lng":-118.3457564,"zipcode":"90036","city":"Los Angeles","neighborhood":"Central LA"},{"location":"Alex Theater","address":"7165 Beverly Blvd. Los Angeles, ","formattedAddress":"7165 Beverly Blvd, Los Angeles, CA 90036, USA","lat":34.0764408,"lng":-118.3457564,"zipcode":"90036","city":"Los Angeles","neighborhood":"Central LA"},{"location":"Alex Theater","address":"7165 Beverly Blvd. Los Angeles, ","formattedAddress":"7165 Beverly Blvd, Los Angeles, CA 90036, USA","lat":34.0764408,"lng":-118.3457564,"zipcode":"90036","city":"Los Angeles","neighborhood":"Central LA"},{"location":"Alex Theater","address":"7165 Beverly Blvd. Los Angeles, ","formattedAddress":"7165 Beverly Blvd, Los Angeles, CA 90036, USA","lat":34.0764408,"lng":-118.3457564,"zipcode":"90036","city":"Los Angeles","neighborhood":"Central LA"},{"location":"Alex Theater","address":"7165 Beverly Blvd. Los Angeles, ","formattedAddress":"7165 Beverly Blvd, Los Angeles, CA 90036, USA","lat":34.0764408,"lng":-118.3457564,"zipcode":"90036","city":"Los Angeles","neighborhood":"Central LA"},{"location":"Alex Theater","address":"7165 Beverly Blvd. Los Angeles, ","formattedAddress":"7165 Beverly Blvd, Los Angeles, CA 90036, USA","lat":34.0764408,"lng":-118.3457564,"zipcode":"90036","city":"Los Angeles","neighborhood":"Central LA"},{"location":"Alex Theater","address":"7165 Beverly Blvd. Los Angeles, ","formattedAddress":"7165 Beverly Blvd, Los Angeles, CA 90036, USA","lat":34.0764408,"lng":-118.3457564,"zipcode":"90036","city":"Los Angeles","neighborhood":"Central LA"},{"location":"Alex Theater","address":"7165 Beverly Blvd. Los Angeles, ","formattedAddress":"7165 Beverly Blvd, Los Angeles, CA 90036, USA","lat":34.0764408,"lng":-118.3457564,"zipcode":"90036","city":"Los Angeles","neighborhood":"Central LA"},{"location":"Alex Theater","address":"7165 Beverly Blvd. Los Angeles, ","formattedAddress":"7165 Beverly Blvd, Los Angeles, CA 90036, USA","lat":34.0764408,"lng":-118.3457564,"zipcode":"90036","city":"Los Angeles","neighborhood":"Central LA"},{"location":"Alex Theater","address":"7165 Beverly Blvd. Los Angeles, ","formattedAddress":"7165 Beverly Blvd, Los Angeles, CA 90036, USA","lat":34.0764408,"lng":-118.3457564,"zipcode":"90036","city":"Los Angeles","neighborhood":"Central LA"},{"location":"Alex Theater","address":"7165 Beverly Blvd. Los Angeles, ","formattedAddress":"7165 Beverly Blvd, Los Angeles, CA 90036, USA","lat":34.0764408,"lng":-118.3457564,"zipcode":"90036","city":"Los Angeles","neighborhood":"Central LA"},{"location":"Alex Theater","address":"7165 Beverly Blvd. Los Angeles, ","formattedAddress":"7165 Beverly Blvd, Los Angeles, CA 90036, USA","lat":34.0764408,"lng":-118.3457564,"zipcode":"90036","city":"Los Angeles","neighborhood":"Central LA"},{"location":"Alex Theater","address":"7165 Beverly Blvd. Los Angeles, ","formattedAddress":"7165 Beverly Blvd, Los Angeles, CA 90036, USA","lat":34.0764408,"lng":-118.3457564,"zipcode":"90036","city":"Los Angeles","neighborhood":"Central LA"},{"location":"Alex Theater","address":"7165 Beverly Blvd. Los Angeles, ","formattedAddress":"7165 Beverly Blvd, Los Angeles, CA 90036, USA","lat":34.0764408,"lng":-118.3457564,"zipcode":"90036","city":"Los Angeles","neighborhood":"Central LA"},{"location":"Alex Theater","address":"7165 Beverly Blvd. Los Angeles, ","formattedAddress":"7165 Beverly Blvd, Los Angeles, CA 90036, USA","lat":34.0764408,"lng":-118.3457564,"zipcode":"90036","city":"Los Angeles","neighborhood":"Central LA"},{"location":"Alex Theater","address":"7165 Beverly Blvd. Los Angeles, ","formattedAddress":"7165 Beverly Blvd, Los Angeles, CA 90036, USA","lat":34.0764408,"lng":-118.3457564,"zipcode":"90036","city":"Los Angeles","neighborhood":"Central LA"},{"location":"Alex Theater","address":"7165 Beverly Blvd. Los Angeles, ","formattedAddress":"7165 Beverly Blvd, Los Angeles, CA 90036, USA","lat":34.0764408,"lng":-118.3457564,"zipcode":"90036","city":"Los Angeles","neighborhood":"Central LA"},{"location":"Alex Theater","address":"7165 Beverly Blvd. Los Angeles, ","formattedAddress":"7165 Beverly Blvd, Los Angeles, CA 90036, USA","lat":34.0764408,"lng":-118.3457564,"zipcode":"90036","city":"Los Angeles","neighborhood":"Central LA"},{"location":"Alex Theater","address":"7165 Beverly Blvd. Los Angeles, ","formattedAddress":"7165 Beverly Blvd, Los Angeles, CA 90036, USA","lat":34.0764408,"lng":-118.3457564,"zipcode":"90036","city":"Los Angeles","neighborhood":"Central LA"},{"location":"Alex Theater","address":"7165 Beverly Blvd. Los Angeles, ","formattedAddress":"7165 Beverly Blvd, Los Angeles, CA 90036, USA","lat":34.0764408,"lng":-118.3457564,"zipcode":"90036","city":"Los Angeles","neighborhood":"Central LA"},{"location":"Alex Theater","address":"7165 Beverly Blvd. Los Angeles, ","formattedAddress":"7165 Beverly Blvd, Los Angeles, CA 90036, USA","lat":34.0764408,"lng":-118.3457564,"zipcode":"90036","city":"Los Angeles","neighborhood":"Central LA"},{"location":"Alex Theater","address":"7165 Beverly Blvd. Los Angeles, ","formattedAddress":"7165 Beverly Blvd, Los Angeles, CA 90036, USA","lat":34.0764408,"lng":-118.3457564,"zipcode":"90036","city":"Los Angeles","neighborhood":"Central LA"},{"location":"Alex Theater","address":"7165 Beverly Blvd. Los Angeles, ","formattedAddress":"7165 Beverly Blvd, Los Angeles, CA 90036, USA","lat":34.0764408,"lng":-118.3457564,"zipcode":"90036","city":"Los Angeles","neighborhood":"Central LA"},{"location":"Alex Theater","address":"7165 Beverly Blvd. Los Angeles, ","formattedAddress":"7165 Beverly Blvd, Los Angeles, CA 90036, USA","lat":34.0764408,"lng":-118.3457564,"zipcode":"90036","city":"Los Angeles","neighborhood":"Central LA"},{"location":"Alex Theater","address":"7165 Beverly Blvd. Los Angeles, ","formattedAddress":"7165 Beverly Blvd, Los Angeles, CA 90036, USA","lat":34.0764408,"lng":-118.3457564,"zipcode":"90036","city":"Los Angeles","neighborhood":"Central LA"},{"location":"Alex Theater","address":"7165 Beverly Blvd. Los Angeles, ","formattedAddress":"7165 Beverly Blvd, Los Angeles, CA 90036, USA","lat":34.0764408,"lng":-118.3457564,"zipcode":"90036","city":"Los Angeles","neighborhood":"Central LA"},{"location":"Alex Theater","address":"7165 Beverly Blvd. Los Angeles, ","formattedAddress":"7165 Beverly Blvd, Los Angeles, CA 90036, USA","lat":34.0764408,"lng":-118.3457564,"zipcode":"90036","city":"Los Angeles","neighborhood":"Central LA"},{"location":"Alex Theater","address":"7165 Beverly Blvd. Los Angeles, ","formattedAddress":"7165 Beverly Blvd, Los Angeles, CA 90036, USA","lat":34.0764408,"lng":-118.3457564,"zipcode":"90036","city":"Los Angeles","neighborhood":"Central LA"},{"location":"Alex Theater","address":"7165 Beverly Blvd. Los Angeles, ","formattedAddress":"7165 Beverly Blvd, Los Angeles, CA 90036, USA","lat":34.0764408,"lng":-118.3457564,"zipcode":"90036","city":"Los Angeles","neighborhood":"Central LA"},{"location":"Alex Theater","address":"7165 Beverly Blvd. Los Angeles, ","formattedAddress":"7165 Beverly Blvd, Los Angeles, CA 90036, USA","lat":34.0764408,"lng":-118.3457564,"zipcode":"90036","city":"Los Angeles","neighborhood":"Central LA"},{"location":"Alex Theater","address":"7165 Beverly Blvd. Los Angeles, ","formattedAddress":"7165 Beverly Blvd, Los Angeles, CA 90036, USA","lat":34.0764408,"lng":-118.3457564,"zipcode":"90036","city":"Los Angeles","neighborhood":"Central LA"},{"location":"Alex Theater","address":"7165 Beverly Blvd. Los Angeles, ","formattedAddress":"7165 Beverly Blvd, Los Angeles, CA 90036, USA","lat":34.0764408,"lng":-118.3457564,"zipcode":"90036","city":"Los Angeles","neighborhood":"Central LA"},{"location":"Alex Theater","address":"7165 Beverly Blvd. Los Angeles, ","formattedAddress":"7165 Beverly Blvd, Los Angeles, CA 90036, USA","lat":34.0764408,"lng":-118.3457564,"zipcode":"90036","city":"Los Angeles","neighborhood":"Central LA"},{"location":"Alex Theater","address":"7165 Beverly Blvd. Los Angeles, ","formattedAddress":"7165 Beverly Blvd, Los Angeles, CA 90036, USA","lat":34.0764408,"lng":-118.3457564,"zipcode":"90036","city":"Los Angeles","neighborhood":"Central LA"},{"location":"Alex Theater","address":"7165 Beverly Blvd. Los Angeles, ","formattedAddress":"7165 Beverly Blvd, Los Angeles, CA 90036, USA","lat":34.0764408,"lng":-118.3457564,"zipcode":"90036","city":"Los Angeles","neighborhood":"Central LA"},{"location":"Alex Theater","address":"7165 Beverly Blvd. Los Angeles, ","formattedAddress":"7165 Beverly Blvd, Los Angeles, CA 90036, USA","lat":34.0764408,"lng":-118.3457564,"zipcode":"90036","city":"Los Angeles","neighborhood":"Central LA"},{"location":"Alex Theater","address":"7165 Beverly Blvd. Los Angeles, ","formattedAddress":"7165 Beverly Blvd, Los Angeles, CA 90036, USA","lat":34.0764408,"lng":-118.3457564,"zipcode":"90036","city":"Los Angeles","neighborhood":"Central LA"},{"location":"Alex Theater","address":"7165 Beverly Blvd. Los Angeles, ","formattedAddress":"7165 Beverly Blvd, Los Angeles, CA 90036, USA","lat":34.0764408,"lng":-118.3457564,"zipcode":"90036","city":"Los Angeles","neighborhood":"Central LA"},{"location":"Alex Theater","address":"7165 Beverly Blvd. Los Angeles, ","formattedAddress":"7165 Beverly Blvd, Los Angeles, CA 90036, USA","lat":34.0764408,"lng":-118.3457564,"zipcode":"90036","city":"Los Angeles","neighborhood":"Central LA"},{"location":"Alex Theater","address":"7165 Beverly Blvd. Los Angeles, ","formattedAddress":"7165 Beverly Blvd, Los Angeles, CA 90036, USA","lat":34.0764408,"lng":-118.3457564,"zipcode":"90036","city":"Los Angeles","neighborhood":"Central LA"},{"location":"Alex Theater","address":"7165 Beverly Blvd. Los Angeles, ","formattedAddress":"7165 Beverly Blvd, Los Angeles, CA 90036, USA","lat":34.0764408,"lng":-118.3457564,"zipcode":"90036","city":"Los Angeles","neighborhood":"Central LA"},{"location":"Alex Theater","address":"7165 Beverly Blvd. Los Angeles, ","formattedAddress":"7165 Beverly Blvd, Los Angeles, CA 90036, USA","lat":34.0764408,"lng":-118.3457564,"zipcode":"90036","city":"Los Angeles","neighborhood":"Central LA"},{"location":"Alex Theater","address":"7165 Beverly Blvd. Los Angeles, ","formattedAddress":"7165 Beverly Blvd, Los Angeles, CA 90036, USA","lat":34.0764408,"lng":-118.3457564,"zipcode":"90036","city":"Los Angeles","neighborhood":"Central LA"},{"location":"Alex Theater","address":"7165 Beverly Blvd. Los Angeles, ","formattedAddress":"7165 Beverly Blvd, Los Angeles, CA 90036, USA","lat":34.0764408,"lng":-118.3457564,"zipcode":"90036","city":"Los Angeles","neighborhood":"Central LA"},{"location":"Alex Theater","address":"7165 Beverly Blvd. Los Angeles, ","formattedAddress":"7165 Beverly Blvd, Los Angeles, CA 90036, USA","lat":34.0764408,"lng":-118.3457564,"zipcode":"90036","city":"Los Angeles","neighborhood":"Central LA"},{"location":"Alex Theater","address":"7165 Beverly Blvd. Los Angeles, ","formattedAddress":"7165 Beverly Blvd, Los Angeles, CA 90036, USA","lat":34.0764408,"lng":-118.3457564,"zipcode":"90036","city":"Los Angeles","neighborhood":"Central LA"},{"location":"Alex Theater","address":"7165 Beverly Blvd. Los Angeles, ","formattedAddress":"7165 Beverly Blvd, Los Angeles, CA 90036, USA","lat":34.0764408,"lng":-118.3457564,"zipcode":"90036","city":"Los Angeles","neighborhood":"Central LA"},{"location":"Alex Theater","address":"7165 Beverly Blvd. Los Angeles, ","formattedAddress":"7165 Beverly Blvd, Los Angeles, CA 90036, USA","lat":34.0764408,"lng":-118.3457564,"zipcode":"90036","city":"Los Angeles","neighborhood":"Central LA"},{"location":"Alex Theater","address":"7165 Beverly Blvd. Los Angeles, ","formattedAddress":"7165 Beverly Blvd, Los Angeles, CA 90036, USA","lat":34.0764408,"lng":-118.3457564,"zipcode":"90036","city":"Los Angeles","neighborhood":"Central LA"},{"location":"Alex Theater","address":"7165 Beverly Blvd. Los Angeles, ","formattedAddress":"7165 Beverly Blvd, Los Angeles, CA 90036, USA","lat":34.0764408,"lng":-118.3457564,"zipcode":"90036","city":"Los Angeles","neighborhood":"Central LA"},{"location":"Alex Theater","address":"7165 Beverly Blvd. Los Angeles, ","formattedAddress":"7165 Beverly Blvd, Los Angeles, CA 90036, USA","lat":34.0764408,"lng":-118.3457564,"zipcode":"90036","city":"Los Angeles","neighborhood":"Central LA"},{"location":"Alex Theater","address":"7165 Beverly Blvd. Los Angeles, ","formattedAddress":"7165 Beverly Blvd, Los Angeles, CA 90036, USA","lat":34.0764408,"lng":-118.3457564,"zipcode":"90036","city":"Los Angeles","neighborhood":"Central LA"},{"location":"Alex Theater","address":"7165 Beverly Blvd. Los Angeles, ","formattedAddress":"7165 Beverly Blvd, Los Angeles, CA 90036, USA","lat":34.0764408,"lng":-118.3457564,"zipcode":"90036","city":"Los Angeles","neighborhood":"Central LA"},{"location":"Alex Theater","address":"7165 Beverly Blvd. Los Angeles, ","formattedAddress":"7165 Beverly Blvd, Los Angeles, CA 90036, USA","lat":34.0764408,"lng":-118.3457564,"zipcode":"90036","city":"Los Angeles","neighborhood":"Central LA"},{"location":"Alex Theater","address":"7165 Beverly Blvd. Los Angeles, ","formattedAddress":"7165 Beverly Blvd, Los Angeles, CA 90036, USA","lat":34.0764408,"lng":-118.3457564,"zipcode":"90036","city":"Los Angeles","neighborhood":"Central LA"},{"location":"Alex Theater","address":"7165 Beverly Blvd. Los Angeles, ","formattedAddress":"7165 Beverly Blvd, Los Angeles, CA 90036, USA","lat":34.0764408,"lng":-118.3457564,"zipcode":"90036","city":"Los Angeles","neighborhood":"Central LA"},{"location":"Alex Theater","address":"7165 Beverly Blvd. Los Angeles, ","formattedAddress":"7165 Beverly Blvd, Los Angeles, CA 90036, USA","lat":34.0764408,"lng":-118.3457564,"zipcode":"90036","city":"Los Angeles","neighborhood":"Central LA"},{"location":"Alex Theater","address":"7165 Beverly Blvd. Los Angeles, ","formattedAddress":"7165 Beverly Blvd, Los Angeles, CA 90036, USA","lat":34.0764408,"lng":-118.3457564,"zipcode":"90036","city":"Los Angeles","neighborhood":"Central LA"},{"location":"Alex Theater","address":"7165 Beverly Blvd. Los Angeles, ","formattedAddress":"7165 Beverly Blvd, Los Angeles, CA 90036, USA","lat":34.0764408,"lng":-118.3457564,"zipcode":"90036","city":"Los Angeles","neighborhood":"Central LA"},{"location":"Alex Theater","address":"7165 Beverly Blvd. Los Angeles, ","formattedAddress":"7165 Beverly Blvd, Los Angeles, CA 90036, USA","lat":34.0764408,"lng":-118.3457564,"zipcode":"90036","city":"Los Angeles","neighborhood":"Central LA"},{"location":"Alex Theater","address":"7165 Beverly Blvd. Los Angeles, ","formattedAddress":"7165 Beverly Blvd, Los Angeles, CA 90036, USA","lat":34.0764408,"lng":-118.3457564,"zipcode":"90036","city":"Los Angeles","neighborhood":"Central LA"},{"location":"Alex Theater","address":"7165 Beverly Blvd. Los Angeles, ","formattedAddress":"7165 Beverly Blvd, Los Angeles, CA 90036, USA","lat":34.0764408,"lng":-118.3457564,"zipcode":"90036","city":"Los Angeles","neighborhood":"Central LA"},{"location":"Alex Theater","address":"7165 Beverly Blvd. Los Angeles, ","formattedAddress":"7165 Beverly Blvd, Los Angeles, CA 90036, USA","lat":34.0764408,"lng":-118.3457564,"zipcode":"90036","city":"Los Angeles","neighborhood":"Central LA"},{"location":"Alex Theater","address":"7165 Beverly Blvd. Los Angeles, ","formattedAddress":"7165 Beverly Blvd, Los Angeles, CA 90036, USA","lat":34.0764408,"lng":-118.3457564,"zipcode":"90036","city":"Los Angeles","neighborhood":"Central LA"},{"location":"Alex Theater","address":"7165 Beverly Blvd. Los Angeles, ","formattedAddress":"7165 Beverly Blvd, Los Angeles, CA 90036, USA","lat":34.0764408,"lng":-118.3457564,"zipcode":"90036","city":"Los Angeles","neighborhood":"Central LA"},{"location":"Alex Theater","address":"7165 Beverly Blvd. Los Angeles, ","formattedAddress":"7165 Beverly Blvd, Los Angeles, CA 90036, USA","lat":34.0764408,"lng":-118.3457564,"zipcode":"90036","city":"Los Angeles","neighborhood":"Central LA"},{"location":"Alex Theater","address":"7165 Beverly Blvd. Los Angeles, ","formattedAddress":"7165 Beverly Blvd, Los Angeles, CA 90036, USA","lat":34.0764408,"lng":-118.3457564,"zipcode":"90036","city":"Los Angeles","neighborhood":"Central LA"},{"location":"Alex Theater","address":"7165 Beverly Blvd. Los Angeles, ","formattedAddress":"7165 Beverly Blvd, Los Angeles, CA 90036, USA","lat":34.0764408,"lng":-118.3457564,"zipcode":"90036","city":"Los Angeles","neighborhood":"Central LA"},{"location":"Alex Theater","address":"7165 Beverly Blvd. Los Angeles, ","formattedAddress":"7165 Beverly Blvd, Los Angeles, CA 90036, USA","lat":34.0764408,"lng":-118.3457564,"zipcode":"90036","city":"Los Angeles","neighborhood":"Central LA"},{"location":"Alex Theater","address":"7165 Beverly Blvd. Los Angeles, ","formattedAddress":"7165 Beverly Blvd, Los Angeles, CA 90036, USA","lat":34.0764408,"lng":-118.3457564,"zipcode":"90036","city":"Los Angeles","neighborhood":"Central LA"},{"location":"Alex Theater","address":"7165 Beverly Blvd. Los Angeles, ","formattedAddress":"7165 Beverly Blvd, Los Angeles, CA 90036, USA","lat":34.0764408,"lng":-118.3457564,"zipcode":"90036","city":"Los Angeles","neighborhood":"Central LA"},{"location":"Alex Theater","address":"7165 Beverly Blvd. Los Angeles, ","formattedAddress":"7165 Beverly Blvd, Los Angeles, CA 90036, USA","lat":34.0764408,"lng":-118.3457564,"zipcode":"90036","city":"Los Angeles","neighborhood":"Central LA"},{"location":"Alex Theater","address":"7165 Beverly Blvd. Los Angeles, ","formattedAddress":"7165 Beverly Blvd, Los Angeles, CA 90036, USA","lat":34.0764408,"lng":-118.3457564,"zipcode":"90036","city":"Los Angeles","neighborhood":"Central LA"},{"location":"Alex Theater","address":"7165 Beverly Blvd. Los Angeles, ","formattedAddress":"7165 Beverly Blvd, Los Angeles, CA 90036, USA","lat":34.0764408,"lng":-118.3457564,"zipcode":"90036","city":"Los Angeles","neighborhood":"Central LA"},{"location":"Alex Theater","address":"7165 Beverly Blvd. Los Angeles, ","formattedAddress":"7165 Beverly Blvd, Los Angeles, CA 90036, USA","lat":34.0764408,"lng":-118.3457564,"zipcode":"90036","city":"Los Angeles","neighborhood":"Central LA"},{"location":"Alex Theater","address":"7165 Beverly Blvd. Los Angeles, ","formattedAddress":"7165 Beverly Blvd, Los Angeles, CA 90036, USA","lat":34.0764408,"lng":-118.3457564,"zipcode":"90036","city":"Los Angeles","neighborhood":"Central LA"},{"location":"Alex Theater","address":"7165 Beverly Blvd. Los Angeles, ","formattedAddress":"7165 Beverly Blvd, Los Angeles, CA 90036, USA","lat":34.0764408,"lng":-118.3457564,"zipcode":"90036","city":"Los Angeles","neighborhood":"Central LA"},{"location":"Alex Theater","address":"7165 Beverly Blvd. Los Angeles, ","formattedAddress":"7165 Beverly Blvd, Los Angeles, CA 90036, USA","lat":34.0764408,"lng":-118.3457564,"zipcode":"90036","city":"Los Angeles","neighborhood":"Central LA"},{"location":"Alex Theater","address":"7165 Beverly Blvd. Los Angeles, ","formattedAddress":"7165 Beverly Blvd, Los Angeles, CA 90036, USA","lat":34.0764408,"lng":-118.3457564,"zipcode":"90036","city":"Los Angeles","neighborhood":"Central LA"},{"location":"Alex Theater","address":"7165 Beverly Blvd. Los Angeles, ","formattedAddress":"7165 Beverly Blvd, Los Angeles, CA 90036, USA","lat":34.0764408,"lng":-118.3457564,"zipcode":"90036","city":"Los Angeles","neighborhood":"Central LA"},{"location":"Alex Theater","address":"7165 Beverly Blvd. Los Angeles, ","formattedAddress":"7165 Beverly Blvd, Los Angeles, CA 90036, USA","lat":34.0764408,"lng":-118.3457564,"zipcode":"90036","city":"Los Angeles","neighborhood":"Central LA"},{"location":"Alex Theater","address":"7165 Beverly Blvd. Los Angeles, ","formattedAddress":"7165 Beverly Blvd, Los Angeles, CA 90036, USA","lat":34.0764408,"lng":-118.3457564,"zipcode":"90036","city":"Los Angeles","neighborhood":"Central LA"},{"location":"Alex Theater","address":"7165 Beverly Blvd. Los Angeles, ","formattedAddress":"7165 Beverly Blvd, Los Angeles, CA 90036, USA","lat":34.0764408,"lng":-118.3457564,"zipcode":"90036","city":"Los Angeles","neighborhood":"Central LA"},{"location":"Alex Theater","address":"7165 Beverly Blvd. Los Angeles, ","formattedAddress":"7165 Beverly Blvd, Los Angeles, CA 90036, USA","lat":34.0764408,"lng":-118.3457564,"zipcode":"90036","city":"Los Angeles","neighborhood":"Central LA"},{"location":"Alex Theater","address":"7165 Beverly Blvd. Los Angeles, ","formattedAddress":"7165 Beverly Blvd, Los Angeles, CA 90036, USA","lat":34.0764408,"lng":-118.3457564,"zipcode":"90036","city":"Los Angeles","neighborhood":"Central LA"},{"location":"Alex Theater","address":"7165 Beverly Blvd. Los Angeles, ","formattedAddress":"7165 Beverly Blvd, Los Angeles, CA 90036, USA","lat":34.0764408,"lng":-118.3457564,"zipcode":"90036","city":"Los Angeles","neighborhood":"Central LA"},{"location":"Alex Theater","address":"7165 Beverly Blvd. Los Angeles, ","formattedAddress":"7165 Beverly Blvd, Los Angeles, CA 90036, USA","lat":34.0764408,"lng":-118.3457564,"zipcode":"90036","city":"Los Angeles","neighborhood":"Central LA"},{"location":"Alex Theater","address":"7165 Beverly Blvd. Los Angeles, ","formattedAddress":"7165 Beverly Blvd, Los Angeles, CA 90036, USA","lat":34.0764408,"lng":-118.3457564,"zipcode":"90036","city":"Los Angeles","neighborhood":"Central LA"},{"location":"Alex Theater","address":"7165 Beverly Blvd. Los Angeles, ","formattedAddress":"7165 Beverly Blvd, Los Angeles, CA 90036, USA","lat":34.0764408,"lng":-118.3457564,"zipcode":"90036","city":"Los Angeles","neighborhood":"Central LA"},{"location":"Alex Theater","address":"7165 Beverly Blvd. Los Angeles, ","formattedAddress":"7165 Beverly Blvd, Los Angeles, CA 90036, USA","lat":34.0764408,"lng":-118.3457564,"zipcode":"90036","city":"Los Angeles","neighborhood":"Central LA"},{"location":"Alex Theater","address":"7165 Beverly Blvd. Los Angeles, ","formattedAddress":"7165 Beverly Blvd, Los Angeles, CA 90036, USA","lat":34.0764408,"lng":-118.3457564,"zipcode":"90036","city":"Los Angeles","neighborhood":"Central LA"},{"location":"Alex Theater","address":"7165 Beverly Blvd. Los Angeles, ","formattedAddress":"7165 Beverly Blvd, Los Angeles, CA 90036, USA","lat":34.0764408,"lng":-118.3457564,"zipcode":"90036","city":"Los Angeles","neighborhood":"Central LA"},{"location":"Alex Theater","address":"7165 Beverly Blvd. Los Angeles, ","formattedAddress":"7165 Beverly Blvd, Los Angeles, CA 90036, USA","lat":34.0764408,"lng":-118.3457564,"zipcode":"90036","city":"Los Angeles","neighborhood":"Central LA"},{"location":"Alex Theater","address":"7165 Beverly Blvd. Los Angeles, ","formattedAddress":"7165 Beverly Blvd, Los Angeles, CA 90036, USA","lat":34.0764408,"lng":-118.3457564,"zipcode":"90036","city":"Los Angeles","neighborhood":"Central LA"},{"location":"Alex Theater","address":"7165 Beverly Blvd. Los Angeles, ","formattedAddress":"7165 Beverly Blvd, Los Angeles, CA 90036, USA","lat":34.0764408,"lng":-118.3457564,"zipcode":"90036","city":"Los Angeles","neighborhood":"Central LA"},{"location":"Alex Theater","address":"7165 Beverly Blvd. Los Angeles, ","formattedAddress":"7165 Beverly Blvd, Los Angeles, CA 90036, USA","lat":34.0764408,"lng":-118.3457564,"zipcode":"90036","city":"Los Angeles","neighborhood":"Central LA"},{"location":"Alex Theater","address":"7165 Beverly Blvd. Los Angeles, ","formattedAddress":"7165 Beverly Blvd, Los Angeles, CA 90036, USA","lat":34.0764408,"lng":-118.3457564,"zipcode":"90036","city":"Los Angeles","neighborhood":"Central LA"},{"location":"Alex Theater","address":"7165 Beverly Blvd. Los Angeles, ","formattedAddress":"7165 Beverly Blvd, Los Angeles, CA 90036, USA","lat":34.0764408,"lng":-118.3457564,"zipcode":"90036","city":"Los Angeles","neighborhood":"Central LA"},{"location":"Alex Theater","address":"7165 Beverly Blvd. Los Angeles, ","formattedAddress":"7165 Beverly Blvd, Los Angeles, CA 90036, USA","lat":34.0764408,"lng":-118.3457564,"zipcode":"90036","city":"Los Angeles","neighborhood":"Central LA"},{"location":"Alex Theater","address":"7165 Beverly Blvd. Los Angeles, ","formattedAddress":"7165 Beverly Blvd, Los Angeles, CA 90036, USA","lat":34.0764408,"lng":-118.3457564,"zipcode":"90036","city":"Los Angeles","neighborhood":"Central LA"},{"location":"Alex Theater","address":"7165 Beverly Blvd. Los Angeles, ","formattedAddress":"7165 Beverly Blvd, Los Angeles, CA 90036, USA","lat":34.0764408,"lng":-118.3457564,"zipcode":"90036","city":"Los Angeles","neighborhood":"Central LA"},{"location":"Alex Theater","address":"7165 Beverly Blvd. Los Angeles, ","formattedAddress":"7165 Beverly Blvd, Los Angeles, CA 90036, USA","lat":34.0764408,"lng":-118.3457564,"zipcode":"90036","city":"Los Angeles","neighborhood":"Central LA"},{"location":"Alex Theater","address":"7165 Beverly Blvd. Los Angeles, ","formattedAddress":"7165 Beverly Blvd, Los Angeles, CA 90036, USA","lat":34.0764408,"lng":-118.3457564,"zipcode":"90036","city":"Los Angeles","neighborhood":"Central LA"},{"location":"Alex Theater","address":"7165 Beverly Blvd. Los Angeles, ","formattedAddress":"7165 Beverly Blvd, Los Angeles, CA 90036, USA","lat":34.0764408,"lng":-118.3457564,"zipcode":"90036","city":"Los Angeles","neighborhood":"Central LA"},{"location":"Alex Theater","address":"7165 Beverly Blvd. Los Angeles, ","formattedAddress":"7165 Beverly Blvd, Los Angeles, CA 90036, USA","lat":34.0764408,"lng":-118.3457564,"zipcode":"90036","city":"Los Angeles","neighborhood":"Central LA"},{"location":"Alex Theater","address":"7165 Beverly Blvd. Los Angeles, ","formattedAddress":"7165 Beverly Blvd, Los Angeles, CA 90036, USA","lat":34.0764408,"lng":-118.3457564,"zipcode":"90036","city":"Los Angeles","neighborhood":"Central LA"},{"location":"Alex Theater","address":"7165 Beverly Blvd. Los Angeles, ","formattedAddress":"7165 Beverly Blvd, Los Angeles, CA 90036, USA","lat":34.0764408,"lng":-118.3457564,"zipcode":"90036","city":"Los Angeles","neighborhood":"Central LA"},{"location":"Alex Theater","address":"7165 Beverly Blvd. Los Angeles, ","formattedAddress":"7165 Beverly Blvd, Los Angeles, CA 90036, USA","lat":34.0764408,"lng":-118.3457564,"zipcode":"90036","city":"Los Angeles","neighborhood":"Central LA"},{"location":"Alex Theater","address":"7165 Beverly Blvd. Los Angeles, ","formattedAddress":"7165 Beverly Blvd, Los Angeles, CA 90036, USA","lat":34.0764408,"lng":-118.3457564,"zipcode":"90036","city":"Los Angeles","neighborhood":"Central LA"},{"location":"Alex Theater","address":"7165 Beverly Blvd. Los Angeles, ","formattedAddress":"7165 Beverly Blvd, Los Angeles, CA 90036, USA","lat":34.0764408,"lng":-118.3457564,"zipcode":"90036","city":"Los Angeles","neighborhood":"Central LA"},{"location":"Alex Theater","address":"7165 Beverly Blvd. Los Angeles, ","formattedAddress":"7165 Beverly Blvd, Los Angeles, CA 90036, USA","lat":34.0764408,"lng":-118.3457564,"zipcode":"90036","city":"Los Angeles","neighborhood":"Central LA"},{"location":"Alex Theater","address":"7165 Beverly Blvd. Los Angeles, ","formattedAddress":"7165 Beverly Blvd, Los Angeles, CA 90036, USA","lat":34.0764408,"lng":-118.3457564,"zipcode":"90036","city":"Los Angeles","neighborhood":"Central LA"},{"location":"Alex Theater","address":"7165 Beverly Blvd. Los Angeles, ","formattedAddress":"7165 Beverly Blvd, Los Angeles, CA 90036, USA","lat":34.0764408,"lng":-118.3457564,"zipcode":"90036","city":"Los Angeles","neighborhood":"Central LA"},{"location":"Alex Theater","address":"7165 Beverly Blvd. Los Angeles, ","formattedAddress":"7165 Beverly Blvd, Los Angeles, CA 90036, USA","lat":34.0764408,"lng":-118.3457564,"zipcode":"90036","city":"Los Angeles","neighborhood":"Central LA"},{"location":"Alex Theater","address":"7165 Beverly Blvd. Los Angeles, ","formattedAddress":"7165 Beverly Blvd, Los Angeles, CA 90036, USA","lat":34.0764408,"lng":-118.3457564,"zipcode":"90036","city":"Los Angeles","neighborhood":"Central LA"},{"location":"Alex Theater","address":"7165 Beverly Blvd. Los Angeles, ","formattedAddress":"7165 Beverly Blvd, Los Angeles, CA 90036, USA","lat":34.0764408,"lng":-118.3457564,"zipcode":"90036","city":"Los Angeles","neighborhood":"Central LA"},{"location":"Alex Theater","address":"7165 Beverly Blvd. Los Angeles, ","formattedAddress":"7165 Beverly Blvd, Los Angeles, CA 90036, USA","lat":34.0764408,"lng":-118.3457564,"zipcode":"90036","city":"Los Angeles","neighborhood":"Central LA"},{"location":"Alex Theater","address":"7165 Beverly Blvd. Los Angeles, ","formattedAddress":"7165 Beverly Blvd, Los Angeles, CA 90036, USA","lat":34.0764408,"lng":-118.3457564,"zipcode":"90036","city":"Los Angeles","neighborhood":"Central LA"},{"location":"Alex Theater","address":"7165 Beverly Blvd. Los Angeles, ","formattedAddress":"7165 Beverly Blvd, Los Angeles, CA 90036, USA","lat":34.0764408,"lng":-118.3457564,"zipcode":"90036","city":"Los Angeles","neighborhood":"Central LA"},{"location":"Alex Theater","address":"7165 Beverly Blvd. Los Angeles, ","formattedAddress":"7165 Beverly Blvd, Los Angeles, CA 90036, USA","lat":34.0764408,"lng":-118.3457564,"zipcode":"90036","city":"Los Angeles","neighborhood":"Central LA"},{"location":"Alex Theater","address":"7165 Beverly Blvd. Los Angeles, ","formattedAddress":"7165 Beverly Blvd, Los Angeles, CA 90036, USA","lat":34.0764408,"lng":-118.3457564,"zipcode":"90036","city":"Los Angeles","neighborhood":"Central LA"},{"location":"Alex Theater","address":"7165 Beverly Blvd. Los Angeles, ","formattedAddress":"7165 Beverly Blvd, Los Angeles, CA 90036, USA","lat":34.0764408,"lng":-118.3457564,"zipcode":"90036","city":"Los Angeles","neighborhood":"Central LA"},{"location":"Alex Theater","address":"7165 Beverly Blvd. Los Angeles, ","formattedAddress":"7165 Beverly Blvd, Los Angeles, CA 90036, USA","lat":34.0764408,"lng":-118.3457564,"zipcode":"90036","city":"Los Angeles","neighborhood":"Central LA"},{"location":"Alex Theater","address":"7165 Beverly Blvd. Los Angeles, ","formattedAddress":"7165 Beverly Blvd, Los Angeles, CA 90036, USA","lat":34.0764408,"lng":-118.3457564,"zipcode":"90036","city":"Los Angeles","neighborhood":"Central LA"},{"location":"Alex Theater","address":"7165 Beverly Blvd. Los Angeles, ","formattedAddress":"7165 Beverly Blvd, Los Angeles, CA 90036, USA","lat":34.0764408,"lng":-118.3457564,"zipcode":"90036","city":"Los Angeles","neighborhood":"Central LA"},{"location":"Alex Theater","address":"7165 Beverly Blvd. Los Angeles, ","formattedAddress":"7165 Beverly Blvd, Los Angeles, CA 90036, USA","lat":34.0764408,"lng":-118.3457564,"zipcode":"90036","city":"Los Angeles","neighborhood":"Central LA"},{"location":"Alex Theater","address":"7165 Beverly Blvd. Los Angeles, ","formattedAddress":"7165 Beverly Blvd, Los Angeles, CA 90036, USA","lat":34.0764408,"lng":-118.3457564,"zipcode":"90036","city":"Los Angeles","neighborhood":"Central LA"},{"location":"Alex Theater","address":"7165 Beverly Blvd. Los Angeles, ","formattedAddress":"7165 Beverly Blvd, Los Angeles, CA 90036, USA","lat":34.0764408,"lng":-118.3457564,"zipcode":"90036","city":"Los Angeles","neighborhood":"Central LA"},{"location":"Alex Theater","address":"7165 Beverly Blvd. Los Angeles, ","formattedAddress":"7165 Beverly Blvd, Los Angeles, CA 90036, USA","lat":34.0764408,"lng":-118.3457564,"zipcode":"90036","city":"Los Angeles","neighborhood":"Central LA"},{"location":"Alex Theater","address":"7165 Beverly Blvd. Los Angeles, ","formattedAddress":"7165 Beverly Blvd, Los Angeles, CA 90036, USA","lat":34.0764408,"lng":-118.3457564,"zipcode":"90036","city":"Los Angeles","neighborhood":"Central LA"},{"location":"Alex Theater","address":"7165 Beverly Blvd. Los Angeles, ","formattedAddress":"7165 Beverly Blvd, Los Angeles, CA 90036, USA","lat":34.0764408,"lng":-118.3457564,"zipcode":"90036","city":"Los Angeles","neighborhood":"Central LA"},{"location":"Alex Theater","address":"7165 Beverly Blvd. Los Angeles, ","formattedAddress":"7165 Beverly Blvd, Los Angeles, CA 90036, USA","lat":34.0764408,"lng":-118.3457564,"zipcode":"90036","city":"Los Angeles","neighborhood":"Central LA"},{"location":"Alex Theater","address":"7165 Beverly Blvd. Los Angeles, ","formattedAddress":"7165 Beverly Blvd, Los Angeles, CA 90036, USA","lat":34.0764408,"lng":-118.3457564,"zipcode":"90036","city":"Los Angeles","neighborhood":"Central LA"},{"location":"Alex Theater","address":"7165 Beverly Blvd. Los Angeles, ","formattedAddress":"7165 Beverly Blvd, Los Angeles, CA 90036, USA","lat":34.0764408,"lng":-118.3457564,"zipcode":"90036","city":"Los Angeles","neighborhood":"Central LA"},{"location":"Alex Theater","address":"7165 Beverly Blvd. Los Angeles, ","formattedAddress":"7165 Beverly Blvd, Los Angeles, CA 90036, USA","lat":34.0764408,"lng":-118.3457564,"zipcode":"90036","city":"Los Angeles","neighborhood":"Central LA"},{"location":"Alex Theater","address":"7165 Beverly Blvd. Los Angeles, ","formattedAddress":"7165 Beverly Blvd, Los Angeles, CA 90036, USA","lat":34.0764408,"lng":-118.3457564,"zipcode":"90036","city":"Los Angeles","neighborhood":"Central LA"},{"location":"Alex Theater","address":"7165 Beverly Blvd. Los Angeles, ","formattedAddress":"7165 Beverly Blvd, Los Angeles, CA 90036, USA","lat":34.0764408,"lng":-118.3457564,"zipcode":"90036","city":"Los Angeles","neighborhood":"Central LA"},{"location":"Alex Theater","address":"7165 Beverly Blvd. Los Angeles, ","formattedAddress":"7165 Beverly Blvd, Los Angeles, CA 90036, USA","lat":34.0764408,"lng":-118.3457564,"zipcode":"90036","city":"Los Angeles","neighborhood":"Central LA"},{"location":"Alex Theater","address":"7165 Beverly Blvd. Los Angeles, ","formattedAddress":"7165 Beverly Blvd, Los Angeles, CA 90036, USA","lat":34.0764408,"lng":-118.3457564,"zipcode":"90036","city":"Los Angeles","neighborhood":"Central LA"},{"location":"Alex Theater","address":"7165 Beverly Blvd. Los Angeles, ","formattedAddress":"7165 Beverly Blvd, Los Angeles, CA 90036, USA","lat":34.0764408,"lng":-118.3457564,"zipcode":"90036","city":"Los Angeles","neighborhood":"Central LA"},{"location":"Alex Theater","address":"7165 Beverly Blvd. Los Angeles, ","formattedAddress":"7165 Beverly Blvd, Los Angeles, CA 90036, USA","lat":34.0764408,"lng":-118.3457564,"zipcode":"90036","city":"Los Angeles","neighborhood":"Central LA"},{"location":"Alex Theater","address":"7165 Beverly Blvd. Los Angeles, ","formattedAddress":"7165 Beverly Blvd, Los Angeles, CA 90036, USA","lat":34.0764408,"lng":-118.3457564,"zipcode":"90036","city":"Los Angeles","neighborhood":"Central LA"},{"location":"Alex Theater","address":"7165 Beverly Blvd. Los Angeles, ","formattedAddress":"7165 Beverly Blvd, Los Angeles, CA 90036, USA","lat":34.0764408,"lng":-118.3457564,"zipcode":"90036","city":"Los Angeles","neighborhood":"Central LA"},{"location":"Alex Theater","address":"7165 Beverly Blvd. Los Angeles, ","formattedAddress":"7165 Beverly Blvd, Los Angeles, CA 90036, USA","lat":34.0764408,"lng":-118.3457564,"zipcode":"90036","city":"Los Angeles","neighborhood":"Central LA"},{"location":"Alex Theater","address":"7165 Beverly Blvd. Los Angeles, ","formattedAddress":"7165 Beverly Blvd, Los Angeles, CA 90036, USA","lat":34.0764408,"lng":-118.3457564,"zipcode":"90036","city":"Los Angeles","neighborhood":"Central LA"},{"location":"Alex Theater","address":"7165 Beverly Blvd. Los Angeles, ","formattedAddress":"7165 Beverly Blvd, Los Angeles, CA 90036, USA","lat":34.0764408,"lng":-118.3457564,"zipcode":"90036","city":"Los Angeles","neighborhood":"Central LA"},{"location":"Alex Theater","address":"7165 Beverly Blvd. Los Angeles, ","formattedAddress":"7165 Beverly Blvd, Los Angeles, CA 90036, USA","lat":34.0764408,"lng":-118.3457564,"zipcode":"90036","city":"Los Angeles","neighborhood":"Central LA"},{"location":"Alex Theater","address":"7165 Beverly Blvd. Los Angeles, ","formattedAddress":"7165 Beverly Blvd, Los Angeles, CA 90036, USA","lat":34.0764408,"lng":-118.3457564,"zipcode":"90036","city":"Los Angeles","neighborhood":"Central LA"},{"location":"Alex Theater","address":"7165 Beverly Blvd. Los Angeles, ","formattedAddress":"7165 Beverly Blvd, Los Angeles, CA 90036, USA","lat":34.0764408,"lng":-118.3457564,"zipcode":"90036","city":"Los Angeles","neighborhood":"Central LA"},{"location":"Alex Theater","address":"7165 Beverly Blvd. Los Angeles, ","formattedAddress":"7165 Beverly Blvd, Los Angeles, CA 90036, USA","lat":34.0764408,"lng":-118.3457564,"zipcode":"90036","city":"Los Angeles","neighborhood":"Central LA"},{"location":"Alex Theater","address":"7165 Beverly Blvd. Los Angeles, ","formattedAddress":"7165 Beverly Blvd, Los Angeles, CA 90036, USA","lat":34.0764408,"lng":-118.3457564,"zipcode":"90036","city":"Los Angeles","neighborhood":"Central LA"},{"location":"Alex Theater","address":"7165 Beverly Blvd. Los Angeles, ","formattedAddress":"7165 Beverly Blvd, Los Angeles, CA 90036, USA","lat":34.0764408,"lng":-118.3457564,"zipcode":"90036","city":"Los Angeles","neighborhood":"Central LA"},{"location":"Alex Theater","address":"7165 Beverly Blvd. Los Angeles, ","formattedAddress":"7165 Beverly Blvd, Los Angeles, CA 90036, USA","lat":34.0764408,"lng":-118.3457564,"zipcode":"90036","city":"Los Angeles","neighborhood":"Central LA"},{"location":"Alex Theater","address":"7165 Beverly Blvd. Los Angeles, ","formattedAddress":"7165 Beverly Blvd, Los Angeles, CA 90036, USA","lat":34.0764408,"lng":-118.3457564,"zipcode":"90036","city":"Los Angeles","neighborhood":"Central LA"},{"location":"Alex Theater","address":"7165 Beverly Blvd. Los Angeles, ","formattedAddress":"7165 Beverly Blvd, Los Angeles, CA 90036, USA","lat":34.0764408,"lng":-118.3457564,"zipcode":"90036","city":"Los Angeles","neighborhood":"Central LA"},{"location":"Alex Theater","address":"7165 Beverly Blvd. Los Angeles, ","formattedAddress":"7165 Beverly Blvd, Los Angeles, CA 90036, USA","lat":34.0764408,"lng":-118.3457564,"zipcode":"90036","city":"Los Angeles","neighborhood":"Central LA"},{"location":"Alex Theater","address":"7165 Beverly Blvd. Los Angeles, ","formattedAddress":"7165 Beverly Blvd, Los Angeles, CA 90036, USA","lat":34.0764408,"lng":-118.3457564,"zipcode":"90036","city":"Los Angeles","neighborhood":"Central LA"},{"location":"Alex Theater","address":"7165 Beverly Blvd. Los Angeles, ","formattedAddress":"7165 Beverly Blvd, Los Angeles, CA 90036, USA","lat":34.0764408,"lng":-118.3457564,"zipcode":"90036","city":"Los Angeles","neighborhood":"Central LA"},{"location":"Alex Theater","address":"7165 Beverly Blvd. Los Angeles, ","formattedAddress":"7165 Beverly Blvd, Los Angeles, CA 90036, USA","lat":34.0764408,"lng":-118.3457564,"zipcode":"90036","city":"Los Angeles","neighborhood":"Central LA"},{"location":"Alex Theater","address":"7165 Beverly Blvd. Los Angeles, ","formattedAddress":"7165 Beverly Blvd, Los Angeles, CA 90036, USA","lat":34.0764408,"lng":-118.3457564,"zipcode":"90036","city":"Los Angeles","neighborhood":"Central LA"},{"location":"Alex Theater","address":"7165 Beverly Blvd. Los Angeles, ","formattedAddress":"7165 Beverly Blvd, Los Angeles, CA 90036, USA","lat":34.0764408,"lng":-118.3457564,"zipcode":"90036","city":"Los Angeles","neighborhood":"Central LA"},{"location":"Alex Theater","address":"7165 Beverly Blvd. Los Angeles, ","formattedAddress":"7165 Beverly Blvd, Los Angeles, CA 90036, USA","lat":34.0764408,"lng":-118.3457564,"zipcode":"90036","city":"Los Angeles","neighborhood":"Central LA"},{"location":"Alex Theater","address":"7165 Beverly Blvd. Los Angeles, ","formattedAddress":"7165 Beverly Blvd, Los Angeles, CA 90036, USA","lat":34.0764408,"lng":-118.3457564,"zipcode":"90036","city":"Los Angeles","neighborhood":"Central LA"},{"location":"Alex Theater","address":"7165 Beverly Blvd. Los Angeles, ","formattedAddress":"7165 Beverly Blvd, Los Angeles, CA 90036, USA","lat":34.0764408,"lng":-118.3457564,"zipcode":"90036","city":"Los Angeles","neighborhood":"Central LA"},{"location":"Alex Theater","address":"7165 Beverly Blvd. Los Angeles, ","formattedAddress":"7165 Beverly Blvd, Los Angeles, CA 90036, USA","lat":34.0764408,"lng":-118.3457564,"zipcode":"90036","city":"Los Angeles","neighborhood":"Central LA"},{"location":"Alex Theater","address":"7165 Beverly Blvd. Los Angeles, ","formattedAddress":"7165 Beverly Blvd, Los Angeles, CA 90036, USA","lat":34.0764408,"lng":-118.3457564,"zipcode":"90036","city":"Los Angeles","neighborhood":"Central LA"},{"location":"Alex Theater","address":"7165 Beverly Blvd. Los Angeles, ","formattedAddress":"7165 Beverly Blvd, Los Angeles, CA 90036, USA","lat":34.0764408,"lng":-118.3457564,"zipcode":"90036","city":"Los Angeles","neighborhood":"Central LA"},{"location":"Alex Theater","address":"7165 Beverly Blvd. Los Angeles, ","formattedAddress":"7165 Beverly Blvd, Los Angeles, CA 90036, USA","lat":34.0764408,"lng":-118.3457564,"zipcode":"90036","city":"Los Angeles","neighborhood":"Central LA"},{"location":"Alex Theater","address":"7165 Beverly Blvd. Los Angeles, ","formattedAddress":"7165 Beverly Blvd, Los Angeles, CA 90036, USA","lat":34.0764408,"lng":-118.3457564,"zipcode":"90036","city":"Los Angeles","neighborhood":"Central LA"},{"location":"Alex Theater","address":"7165 Beverly Blvd. Los Angeles, ","formattedAddress":"7165 Beverly Blvd, Los Angeles, CA 90036, USA","lat":34.0764408,"lng":-118.3457564,"zipcode":"90036","city":"Los Angeles","neighborhood":"Central LA"},{"location":"Alex Theater","address":"7165 Beverly Blvd. Los Angeles, ","formattedAddress":"7165 Beverly Blvd, Los Angeles, CA 90036, USA","lat":34.0764408,"lng":-118.3457564,"zipcode":"90036","city":"Los Angeles","neighborhood":"Central LA"},{"location":"Alex Theater","address":"7165 Beverly Blvd. Los Angeles, ","formattedAddress":"7165 Beverly Blvd, Los Angeles, CA 90036, USA","lat":34.0764408,"lng":-118.3457564,"zipcode":"90036","city":"Los Angeles","neighborhood":"Central LA"},{"location":"Alex Theater","address":"7165 Beverly Blvd. Los Angeles, ","formattedAddress":"7165 Beverly Blvd, Los Angeles, CA 90036, USA","lat":34.0764408,"lng":-118.3457564,"zipcode":"90036","city":"Los Angeles","neighborhood":"Central LA"},{"location":"Alex Theater","address":"7165 Beverly Blvd. Los Angeles, ","formattedAddress":"7165 Beverly Blvd, Los Angeles, CA 90036, USA","lat":34.0764408,"lng":-118.3457564,"zipcode":"90036","city":"Los Angeles","neighborhood":"Central LA"},{"location":"Alex Theater","address":"7165 Beverly Blvd. Los Angeles, ","formattedAddress":"7165 Beverly Blvd, Los Angeles, CA 90036, USA","lat":34.0764408,"lng":-118.3457564,"zipcode":"90036","city":"Los Angeles","neighborhood":"Central LA"},{"location":"Alex Theater","address":"7165 Beverly Blvd. Los Angeles, ","formattedAddress":"7165 Beverly Blvd, Los Angeles, CA 90036, USA","lat":34.0764408,"lng":-118.3457564,"zipcode":"90036","city":"Los Angeles","neighborhood":"Central LA"},{"location":"Alex Theater","address":"7165 Beverly Blvd. Los Angeles, ","formattedAddress":"7165 Beverly Blvd, Los Angeles, CA 90036, USA","lat":34.0764408,"lng":-118.3457564,"zipcode":"90036","city":"Los Angeles","neighborhood":"Central LA"},{"location":"Alex Theater","address":"7165 Beverly Blvd. Los Angeles, ","formattedAddress":"7165 Beverly Blvd, Los Angeles, CA 90036, USA","lat":34.0764408,"lng":-118.3457564,"zipcode":"90036","city":"Los Angeles","neighborhood":"Central LA"},{"location":"Alex Theater","address":"7165 Beverly Blvd. Los Angeles, ","formattedAddress":"7165 Beverly Blvd, Los Angeles, CA 90036, USA","lat":34.0764408,"lng":-118.3457564,"zipcode":"90036","city":"Los Angeles","neighborhood":"Central LA"},{"location":"Alex Theater","address":"7165 Beverly Blvd. Los Angeles, ","formattedAddress":"7165 Beverly Blvd, Los Angeles, CA 90036, USA","lat":34.0764408,"lng":-118.3457564,"zipcode":"90036","city":"Los Angeles","neighborhood":"Central LA"},{"location":"Alex Theater","address":"7165 Beverly Blvd. Los Angeles, ","formattedAddress":"7165 Beverly Blvd, Los Angeles, CA 90036, USA","lat":34.0764408,"lng":-118.3457564,"zipcode":"90036","city":"Los Angeles","neighborhood":"Central LA"},{"location":"Alex Theater","address":"7165 Beverly Blvd. Los Angeles, ","formattedAddress":"7165 Beverly Blvd, Los Angeles, CA 90036, USA","lat":34.0764408,"lng":-118.3457564,"zipcode":"90036","city":"Los Angeles","neighborhood":"Central LA"},{"location":"Alex Theater","address":"7165 Beverly Blvd. Los Angeles, ","formattedAddress":"7165 Beverly Blvd, Los Angeles, CA 90036, USA","lat":34.0764408,"lng":-118.3457564,"zipcode":"90036","city":"Los Angeles","neighborhood":"Central LA"},{"location":"Alex Theater","address":"7165 Beverly Blvd. Los Angeles, ","formattedAddress":"7165 Beverly Blvd, Los Angeles, CA 90036, USA","lat":34.0764408,"lng":-118.3457564,"zipcode":"90036","city":"Los Angeles","neighborhood":"Central LA"},{"location":"Alex Theater","address":"7165 Beverly Blvd. Los Angeles, ","formattedAddress":"7165 Beverly Blvd, Los Angeles, CA 90036, USA","lat":34.0764408,"lng":-118.3457564,"zipcode":"90036","city":"Los Angeles","neighborhood":"Central LA"},{"location":"Alex Theater","address":"7165 Beverly Blvd. Los Angeles, ","formattedAddress":"7165 Beverly Blvd, Los Angeles, CA 90036, USA","lat":34.0764408,"lng":-118.3457564,"zipcode":"90036","city":"Los Angeles","neighborhood":"Central LA"},{"location":"Alex Theater","address":"7165 Beverly Blvd. Los Angeles, ","formattedAddress":"7165 Beverly Blvd, Los Angeles, CA 90036, USA","lat":34.0764408,"lng":-118.3457564,"zipcode":"90036","city":"Los Angeles","neighborhood":"Central LA"},{"location":"Alex Theater","address":"7165 Beverly Blvd. Los Angeles, ","formattedAddress":"7165 Beverly Blvd, Los Angeles, CA 90036, USA","lat":34.0764408,"lng":-118.3457564,"zipcode":"90036","city":"Los Angeles","neighborhood":"Central LA"},{"location":"Alex Theater","address":"7165 Beverly Blvd. Los Angeles, ","formattedAddress":"7165 Beverly Blvd, Los Angeles, CA 90036, USA","lat":34.0764408,"lng":-118.3457564,"zipcode":"90036","city":"Los Angeles","neighborhood":"Central LA"},{"location":"Alex Theater","address":"7165 Beverly Blvd. Los Angeles, ","formattedAddress":"7165 Beverly Blvd, Los Angeles, CA 90036, USA","lat":34.0764408,"lng":-118.3457564,"zipcode":"90036","city":"Los Angeles","neighborhood":"Central LA"},{"location":"Alex Theater","address":"7165 Beverly Blvd. Los Angeles, ","formattedAddress":"7165 Beverly Blvd, Los Angeles, CA 90036, USA","lat":34.0764408,"lng":-118.3457564,"zipcode":"90036","city":"Los Angeles","neighborhood":"Central LA"},{"location":"Alex Theater","address":"7165 Beverly Blvd. Los Angeles, ","formattedAddress":"7165 Beverly Blvd, Los Angeles, CA 90036, USA","lat":34.0764408,"lng":-118.3457564,"zipcode":"90036","city":"Los Angeles","neighborhood":"Central LA"},{"location":"Alex Theater","address":"7165 Beverly Blvd. Los Angeles, ","formattedAddress":"7165 Beverly Blvd, Los Angeles, CA 90036, USA","lat":34.0764408,"lng":-118.3457564,"zipcode":"90036","city":"Los Angeles","neighborhood":"Central LA"},{"location":"Alex Theater","address":"7165 Beverly Blvd. Los Angeles, ","formattedAddress":"7165 Beverly Blvd, Los Angeles, CA 90036, USA","lat":34.0764408,"lng":-118.3457564,"zipcode":"90036","city":"Los Angeles","neighborhood":"Central LA"},{"location":"Alex Theater","address":"7165 Beverly Blvd. Los Angeles, ","formattedAddress":"7165 Beverly Blvd, Los Angeles, CA 90036, USA","lat":34.0764408,"lng":-118.3457564,"zipcode":"90036","city":"Los Angeles","neighborhood":"Central LA"},{"location":"Alex Theater","address":"7165 Beverly Blvd. Los Angeles, ","formattedAddress":"7165 Beverly Blvd, Los Angeles, CA 90036, USA","lat":34.0764408,"lng":-118.3457564,"zipcode":"90036","city":"Los Angeles","neighborhood":"Central LA"},{"location":"Alex Theater","address":"7165 Beverly Blvd. Los Angeles, ","formattedAddress":"7165 Beverly Blvd, Los Angeles, CA 90036, USA","lat":34.0764408,"lng":-118.3457564,"zipcode":"90036","city":"Los Angeles","neighborhood":"Central LA"},{"location":"Alex Theater","address":"7165 Beverly Blvd. Los Angeles, ","formattedAddress":"7165 Beverly Blvd, Los Angeles, CA 90036, USA","lat":34.0764408,"lng":-118.3457564,"zipcode":"90036","city":"Los Angeles","neighborhood":"Central LA"},{"location":"Alex Theater","address":"7165 Beverly Blvd. Los Angeles, ","formattedAddress":"7165 Beverly Blvd, Los Angeles, CA 90036, USA","lat":34.0764408,"lng":-118.3457564,"zipcode":"90036","city":"Los Angeles","neighborhood":"Central LA"},{"location":"Alex Theater","address":"7165 Beverly Blvd. Los Angeles, ","formattedAddress":"7165 Beverly Blvd, Los Angeles, CA 90036, USA","lat":34.0764408,"lng":-118.3457564,"zipcode":"90036","city":"Los Angeles","neighborhood":"Central LA"},{"location":"Alex Theater","address":"7165 Beverly Blvd. Los Angeles, ","formattedAddress":"7165 Beverly Blvd, Los Angeles, CA 90036, USA","lat":34.0764408,"lng":-118.3457564,"zipcode":"90036","city":"Los Angeles","neighborhood":"Central LA"},{"location":"Alex Theater","address":"7165 Beverly Blvd. Los Angeles, ","formattedAddress":"7165 Beverly Blvd, Los Angeles, CA 90036, USA","lat":34.0764408,"lng":-118.3457564,"zipcode":"90036","city":"Los Angeles","neighborhood":"Central LA"},{"location":"Alex Theater","address":"7165 Beverly Blvd. Los Angeles, ","formattedAddress":"7165 Beverly Blvd, Los Angeles, CA 90036, USA","lat":34.0764408,"lng":-118.3457564,"zipcode":"90036","city":"Los Angeles","neighborhood":"Central LA"},{"location":"Alex Theater","address":"7165 Beverly Blvd. Los Angeles, ","formattedAddress":"7165 Beverly Blvd, Los Angeles, CA 90036, USA","lat":34.0764408,"lng":-118.3457564,"zipcode":"90036","city":"Los Angeles","neighborhood":"Central LA"},{"location":"Alex Theater","address":"7165 Beverly Blvd. Los Angeles, ","formattedAddress":"7165 Beverly Blvd, Los Angeles, CA 90036, USA","lat":34.0764408,"lng":-118.3457564,"zipcode":"90036","city":"Los Angeles","neighborhood":"Central LA"},{"location":"Alex Theater","address":"7165 Beverly Blvd. Los Angeles, ","formattedAddress":"7165 Beverly Blvd, Los Angeles, CA 90036, USA","lat":34.0764408,"lng":-118.3457564,"zipcode":"90036","city":"Los Angeles","neighborhood":"Central LA"},{"location":"Alex Theater","address":"7165 Beverly Blvd. Los Angeles, ","formattedAddress":"7165 Beverly Blvd, Los Angeles, CA 90036, USA","lat":34.0764408,"lng":-118.3457564,"zipcode":"90036","city":"Los Angeles","neighborhood":"Central LA"},{"location":"Alex Theater","address":"7165 Beverly Blvd. Los Angeles, ","formattedAddress":"7165 Beverly Blvd, Los Angeles, CA 90036, USA","lat":34.0764408,"lng":-118.3457564,"zipcode":"90036","city":"Los Angeles","neighborhood":"Central LA"},{"location":"Alex Theater","address":"7165 Beverly Blvd. Los Angeles, ","formattedAddress":"7165 Beverly Blvd, Los Angeles, CA 90036, USA","lat":34.0764408,"lng":-118.3457564,"zipcode":"90036","city":"Los Angeles","neighborhood":"Central LA"},{"location":"Alex Theater","address":"7165 Beverly Blvd. Los Angeles, ","formattedAddress":"7165 Beverly Blvd, Los Angeles, CA 90036, USA","lat":34.0764408,"lng":-118.3457564,"zipcode":"90036","city":"Los Angeles","neighborhood":"Central LA"},{"location":"Alex Theater","address":"7165 Beverly Blvd. Los Angeles, ","formattedAddress":"7165 Beverly Blvd, Los Angeles, CA 90036, USA","lat":34.0764408,"lng":-118.3457564,"zipcode":"90036","city":"Los Angeles","neighborhood":"Central LA"},{"location":"Alex Theater","address":"7165 Beverly Blvd. Los Angeles, ","formattedAddress":"7165 Beverly Blvd, Los Angeles, CA 90036, USA","lat":34.0764408,"lng":-118.3457564,"zipcode":"90036","city":"Los Angeles","neighborhood":"Central LA"},{"location":"Alex Theater","address":"7165 Beverly Blvd. Los Angeles, ","formattedAddress":"7165 Beverly Blvd, Los Angeles, CA 90036, USA","lat":34.0764408,"lng":-118.3457564,"zipcode":"90036","city":"Los Angeles","neighborhood":"Central LA"},{"location":"Alex Theater","address":"7165 Beverly Blvd. Los Angeles, ","formattedAddress":"7165 Beverly Blvd, Los Angeles, CA 90036, USA","lat":34.0764408,"lng":-118.3457564,"zipcode":"90036","city":"Los Angeles","neighborhood":"Central LA"},{"location":"Alex Theater","address":"7165 Beverly Blvd. Los Angeles, ","formattedAddress":"7165 Beverly Blvd, Los Angeles, CA 90036, USA","lat":34.0764408,"lng":-118.3457564,"zipcode":"90036","city":"Los Angeles","neighborhood":"Central LA"},{"location":"Alex Theater","address":"7165 Beverly Blvd. Los Angeles, ","formattedAddress":"7165 Beverly Blvd, Los Angeles, CA 90036, USA","lat":34.0764408,"lng":-118.3457564,"zipcode":"90036","city":"Los Angeles","neighborhood":"Central LA"},{"location":"Alex Theater","address":"7165 Beverly Blvd. Los Angeles, ","formattedAddress":"7165 Beverly Blvd, Los Angeles, CA 90036, USA","lat":34.0764408,"lng":-118.3457564,"zipcode":"90036","city":"Los Angeles","neighborhood":"Central LA"},{"location":"Alex Theater","address":"7165 Beverly Blvd. Los Angeles, ","formattedAddress":"7165 Beverly Blvd, Los Angeles, CA 90036, USA","lat":34.0764408,"lng":-118.3457564,"zipcode":"90036","city":"Los Angeles","neighborhood":"Central LA"},{"location":"Alex Theater","address":"7165 Beverly Blvd. Los Angeles, ","formattedAddress":"7165 Beverly Blvd, Los Angeles, CA 90036, USA","lat":34.0764408,"lng":-118.3457564,"zipcode":"90036","city":"Los Angeles","neighborhood":"Central LA"},{"location":"Alex Theater","address":"7165 Beverly Blvd. Los Angeles, ","formattedAddress":"7165 Beverly Blvd, Los Angeles, CA 90036, USA","lat":34.0764408,"lng":-118.3457564,"zipcode":"90036","city":"Los Angeles","neighborhood":"Central LA"},{"location":"Alex Theater","address":"7165 Beverly Blvd. Los Angeles, ","formattedAddress":"7165 Beverly Blvd, Los Angeles, CA 90036, USA","lat":34.0764408,"lng":-118.3457564,"zipcode":"90036","city":"Los Angeles","neighborhood":"Central LA"},{"location":"Alex Theater","address":"7165 Beverly Blvd. Los Angeles, ","formattedAddress":"7165 Beverly Blvd, Los Angeles, CA 90036, USA","lat":34.0764408,"lng":-118.3457564,"zipcode":"90036","city":"Los Angeles","neighborhood":"Central LA"},{"location":"Alex Theater","address":"7165 Beverly Blvd. Los Angeles, ","formattedAddress":"7165 Beverly Blvd, Los Angeles, CA 90036, USA","lat":34.0764408,"lng":-118.3457564,"zipcode":"90036","city":"Los Angeles","neighborhood":"Central LA"},{"location":"Alex Theater","address":"7165 Beverly Blvd. Los Angeles, ","formattedAddress":"7165 Beverly Blvd, Los Angeles, CA 90036, USA","lat":34.0764408,"lng":-118.3457564,"zipcode":"90036","city":"Los Angeles","neighborhood":"Central LA"},{"location":"Alex Theater","address":"7165 Beverly Blvd. Los Angeles, ","formattedAddress":"7165 Beverly Blvd, Los Angeles, CA 90036, USA","lat":34.0764408,"lng":-118.3457564,"zipcode":"90036","city":"Los Angeles","neighborhood":"Central LA"},{"location":"Alex Theater","address":"7165 Beverly Blvd. Los Angeles, ","formattedAddress":"7165 Beverly Blvd, Los Angeles, CA 90036, USA","lat":34.0764408,"lng":-118.3457564,"zipcode":"90036","city":"Los Angeles","neighborhood":"Central LA"},{"location":"Alex Theater","address":"7165 Beverly Blvd. Los Angeles, ","formattedAddress":"7165 Beverly Blvd, Los Angeles, CA 90036, USA","lat":34.0764408,"lng":-118.3457564,"zipcode":"90036","city":"Los Angeles","neighborhood":"Central LA"},{"location":"Alex Theater","address":"7165 Beverly Blvd. Los Angeles, ","formattedAddress":"7165 Beverly Blvd, Los Angeles, CA 90036, USA","lat":34.0764408,"lng":-118.3457564,"zipcode":"90036","city":"Los Angeles","neighborhood":"Central LA"},{"location":"Alex Theater","address":"7165 Beverly Blvd. Los Angeles, ","formattedAddress":"7165 Beverly Blvd, Los Angeles, CA 90036, USA","lat":34.0764408,"lng":-118.3457564,"zipcode":"90036","city":"Los Angeles","neighborhood":"Central LA"},{"location":"Alex Theater","address":"7165 Beverly Blvd. Los Angeles, ","formattedAddress":"7165 Beverly Blvd, Los Angeles, CA 90036, USA","lat":34.0764408,"lng":-118.3457564,"zipcode":"90036","city":"Los Angeles","neighborhood":"Central LA"},{"location":"Alex Theater","address":"7165 Beverly Blvd. Los Angeles, ","formattedAddress":"7165 Beverly Blvd, Los Angeles, CA 90036, USA","lat":34.0764408,"lng":-118.3457564,"zipcode":"90036","city":"Los Angeles","neighborhood":"Central LA"},{"location":"Alex Theater","address":"7165 Beverly Blvd. Los Angeles, ","formattedAddress":"7165 Beverly Blvd, Los Angeles, CA 90036, USA","lat":34.0764408,"lng":-118.3457564,"zipcode":"90036","city":"Los Angeles","neighborhood":"Central LA"},{"location":"Alex Theater","address":"7165 Beverly Blvd. Los Angeles, ","formattedAddress":"7165 Beverly Blvd, Los Angeles, CA 90036, USA","lat":34.0764408,"lng":-118.3457564,"zipcode":"90036","city":"Los Angeles","neighborhood":"Central LA"},{"location":"Alex Theater","address":"7165 Beverly Blvd. Los Angeles, ","formattedAddress":"7165 Beverly Blvd, Los Angeles, CA 90036, USA","lat":34.0764408,"lng":-118.3457564,"zipcode":"90036","city":"Los Angeles","neighborhood":"Central LA"},{"location":"Alex Theater","address":"7165 Beverly Blvd. Los Angeles, ","formattedAddress":"7165 Beverly Blvd, Los Angeles, CA 90036, USA","lat":34.0764408,"lng":-118.3457564,"zipcode":"90036","city":"Los Angeles","neighborhood":"Central LA"},{"location":"Alex Theater","address":"7165 Beverly Blvd. Los Angeles, ","formattedAddress":"7165 Beverly Blvd, Los Angeles, CA 90036, USA","lat":34.0764408,"lng":-118.3457564,"zipcode":"90036","city":"Los Angeles","neighborhood":"Central LA"},{"location":"Alex Theater","address":"7165 Beverly Blvd. Los Angeles, ","formattedAddress":"7165 Beverly Blvd, Los Angeles, CA 90036, USA","lat":34.0764408,"lng":-118.3457564,"zipcode":"90036","city":"Los Angeles","neighborhood":"Central LA"},{"location":"Alex Theater","address":"7165 Beverly Blvd. Los Angeles, ","formattedAddress":"7165 Beverly Blvd, Los Angeles, CA 90036, USA","lat":34.0764408,"lng":-118.3457564,"zipcode":"90036","city":"Los Angeles","neighborhood":"Central LA"},{"location":"Alex Theater","address":"7165 Beverly Blvd. Los Angeles, ","formattedAddress":"7165 Beverly Blvd, Los Angeles, CA 90036, USA","lat":34.0764408,"lng":-118.3457564,"zipcode":"90036","city":"Los Angeles","neighborhood":"Central LA"},{"location":"Alex Theater","address":"7165 Beverly Blvd. Los Angeles, ","formattedAddress":"7165 Beverly Blvd, Los Angeles, CA 90036, USA","lat":34.0764408,"lng":-118.3457564,"zipcode":"90036","city":"Los Angeles","neighborhood":"Central LA"},{"location":"Alex Theater","address":"7165 Beverly Blvd. Los Angeles, ","formattedAddress":"7165 Beverly Blvd, Los Angeles, CA 90036, USA","lat":34.0764408,"lng":-118.3457564,"zipcode":"90036","city":"Los Angeles","neighborhood":"Central LA"},{"location":"Alex Theater","address":"7165 Beverly Blvd. Los Angeles, ","formattedAddress":"7165 Beverly Blvd, Los Angeles, CA 90036, USA","lat":34.0764408,"lng":-118.3457564,"zipcode":"90036","city":"Los Angeles","neighborhood":"Central LA"},{"location":"Alex Theater","address":"7165 Beverly Blvd. Los Angeles, ","formattedAddress":"7165 Beverly Blvd, Los Angeles, CA 90036, USA","lat":34.0764408,"lng":-118.3457564,"zipcode":"90036","city":"Los Angeles","neighborhood":"Central LA"},{"location":"Alex Theater","address":"7165 Beverly Blvd. Los Angeles, ","formattedAddress":"7165 Beverly Blvd, Los Angeles, CA 90036, USA","lat":34.0764408,"lng":-118.3457564,"zipcode":"90036","city":"Los Angeles","neighborhood":"Central LA"},{"location":"Alex Theater","address":"7165 Beverly Blvd. Los Angeles, ","formattedAddress":"7165 Beverly Blvd, Los Angeles, CA 90036, USA","lat":34.0764408,"lng":-118.3457564,"zipcode":"90036","city":"Los Angeles","neighborhood":"Central LA"},{"location":"Alex Theater","address":"7165 Beverly Blvd. Los Angeles, ","formattedAddress":"7165 Beverly Blvd, Los Angeles, CA 90036, USA","lat":34.0764408,"lng":-118.3457564,"zipcode":"90036","city":"Los Angeles","neighborhood":"Central LA"},{"location":"Alex Theater","address":"7165 Beverly Blvd. Los Angeles, ","formattedAddress":"7165 Beverly Blvd, Los Angeles, CA 90036, USA","lat":34.0764408,"lng":-118.3457564,"zipcode":"90036","city":"Los Angeles","neighborhood":"Central LA"},{"location":"Alex Theater","address":"7165 Beverly Blvd. Los Angeles, ","formattedAddress":"7165 Beverly Blvd, Los Angeles, CA 90036, USA","lat":34.0764408,"lng":-118.3457564,"zipcode":"90036","city":"Los Angeles","neighborhood":"Central LA"},{"location":"Alex Theater","address":"7165 Beverly Blvd. Los Angeles, ","formattedAddress":"7165 Beverly Blvd, Los Angeles, CA 90036, USA","lat":34.0764408,"lng":-118.3457564,"zipcode":"90036","city":"Los Angeles","neighborhood":"Central LA"},{"location":"Alex Theater","address":"7165 Beverly Blvd. Los Angeles, ","formattedAddress":"7165 Beverly Blvd, Los Angeles, CA 90036, USA","lat":34.0764408,"lng":-118.3457564,"zipcode":"90036","city":"Los Angeles","neighborhood":"Central LA"},{"location":"Alex Theater","address":"7165 Beverly Blvd. Los Angeles, ","formattedAddress":"7165 Beverly Blvd, Los Angeles, CA 90036, USA","lat":34.0764408,"lng":-118.3457564,"zipcode":"90036","city":"Los Angeles","neighborhood":"Central LA"},{"location":"Alex Theater","address":"7165 Beverly Blvd. Los Angeles, ","formattedAddress":"7165 Beverly Blvd, Los Angeles, CA 90036, USA","lat":34.0764408,"lng":-118.3457564,"zipcode":"90036","city":"Los Angeles","neighborhood":"Central LA"},{"location":"Alex Theater","address":"7165 Beverly Blvd. Los Angeles, ","formattedAddress":"7165 Beverly Blvd, Los Angeles, CA 90036, USA","lat":34.0764408,"lng":-118.3457564,"zipcode":"90036","city":"Los Angeles","neighborhood":"Central LA"},{"location":"Alex Theater","address":"7165 Beverly Blvd. Los Angeles, ","formattedAddress":"7165 Beverly Blvd, Los Angeles, CA 90036, USA","lat":34.0764408,"lng":-118.3457564,"zipcode":"90036","city":"Los Angeles","neighborhood":"Central LA"},{"location":"Alex Theater","address":"7165 Beverly Blvd. Los Angeles, ","formattedAddress":"7165 Beverly Blvd, Los Angeles, CA 90036, USA","lat":34.0764408,"lng":-118.3457564,"zipcode":"90036","city":"Los Angeles","neighborhood":"Central LA"},{"location":"Alex Theater","address":"7165 Beverly Blvd. Los Angeles, ","formattedAddress":"7165 Beverly Blvd, Los Angeles, CA 90036, USA","lat":34.0764408,"lng":-118.3457564,"zipcode":"90036","city":"Los Angeles","neighborhood":"Central LA"},{"location":"Alex Theater","address":"7165 Beverly Blvd. Los Angeles, ","formattedAddress":"7165 Beverly Blvd, Los Angeles, CA 90036, USA","lat":34.0764408,"lng":-118.3457564,"zipcode":"90036","city":"Los Angeles","neighborhood":"Central LA"},{"location":"Alex Theater","address":"7165 Beverly Blvd. Los Angeles, ","formattedAddress":"7165 Beverly Blvd, Los Angeles, CA 90036, USA","lat":34.0764408,"lng":-118.3457564,"zipcode":"90036","city":"Los Angeles","neighborhood":"Central LA"},{"location":"Alex Theater","address":"7165 Beverly Blvd. Los Angeles, ","formattedAddress":"7165 Beverly Blvd, Los Angeles, CA 90036, USA","lat":34.0764408,"lng":-118.3457564,"zipcode":"90036","city":"Los Angeles","neighborhood":"Central LA"},{"location":"Alex Theater","address":"7165 Beverly Blvd. Los Angeles, ","formattedAddress":"7165 Beverly Blvd, Los Angeles, CA 90036, USA","lat":34.0764408,"lng":-118.3457564,"zipcode":"90036","city":"Los Angeles","neighborhood":"Central LA"},{"location":"Alex Theater","address":"7165 Beverly Blvd. Los Angeles, ","formattedAddress":"7165 Beverly Blvd, Los Angeles, CA 90036, USA","lat":34.0764408,"lng":-118.3457564,"zipcode":"90036","city":"Los Angeles","neighborhood":"Central LA"},{"location":"Alex Theater","address":"7165 Beverly Blvd. Los Angeles, ","formattedAddress":"7165 Beverly Blvd, Los Angeles, CA 90036, USA","lat":34.0764408,"lng":-118.3457564,"zipcode":"90036","city":"Los Angeles","neighborhood":"Central LA"},{"location":"Alex Theater","address":"7165 Beverly Blvd. Los Angeles, ","formattedAddress":"7165 Beverly Blvd, Los Angeles, CA 90036, USA","lat":34.0764408,"lng":-118.3457564,"zipcode":"90036","city":"Los Angeles","neighborhood":"Central LA"},{"location":"Alex Theater","address":"7165 Beverly Blvd. Los Angeles, ","formattedAddress":"7165 Beverly Blvd, Los Angeles, CA 90036, USA","lat":34.0764408,"lng":-118.3457564,"zipcode":"90036","city":"Los Angeles","neighborhood":"Central LA"},{"location":"Alex Theater","address":"7165 Beverly Blvd. Los Angeles, ","formattedAddress":"7165 Beverly Blvd, Los Angeles, CA 90036, USA","lat":34.0764408,"lng":-118.3457564,"zipcode":"90036","city":"Los Angeles","neighborhood":"Central LA"},{"location":"Alex Theater","address":"7165 Beverly Blvd. Los Angeles, ","formattedAddress":"7165 Beverly Blvd, Los Angeles, CA 90036, USA","lat":34.0764408,"lng":-118.3457564,"zipcode":"90036","city":"Los Angeles","neighborhood":"Central LA"},{"location":"Alex Theater","address":"7165 Beverly Blvd. Los Angeles, ","formattedAddress":"7165 Beverly Blvd, Los Angeles, CA 90036, USA","lat":34.0764408,"lng":-118.3457564,"zipcode":"90036","city":"Los Angeles","neighborhood":"Central LA"},{"location":"Alex Theater","address":"7165 Beverly Blvd. Los Angeles, ","formattedAddress":"7165 Beverly Blvd, Los Angeles, CA 90036, USA","lat":34.0764408,"lng":-118.3457564,"zipcode":"90036","city":"Los Angeles","neighborhood":"Central LA"},{"location":"Alex Theater","address":"7165 Beverly Blvd. Los Angeles, ","formattedAddress":"7165 Beverly Blvd, Los Angeles, CA 90036, USA","lat":34.0764408,"lng":-118.3457564,"zipcode":"90036","city":"Los Angeles","neighborhood":"Central LA"},{"location":"Alex Theater","address":"7165 Beverly Blvd. Los Angeles, ","formattedAddress":"7165 Beverly Blvd, Los Angeles, CA 90036, USA","lat":34.0764408,"lng":-118.3457564,"zipcode":"90036","city":"Los Angeles","neighborhood":"Central LA"},{"location":"Alex Theater","address":"7165 Beverly Blvd. Los Angeles, ","formattedAddress":"7165 Beverly Blvd, Los Angeles, CA 90036, USA","lat":34.0764408,"lng":-118.3457564,"zipcode":"90036","city":"Los Angeles","neighborhood":"Central LA"},{"location":"Alex Theater","address":"7165 Beverly Blvd. Los Angeles, ","formattedAddress":"7165 Beverly Blvd, Los Angeles, CA 90036, USA","lat":34.0764408,"lng":-118.3457564,"zipcode":"90036","city":"Los Angeles","neighborhood":"Central LA"},{"location":"Alex Theater","address":"7165 Beverly Blvd. Los Angeles, ","formattedAddress":"7165 Beverly Blvd, Los Angeles, CA 90036, USA","lat":34.0764408,"lng":-118.3457564,"zipcode":"90036","city":"Los Angeles","neighborhood":"Central LA"},{"location":"Alex Theater","address":"7165 Beverly Blvd. Los Angeles, ","formattedAddress":"7165 Beverly Blvd, Los Angeles, CA 90036, USA","lat":34.0764408,"lng":-118.3457564,"zipcode":"90036","city":"Los Angeles","neighborhood":"Central LA"},{"location":"Alex Theater","address":"7165 Beverly Blvd. Los Angeles, ","formattedAddress":"7165 Beverly Blvd, Los Angeles, CA 90036, USA","lat":34.0764408,"lng":-118.3457564,"zipcode":"90036","city":"Los Angeles","neighborhood":"Central LA"},{"location":"Alex Theater","address":"7165 Beverly Blvd. Los Angeles, ","formattedAddress":"7165 Beverly Blvd, Los Angeles, CA 90036, USA","lat":34.0764408,"lng":-118.3457564,"zipcode":"90036","city":"Los Angeles","neighborhood":"Central LA"},{"location":"Alex Theater","address":"7165 Beverly Blvd. Los Angeles, ","formattedAddress":"7165 Beverly Blvd, Los Angeles, CA 90036, USA","lat":34.0764408,"lng":-118.3457564,"zipcode":"90036","city":"Los Angeles","neighborhood":"Central LA"},{"location":"Alex Theater","address":"7165 Beverly Blvd. Los Angeles, ","formattedAddress":"7165 Beverly Blvd, Los Angeles, CA 90036, USA","lat":34.0764408,"lng":-118.3457564,"zipcode":"90036","city":"Los Angeles","neighborhood":"Central LA"},{"location":"Alex Theater","address":"7165 Beverly Blvd. Los Angeles, ","formattedAddress":"7165 Beverly Blvd, Los Angeles, CA 90036, USA","lat":34.0764408,"lng":-118.3457564,"zipcode":"90036","city":"Los Angeles","neighborhood":"Central LA"},{"location":"Alex Theater","address":"7165 Beverly Blvd. Los Angeles, ","formattedAddress":"7165 Beverly Blvd, Los Angeles, CA 90036, USA","lat":34.0764408,"lng":-118.3457564,"zipcode":"90036","city":"Los Angeles","neighborhood":"Central LA"},{"location":"Alex Theater","address":"7165 Beverly Blvd. Los Angeles, ","formattedAddress":"7165 Beverly Blvd, Los Angeles, CA 90036, USA","lat":34.0764408,"lng":-118.3457564,"zipcode":"90036","city":"Los Angeles","neighborhood":"Central LA"},{"location":"Alex Theater","address":"7165 Beverly Blvd. Los Angeles, ","formattedAddress":"7165 Beverly Blvd, Los Angeles, CA 90036, USA","lat":34.0764408,"lng":-118.3457564,"zipcode":"90036","city":"Los Angeles","neighborhood":"Central LA"},{"location":"Alex Theater","address":"7165 Beverly Blvd. Los Angeles, ","formattedAddress":"7165 Beverly Blvd, Los Angeles, CA 90036, USA","lat":34.0764408,"lng":-118.3457564,"zipcode":"90036","city":"Los Angeles","neighborhood":"Central LA"},{"location":"Alex Theater","address":"7165 Beverly Blvd. Los Angeles, ","formattedAddress":"7165 Beverly Blvd, Los Angeles, CA 90036, USA","lat":34.0764408,"lng":-118.3457564,"zipcode":"90036","city":"Los Angeles","neighborhood":"Central LA"},{"location":"Alex Theater","address":"7165 Beverly Blvd. Los Angeles, ","formattedAddress":"7165 Beverly Blvd, Los Angeles, CA 90036, USA","lat":34.0764408,"lng":-118.3457564,"zipcode":"90036","city":"Los Angeles","neighborhood":"Central LA"},{"location":"Alex Theater","address":"7165 Beverly Blvd. Los Angeles, ","formattedAddress":"7165 Beverly Blvd, Los Angeles, CA 90036, USA","lat":34.0764408,"lng":-118.3457564,"zipcode":"90036","city":"Los Angeles","neighborhood":"Central LA"},{"location":"Alex Theater","address":"7165 Beverly Blvd. Los Angeles, ","formattedAddress":"7165 Beverly Blvd, Los Angeles, CA 90036, USA","lat":34.0764408,"lng":-118.3457564,"zipcode":"90036","city":"Los Angeles","neighborhood":"Central LA"},{"location":"Alex Theater","address":"7165 Beverly Blvd. Los Angeles, ","formattedAddress":"7165 Beverly Blvd, Los Angeles, CA 90036, USA","lat":34.0764408,"lng":-118.3457564,"zipcode":"90036","city":"Los Angeles","neighborhood":"Central LA"},{"location":"Alex Theater","address":"7165 Beverly Blvd. Los Angeles, ","formattedAddress":"7165 Beverly Blvd, Los Angeles, CA 90036, USA","lat":34.0764408,"lng":-118.3457564,"zipcode":"90036","city":"Los Angeles","neighborhood":"Central LA"},{"location":"Alex Theater","address":"7165 Beverly Blvd. Los Angeles, ","formattedAddress":"7165 Beverly Blvd, Los Angeles, CA 90036, USA","lat":34.0764408,"lng":-118.3457564,"zipcode":"90036","city":"Los Angeles","neighborhood":"Central LA"},{"location":"Alex Theater","address":"7165 Beverly Blvd. Los Angeles, ","formattedAddress":"7165 Beverly Blvd, Los Angeles, CA 90036, USA","lat":34.0764408,"lng":-118.3457564,"zipcode":"90036","city":"Los Angeles","neighborhood":"Central LA"},{"location":"Alex Theater","address":"7165 Beverly Blvd. Los Angeles, ","formattedAddress":"7165 Beverly Blvd, Los Angeles, CA 90036, USA","lat":34.0764408,"lng":-118.3457564,"zipcode":"90036","city":"Los Angeles","neighborhood":"Central LA"},{"location":"Alex Theater","address":"7165 Beverly Blvd. Los Angeles, ","formattedAddress":"7165 Beverly Blvd, Los Angeles, CA 90036, USA","lat":34.0764408,"lng":-118.3457564,"zipcode":"90036","city":"Los Angeles","neighborhood":"Central LA"},{"location":"Alex Theater","address":"7165 Beverly Blvd. Los Angeles, ","formattedAddress":"7165 Beverly Blvd, Los Angeles, CA 90036, USA","lat":34.0764408,"lng":-118.3457564,"zipcode":"90036","city":"Los Angeles","neighborhood":"Central LA"},{"location":"Alex Theater","address":"7165 Beverly Blvd. Los Angeles, ","formattedAddress":"7165 Beverly Blvd, Los Angeles, CA 90036, USA","lat":34.0764408,"lng":-118.3457564,"zipcode":"90036","city":"Los Angeles","neighborhood":"Central LA"},{"location":"Alex Theater","address":"7165 Beverly Blvd. Los Angeles, ","formattedAddress":"7165 Beverly Blvd, Los Angeles, CA 90036, USA","lat":34.0764408,"lng":-118.3457564,"zipcode":"90036","city":"Los Angeles","neighborhood":"Central LA"},{"location":"Alex Theater","address":"7165 Beverly Blvd. Los Angeles, ","formattedAddress":"7165 Beverly Blvd, Los Angeles, CA 90036, USA","lat":34.0764408,"lng":-118.3457564,"zipcode":"90036","city":"Los Angeles","neighborhood":"Central LA"},{"location":"Alex Theater","address":"7165 Beverly Blvd. Los Angeles, ","formattedAddress":"7165 Beverly Blvd, Los Angeles, CA 90036, USA","lat":34.0764408,"lng":-118.3457564,"zipcode":"90036","city":"Los Angeles","neighborhood":"Central LA"},{"location":"Alex Theater","address":"7165 Beverly Blvd. Los Angeles, ","formattedAddress":"7165 Beverly Blvd, Los Angeles, CA 90036, USA","lat":34.0764408,"lng":-118.3457564,"zipcode":"90036","city":"Los Angeles","neighborhood":"Central LA"},{"location":"Alex Theater","address":"7165 Beverly Blvd. Los Angeles, ","formattedAddress":"7165 Beverly Blvd, Los Angeles, CA 90036, USA","lat":34.0764408,"lng":-118.3457564,"zipcode":"90036","city":"Los Angeles","neighborhood":"Central LA"},{"location":"Alex Theater","address":"7165 Beverly Blvd. Los Angeles, ","formattedAddress":"7165 Beverly Blvd, Los Angeles, CA 90036, USA","lat":34.0764408,"lng":-118.3457564,"zipcode":"90036","city":"Los Angeles","neighborhood":"Central LA"},{"location":"Alex Theater","address":"7165 Beverly Blvd. Los Angeles, ","formattedAddress":"7165 Beverly Blvd, Los Angeles, CA 90036, USA","lat":34.0764408,"lng":-118.3457564,"zipcode":"90036","city":"Los Angeles","neighborhood":"Central LA"},{"location":"Alex Theater","address":"7165 Beverly Blvd. Los Angeles, ","formattedAddress":"7165 Beverly Blvd, Los Angeles, CA 90036, USA","lat":34.0764408,"lng":-118.3457564,"zipcode":"90036","city":"Los Angeles","neighborhood":"Central LA"},{"location":"Alex Theater","address":"7165 Beverly Blvd. Los Angeles, ","formattedAddress":"7165 Beverly Blvd, Los Angeles, CA 90036, USA","lat":34.0764408,"lng":-118.3457564,"zipcode":"90036","city":"Los Angeles","neighborhood":"Central LA"},{"location":"Alex Theater","address":"7165 Beverly Blvd. Los Angeles, ","formattedAddress":"7165 Beverly Blvd, Los Angeles, CA 90036, USA","lat":34.0764408,"lng":-118.3457564,"zipcode":"90036","city":"Los Angeles","neighborhood":"Central LA"},{"location":"Alex Theater","address":"7165 Beverly Blvd. Los Angeles, ","formattedAddress":"7165 Beverly Blvd, Los Angeles, CA 90036, USA","lat":34.0764408,"lng":-118.3457564,"zipcode":"90036","city":"Los Angeles","neighborhood":"Central LA"},{"location":"Alex Theater","address":"7165 Beverly Blvd. Los Angeles, ","formattedAddress":"7165 Beverly Blvd, Los Angeles, CA 90036, USA","lat":34.0764408,"lng":-118.3457564,"zipcode":"90036","city":"Los Angeles","neighborhood":"Central LA"},{"location":"Alex Theater","address":"7165 Beverly Blvd. Los Angeles, ","formattedAddress":"7165 Beverly Blvd, Los Angeles, CA 90036, USA","lat":34.0764408,"lng":-118.3457564,"zipcode":"90036","city":"Los Angeles","neighborhood":"Central LA"},{"location":"Alex Theater","address":"7165 Beverly Blvd. Los Angeles, ","formattedAddress":"7165 Beverly Blvd, Los Angeles, CA 90036, USA","lat":34.0764408,"lng":-118.3457564,"zipcode":"90036","city":"Los Angeles","neighborhood":"Central LA"},{"location":"Alex Theater","address":"7165 Beverly Blvd. Los Angeles, ","formattedAddress":"7165 Beverly Blvd, Los Angeles, CA 90036, USA","lat":34.0764408,"lng":-118.3457564,"zipcode":"90036","city":"Los Angeles","neighborhood":"Central LA"},{"location":"Alex Theater","address":"7165 Beverly Blvd. Los Angeles, ","formattedAddress":"7165 Beverly Blvd, Los Angeles, CA 90036, USA","lat":34.0764408,"lng":-118.3457564,"zipcode":"90036","city":"Los Angeles","neighborhood":"Central LA"},{"location":"Alex Theater","address":"7165 Beverly Blvd. Los Angeles, ","formattedAddress":"7165 Beverly Blvd, Los Angeles, CA 90036, USA","lat":34.0764408,"lng":-118.3457564,"zipcode":"90036","city":"Los Angeles","neighborhood":"Central LA"},{"location":"Alex Theater","address":"7165 Beverly Blvd. Los Angeles, ","formattedAddress":"7165 Beverly Blvd, Los Angeles, CA 90036, USA","lat":34.0764408,"lng":-118.3457564,"zipcode":"90036","city":"Los Angeles","neighborhood":"Central LA"},{"location":"Alex Theater","address":"7165 Beverly Blvd. Los Angeles, ","formattedAddress":"7165 Beverly Blvd, Los Angeles, CA 90036, USA","lat":34.0764408,"lng":-118.3457564,"zipcode":"90036","city":"Los Angeles","neighborhood":"Central LA"},{"location":"Alex Theater","address":"7165 Beverly Blvd. Los Angeles, ","formattedAddress":"7165 Beverly Blvd, Los Angeles, CA 90036, USA","lat":34.0764408,"lng":-118.3457564,"zipcode":"90036","city":"Los Angeles","neighborhood":"Central LA"},{"location":"Alex Theater","address":"7165 Beverly Blvd. Los Angeles, ","formattedAddress":"7165 Beverly Blvd, Los Angeles, CA 90036, USA","lat":34.0764408,"lng":-118.3457564,"zipcode":"90036","city":"Los Angeles","neighborhood":"Central LA"},{"location":"Alex Theater","address":"7165 Beverly Blvd. Los Angeles, ","formattedAddress":"7165 Beverly Blvd, Los Angeles, CA 90036, USA","lat":34.0764408,"lng":-118.3457564,"zipcode":"90036","city":"Los Angeles","neighborhood":"Central LA"},{"location":"Alex Theater","address":"7165 Beverly Blvd. Los Angeles, ","formattedAddress":"7165 Beverly Blvd, Los Angeles, CA 90036, USA","lat":34.0764408,"lng":-118.3457564,"zipcode":"90036","city":"Los Angeles","neighborhood":"Central LA"},{"location":"Alex Theater","address":"7165 Beverly Blvd. Los Angeles, ","formattedAddress":"7165 Beverly Blvd, Los Angeles, CA 90036, USA","lat":34.0764408,"lng":-118.3457564,"zipcode":"90036","city":"Los Angeles","neighborhood":"Central LA"},{"location":"Alex Theater","address":"7165 Beverly Blvd. Los Angeles, ","formattedAddress":"7165 Beverly Blvd, Los Angeles, CA 90036, USA","lat":34.0764408,"lng":-118.3457564,"zipcode":"90036","city":"Los Angeles","neighborhood":"Central LA"},{"location":"Alex Theater","address":"7165 Beverly Blvd. Los Angeles, ","formattedAddress":"7165 Beverly Blvd, Los Angeles, CA 90036, USA","lat":34.0764408,"lng":-118.3457564,"zipcode":"90036","city":"Los Angeles","neighborhood":"Central LA"},{"location":"Alex Theater","address":"7165 Beverly Blvd. Los Angeles, ","formattedAddress":"7165 Beverly Blvd, Los Angeles, CA 90036, USA","lat":34.0764408,"lng":-118.3457564,"zipcode":"90036","city":"Los Angeles","neighborhood":"Central LA"},{"location":"Alex Theater","address":"7165 Beverly Blvd. Los Angeles, ","formattedAddress":"7165 Beverly Blvd, Los Angeles, CA 90036, USA","lat":34.0764408,"lng":-118.3457564,"zipcode":"90036","city":"Los Angeles","neighborhood":"Central LA"},{"location":"Alex Theater","address":"7165 Beverly Blvd. Los Angeles, ","formattedAddress":"7165 Beverly Blvd, Los Angeles, CA 90036, USA","lat":34.0764408,"lng":-118.3457564,"zipcode":"90036","city":"Los Angeles","neighborhood":"Central LA"},{"location":"Alex Theater","address":"7165 Beverly Blvd. Los Angeles, ","formattedAddress":"7165 Beverly Blvd, Los Angeles, CA 90036, USA","lat":34.0764408,"lng":-118.3457564,"zipcode":"90036","city":"Los Angeles","neighborhood":"Central LA"},{"location":"Alex Theater","address":"7165 Beverly Blvd. Los Angeles, ","formattedAddress":"7165 Beverly Blvd, Los Angeles, CA 90036, USA","lat":34.0764408,"lng":-118.3457564,"zipcode":"90036","city":"Los Angeles","neighborhood":"Central LA"},{"location":"Alex Theater","address":"7165 Beverly Blvd. Los Angeles, ","formattedAddress":"7165 Beverly Blvd, Los Angeles, CA 90036, USA","lat":34.0764408,"lng":-118.3457564,"zipcode":"90036","city":"Los Angeles","neighborhood":"Central LA"},{"location":"Alex Theater","address":"7165 Beverly Blvd. Los Angeles, ","formattedAddress":"7165 Beverly Blvd, Los Angeles, CA 90036, USA","lat":34.0764408,"lng":-118.3457564,"zipcode":"90036","city":"Los Angeles","neighborhood":"Central LA"},{"location":"Alex Theater","address":"7165 Beverly Blvd. Los Angeles, ","formattedAddress":"7165 Beverly Blvd, Los Angeles, CA 90036, USA","lat":34.0764408,"lng":-118.3457564,"zipcode":"90036","city":"Los Angeles","neighborhood":"Central LA"},{"location":"Alex Theater","address":"7165 Beverly Blvd. Los Angeles, ","formattedAddress":"7165 Beverly Blvd, Los Angeles, CA 90036, USA","lat":34.0764408,"lng":-118.3457564,"zipcode":"90036","city":"Los Angeles","neighborhood":"Central LA"},{"location":"Alex Theater","address":"7165 Beverly Blvd. Los Angeles, ","formattedAddress":"7165 Beverly Blvd, Los Angeles, CA 90036, USA","lat":34.0764408,"lng":-118.3457564,"zipcode":"90036","city":"Los Angeles","neighborhood":"Central LA"},{"location":"Alex Theater","address":"7165 Beverly Blvd. Los Angeles, ","formattedAddress":"7165 Beverly Blvd, Los Angeles, CA 90036, USA","lat":34.0764408,"lng":-118.3457564,"zipcode":"90036","city":"Los Angeles","neighborhood":"Central LA"},{"location":"Alex Theater","address":"7165 Beverly Blvd. Los Angeles, ","formattedAddress":"7165 Beverly Blvd, Los Angeles, CA 90036, USA","lat":34.0764408,"lng":-118.3457564,"zipcode":"90036","city":"Los Angeles","neighborhood":"Central LA"},{"location":"Alex Theater","address":"7165 Beverly Blvd. Los Angeles, ","formattedAddress":"7165 Beverly Blvd, Los Angeles, CA 90036, USA","lat":34.0764408,"lng":-118.3457564,"zipcode":"90036","city":"Los Angeles","neighborhood":"Central LA"},{"location":"Alex Theater","address":"7165 Beverly Blvd. Los Angeles, ","formattedAddress":"7165 Beverly Blvd, Los Angeles, CA 90036, USA","lat":34.0764408,"lng":-118.3457564,"zipcode":"90036","city":"Los Angeles","neighborhood":"Central LA"},{"location":"Alex Theater","address":"7165 Beverly Blvd. Los Angeles, ","formattedAddress":"7165 Beverly Blvd, Los Angeles, CA 90036, USA","lat":34.0764408,"lng":-118.3457564,"zipcode":"90036","city":"Los Angeles","neighborhood":"Central LA"},{"location":"Alex Theater","address":"7165 Beverly Blvd. Los Angeles, ","formattedAddress":"7165 Beverly Blvd, Los Angeles, CA 90036, USA","lat":34.0764408,"lng":-118.3457564,"zipcode":"90036","city":"Los Angeles","neighborhood":"Central LA"},{"location":"Alex Theater","address":"7165 Beverly Blvd. Los Angeles, ","formattedAddress":"7165 Beverly Blvd, Los Angeles, CA 90036, USA","lat":34.0764408,"lng":-118.3457564,"zipcode":"90036","city":"Los Angeles","neighborhood":"Central LA"},{"location":"Alex Theater","address":"7165 Beverly Blvd. Los Angeles, ","formattedAddress":"7165 Beverly Blvd, Los Angeles, CA 90036, USA","lat":34.0764408,"lng":-118.3457564,"zipcode":"90036","city":"Los Angeles","neighborhood":"Central LA"},{"location":"Alex Theater","address":"7165 Beverly Blvd. Los Angeles, ","formattedAddress":"7165 Beverly Blvd, Los Angeles, CA 90036, USA","lat":34.0764408,"lng":-118.3457564,"zipcode":"90036","city":"Los Angeles","neighborhood":"Central LA"},{"location":"Alex Theater","address":"7165 Beverly Blvd. Los Angeles, ","formattedAddress":"7165 Beverly Blvd, Los Angeles, CA 90036, USA","lat":34.0764408,"lng":-118.3457564,"zipcode":"90036","city":"Los Angeles","neighborhood":"Central LA"},{"location":"Alex Theater","address":"7165 Beverly Blvd. Los Angeles, ","formattedAddress":"7165 Beverly Blvd, Los Angeles, CA 90036, USA","lat":34.0764408,"lng":-118.3457564,"zipcode":"90036","city":"Los Angeles","neighborhood":"Central LA"},{"location":"Alex Theater","address":"7165 Beverly Blvd. Los Angeles, ","formattedAddress":"7165 Beverly Blvd, Los Angeles, CA 90036, USA","lat":34.0764408,"lng":-118.3457564,"zipcode":"90036","city":"Los Angeles","neighborhood":"Central LA"},{"location":"Alex Theater","address":"7165 Beverly Blvd. Los Angeles, ","formattedAddress":"7165 Beverly Blvd, Los Angeles, CA 90036, USA","lat":34.0764408,"lng":-118.3457564,"zipcode":"90036","city":"Los Angeles","neighborhood":"Central LA"},{"location":"Alex Theater","address":"7165 Beverly Blvd. Los Angeles, ","formattedAddress":"7165 Beverly Blvd, Los Angeles, CA 90036, USA","lat":34.0764408,"lng":-118.3457564,"zipcode":"90036","city":"Los Angeles","neighborhood":"Central LA"},{"location":"Alex Theater","address":"7165 Beverly Blvd. Los Angeles, ","formattedAddress":"7165 Beverly Blvd, Los Angeles, CA 90036, USA","lat":34.0764408,"lng":-118.3457564,"zipcode":"90036","city":"Los Angeles","neighborhood":"Central LA"},{"location":"Alex Theater","address":"7165 Beverly Blvd. Los Angeles, ","formattedAddress":"7165 Beverly Blvd, Los Angeles, CA 90036, USA","lat":34.0764408,"lng":-118.3457564,"zipcode":"90036","city":"Los Angeles","neighborhood":"Central LA"},{"location":"Alex Theater","address":"7165 Beverly Blvd. Los Angeles, ","formattedAddress":"7165 Beverly Blvd, Los Angeles, CA 90036, USA","lat":34.0764408,"lng":-118.3457564,"zipcode":"90036","city":"Los Angeles","neighborhood":"Central LA"},{"location":"Alex Theater","address":"7165 Beverly Blvd. Los Angeles, ","formattedAddress":"7165 Beverly Blvd, Los Angeles, CA 90036, USA","lat":34.0764408,"lng":-118.3457564,"zipcode":"90036","city":"Los Angeles","neighborhood":"Central LA"},{"location":"Alex Theater","address":"7165 Beverly Blvd. Los Angeles, ","formattedAddress":"7165 Beverly Blvd, Los Angeles, CA 90036, USA","lat":34.0764408,"lng":-118.3457564,"zipcode":"90036","city":"Los Angeles","neighborhood":"Central LA"},{"location":"Alex Theater","address":"7165 Beverly Blvd. Los Angeles, ","formattedAddress":"7165 Beverly Blvd, Los Angeles, CA 90036, USA","lat":34.0764408,"lng":-118.3457564,"zipcode":"90036","city":"Los Angeles","neighborhood":"Central LA"},{"location":"Alex Theater","address":"7165 Beverly Blvd. Los Angeles, ","formattedAddress":"7165 Beverly Blvd, Los Angeles, CA 90036, USA","lat":34.0764408,"lng":-118.3457564,"zipcode":"90036","city":"Los Angeles","neighborhood":"Central LA"},{"location":"Alex Theater","address":"7165 Beverly Blvd. Los Angeles, ","formattedAddress":"7165 Beverly Blvd, Los Angeles, CA 90036, USA","lat":34.0764408,"lng":-118.3457564,"zipcode":"90036","city":"Los Angeles","neighborhood":"Central LA"},{"location":"Alex Theater","address":"7165 Beverly Blvd. Los Angeles, ","formattedAddress":"7165 Beverly Blvd, Los Angeles, CA 90036, USA","lat":34.0764408,"lng":-118.3457564,"zipcode":"90036","city":"Los Angeles","neighborhood":"Central LA"},{"location":"Alex Theater","address":"7165 Beverly Blvd. Los Angeles, ","formattedAddress":"7165 Beverly Blvd, Los Angeles, CA 90036, USA","lat":34.0764408,"lng":-118.3457564,"zipcode":"90036","city":"Los Angeles","neighborhood":"Central LA"},{"location":"Alex Theater","address":"7165 Beverly Blvd. Los Angeles, ","formattedAddress":"7165 Beverly Blvd, Los Angeles, CA 90036, USA","lat":34.0764408,"lng":-118.3457564,"zipcode":"90036","city":"Los Angeles","neighborhood":"Central LA"},{"location":"Alex Theater","address":"7165 Beverly Blvd. Los Angeles, ","formattedAddress":"7165 Beverly Blvd, Los Angeles, CA 90036, USA","lat":34.0764408,"lng":-118.3457564,"zipcode":"90036","city":"Los Angeles","neighborhood":"Central LA"},{"location":"Alex Theater","address":"7165 Beverly Blvd. Los Angeles, ","formattedAddress":"7165 Beverly Blvd, Los Angeles, CA 90036, USA","lat":34.0764408,"lng":-118.3457564,"zipcode":"90036","city":"Los Angeles","neighborhood":"Central LA"},{"location":"Alex Theater","address":"7165 Beverly Blvd. Los Angeles, ","formattedAddress":"7165 Beverly Blvd, Los Angeles, CA 90036, USA","lat":34.0764408,"lng":-118.3457564,"zipcode":"90036","city":"Los Angeles","neighborhood":"Central LA"},{"location":"Alex Theater","address":"7165 Beverly Blvd. Los Angeles, ","formattedAddress":"7165 Beverly Blvd, Los Angeles, CA 90036, USA","lat":34.0764408,"lng":-118.3457564,"zipcode":"90036","city":"Los Angeles","neighborhood":"Central LA"},{"location":"Alex Theater","address":"7165 Beverly Blvd. Los Angeles, ","formattedAddress":"7165 Beverly Blvd, Los Angeles, CA 90036, USA","lat":34.0764408,"lng":-118.3457564,"zipcode":"90036","city":"Los Angeles","neighborhood":"Central LA"},{"location":"Alex Theater","address":"7165 Beverly Blvd. Los Angeles, ","formattedAddress":"7165 Beverly Blvd, Los Angeles, CA 90036, USA","lat":34.0764408,"lng":-118.3457564,"zipcode":"90036","city":"Los Angeles","neighborhood":"Central LA"},{"location":"Alex Theater","address":"7165 Beverly Blvd. Los Angeles, ","formattedAddress":"7165 Beverly Blvd, Los Angeles, CA 90036, USA","lat":34.0764408,"lng":-118.3457564,"zipcode":"90036","city":"Los Angeles","neighborhood":"Central LA"},{"location":"Alex Theater","address":"7165 Beverly Blvd. Los Angeles, ","formattedAddress":"7165 Beverly Blvd, Los Angeles, CA 90036, USA","lat":34.0764408,"lng":-118.3457564,"zipcode":"90036","city":"Los Angeles","neighborhood":"Central LA"},{"location":"Alex Theater","address":"7165 Beverly Blvd. Los Angeles, ","formattedAddress":"7165 Beverly Blvd, Los Angeles, CA 90036, USA","lat":34.0764408,"lng":-118.3457564,"zipcode":"90036","city":"Los Angeles","neighborhood":"Central LA"},{"location":"Alex Theater","address":"7165 Beverly Blvd. Los Angeles, ","formattedAddress":"7165 Beverly Blvd, Los Angeles, CA 90036, USA","lat":34.0764408,"lng":-118.3457564,"zipcode":"90036","city":"Los Angeles","neighborhood":"Central LA"},{"location":"Alex Theater","address":"7165 Beverly Blvd. Los Angeles, ","formattedAddress":"7165 Beverly Blvd, Los Angeles, CA 90036, USA","lat":34.0764408,"lng":-118.3457564,"zipcode":"90036","city":"Los Angeles","neighborhood":"Central LA"},{"location":"Alex Theater","address":"7165 Beverly Blvd. Los Angeles, ","formattedAddress":"7165 Beverly Blvd, Los Angeles, CA 90036, USA","lat":34.0764408,"lng":-118.3457564,"zipcode":"90036","city":"Los Angeles","neighborhood":"Central LA"},{"location":"Alex Theater","address":"7165 Beverly Blvd. Los Angeles, ","formattedAddress":"7165 Beverly Blvd, Los Angeles, CA 90036, USA","lat":34.0764408,"lng":-118.3457564,"zipcode":"90036","city":"Los Angeles","neighborhood":"Central LA"},{"location":"Alex Theater","address":"7165 Beverly Blvd. Los Angeles, ","formattedAddress":"7165 Beverly Blvd, Los Angeles, CA 90036, USA","lat":34.0764408,"lng":-118.3457564,"zipcode":"90036","city":"Los Angeles","neighborhood":"Central LA"},{"location":"Alex Theater","address":"7165 Beverly Blvd. Los Angeles, ","formattedAddress":"7165 Beverly Blvd, Los Angeles, CA 90036, USA","lat":34.0764408,"lng":-118.3457564,"zipcode":"90036","city":"Los Angeles","neighborhood":"Central LA"},{"location":"Alex Theater","address":"7165 Beverly Blvd. Los Angeles, ","formattedAddress":"7165 Beverly Blvd, Los Angeles, CA 90036, USA","lat":34.0764408,"lng":-118.3457564,"zipcode":"90036","city":"Los Angeles","neighborhood":"Central LA"},{"location":"Alex Theater","address":"7165 Beverly Blvd. Los Angeles, ","formattedAddress":"7165 Beverly Blvd, Los Angeles, CA 90036, USA","lat":34.0764408,"lng":-118.3457564,"zipcode":"90036","city":"Los Angeles","neighborhood":"Central LA"},{"location":"Alex Theater","address":"7165 Beverly Blvd. Los Angeles, ","formattedAddress":"7165 Beverly Blvd, Los Angeles, CA 90036, USA","lat":34.0764408,"lng":-118.3457564,"zipcode":"90036","city":"Los Angeles","neighborhood":"Central LA"},{"location":"Alex Theater","address":"7165 Beverly Blvd. Los Angeles, ","formattedAddress":"7165 Beverly Blvd, Los Angeles, CA 90036, USA","lat":34.0764408,"lng":-118.3457564,"zipcode":"90036","city":"Los Angeles","neighborhood":"Central LA"},{"location":"Alex Theater","address":"7165 Beverly Blvd. Los Angeles, ","formattedAddress":"7165 Beverly Blvd, Los Angeles, CA 90036, USA","lat":34.0764408,"lng":-118.3457564,"zipcode":"90036","city":"Los Angeles","neighborhood":"Central LA"},{"location":"Alex Theater","address":"7165 Beverly Blvd. Los Angeles, ","formattedAddress":"7165 Beverly Blvd, Los Angeles, CA 90036, USA","lat":34.0764408,"lng":-118.3457564,"zipcode":"90036","city":"Los Angeles","neighborhood":"Central LA"},{"location":"Alex Theater","address":"7165 Beverly Blvd. Los Angeles, ","formattedAddress":"7165 Beverly Blvd, Los Angeles, CA 90036, USA","lat":34.0764408,"lng":-118.3457564,"zipcode":"90036","city":"Los Angeles","neighborhood":"Central LA"},{"location":"Alex Theater","address":"7165 Beverly Blvd. Los Angeles, ","formattedAddress":"7165 Beverly Blvd, Los Angeles, CA 90036, USA","lat":34.0764408,"lng":-118.3457564,"zipcode":"90036","city":"Los Angeles","neighborhood":"Central LA"},{"location":"Alex Theater","address":"7165 Beverly Blvd. Los Angeles, ","formattedAddress":"7165 Beverly Blvd, Los Angeles, CA 90036, USA","lat":34.0764408,"lng":-118.3457564,"zipcode":"90036","city":"Los Angeles","neighborhood":"Central LA"},{"location":"Alex Theater","address":"7165 Beverly Blvd. Los Angeles, ","formattedAddress":"7165 Beverly Blvd, Los Angeles, CA 90036, USA","lat":34.0764408,"lng":-118.3457564,"zipcode":"90036","city":"Los Angeles","neighborhood":"Central LA"},{"location":"Alex Theater","address":"7165 Beverly Blvd. Los Angeles, ","formattedAddress":"7165 Beverly Blvd, Los Angeles, CA 90036, USA","lat":34.0764408,"lng":-118.3457564,"zipcode":"90036","city":"Los Angeles","neighborhood":"Central LA"},{"location":"Alex Theater","address":"7165 Beverly Blvd. Los Angeles, ","formattedAddress":"7165 Beverly Blvd, Los Angeles, CA 90036, USA","lat":34.0764408,"lng":-118.3457564,"zipcode":"90036","city":"Los Angeles","neighborhood":"Central LA"},{"location":"Alex Theater","address":"7165 Beverly Blvd. Los Angeles, ","formattedAddress":"7165 Beverly Blvd, Los Angeles, CA 90036, USA","lat":34.0764408,"lng":-118.3457564,"zipcode":"90036","city":"Los Angeles","neighborhood":"Central LA"},{"location":"Alex Theater","address":"7165 Beverly Blvd. Los Angeles, ","formattedAddress":"7165 Beverly Blvd, Los Angeles, CA 90036, USA","lat":34.0764408,"lng":-118.3457564,"zipcode":"90036","city":"Los Angeles","neighborhood":"Central LA"},{"location":"Alex Theater","address":"7165 Beverly Blvd. Los Angeles, ","formattedAddress":"7165 Beverly Blvd, Los Angeles, CA 90036, USA","lat":34.0764408,"lng":-118.3457564,"zipcode":"90036","city":"Los Angeles","neighborhood":"Central LA"},{"location":"Alex Theater","address":"7165 Beverly Blvd. Los Angeles, ","formattedAddress":"7165 Beverly Blvd, Los Angeles, CA 90036, USA","lat":34.0764408,"lng":-118.3457564,"zipcode":"90036","city":"Los Angeles","neighborhood":"Central LA"},{"location":"Alex Theater","address":"7165 Beverly Blvd. Los Angeles, ","formattedAddress":"7165 Beverly Blvd, Los Angeles, CA 90036, USA","lat":34.0764408,"lng":-118.3457564,"zipcode":"90036","city":"Los Angeles","neighborhood":"Central LA"},{"location":"Alex Theater","address":"7165 Beverly Blvd. Los Angeles, ","formattedAddress":"7165 Beverly Blvd, Los Angeles, CA 90036, USA","lat":34.0764408,"lng":-118.3457564,"zipcode":"90036","city":"Los Angeles","neighborhood":"Central LA"},{"location":"Alex Theater","address":"7165 Beverly Blvd. Los Angeles, ","formattedAddress":"7165 Beverly Blvd, Los Angeles, CA 90036, USA","lat":34.0764408,"lng":-118.3457564,"zipcode":"90036","city":"Los Angeles","neighborhood":"Central LA"},{"location":"Alex Theater","address":"7165 Beverly Blvd. Los Angeles, ","formattedAddress":"7165 Beverly Blvd, Los Angeles, CA 90036, USA","lat":34.0764408,"lng":-118.3457564,"zipcode":"90036","city":"Los Angeles","neighborhood":"Central LA"},{"location":"Alex Theater","address":"7165 Beverly Blvd. Los Angeles, ","formattedAddress":"7165 Beverly Blvd, Los Angeles, CA 90036, USA","lat":34.0764408,"lng":-118.3457564,"zipcode":"90036","city":"Los Angeles","neighborhood":"Central LA"},{"location":"Alex Theater","address":"7165 Beverly Blvd. Los Angeles, ","formattedAddress":"7165 Beverly Blvd, Los Angeles, CA 90036, USA","lat":34.0764408,"lng":-118.3457564,"zipcode":"90036","city":"Los Angeles","neighborhood":"Central LA"},{"location":"Alex Theater","address":"7165 Beverly Blvd. Los Angeles, ","formattedAddress":"7165 Beverly Blvd, Los Angeles, CA 90036, USA","lat":34.0764408,"lng":-118.3457564,"zipcode":"90036","city":"Los Angeles","neighborhood":"Central LA"},{"location":"Alex Theater","address":"7165 Beverly Blvd. Los Angeles, ","formattedAddress":"7165 Beverly Blvd, Los Angeles, CA 90036, USA","lat":34.0764408,"lng":-118.3457564,"zipcode":"90036","city":"Los Angeles","neighborhood":"Central LA"},{"location":"Alex Theater","address":"7165 Beverly Blvd. Los Angeles, ","formattedAddress":"7165 Beverly Blvd, Los Angeles, CA 90036, USA","lat":34.0764408,"lng":-118.3457564,"zipcode":"90036","city":"Los Angeles","neighborhood":"Central LA"},{"location":"Alex Theater","address":"7165 Beverly Blvd. Los Angeles, ","formattedAddress":"7165 Beverly Blvd, Los Angeles, CA 90036, USA","lat":34.0764408,"lng":-118.3457564,"zipcode":"90036","city":"Los Angeles","neighborhood":"Central LA"},{"location":"Alex Theater","address":"7165 Beverly Blvd. Los Angeles, ","formattedAddress":"7165 Beverly Blvd, Los Angeles, CA 90036, USA","lat":34.0764408,"lng":-118.3457564,"zipcode":"90036","city":"Los Angeles","neighborhood":"Central LA"},{"location":"Alex Theater","address":"7165 Beverly Blvd. Los Angeles, ","formattedAddress":"7165 Beverly Blvd, Los Angeles, CA 90036, USA","lat":34.0764408,"lng":-118.3457564,"zipcode":"90036","city":"Los Angeles","neighborhood":"Central LA"},{"location":"Alex Theater","address":"7165 Beverly Blvd. Los Angeles, ","formattedAddress":"7165 Beverly Blvd, Los Angeles, CA 90036, USA","lat":34.0764408,"lng":-118.3457564,"zipcode":"90036","city":"Los Angeles","neighborhood":"Central LA"},{"location":"Alex Theater","address":"7165 Beverly Blvd. Los Angeles, ","formattedAddress":"7165 Beverly Blvd, Los Angeles, CA 90036, USA","lat":34.0764408,"lng":-118.3457564,"zipcode":"90036","city":"Los Angeles","neighborhood":"Central LA"},{"location":"Alex Theater","address":"7165 Beverly Blvd. Los Angeles, ","formattedAddress":"7165 Beverly Blvd, Los Angeles, CA 90036, USA","lat":34.0764408,"lng":-118.3457564,"zipcode":"90036","city":"Los Angeles","neighborhood":"Central LA"},{"location":"Alex Theater","address":"7165 Beverly Blvd. Los Angeles, ","formattedAddress":"7165 Beverly Blvd, Los Angeles, CA 90036, USA","lat":34.0764408,"lng":-118.3457564,"zipcode":"90036","city":"Los Angeles","neighborhood":"Central LA"},{"location":"Alex Theater","address":"7165 Beverly Blvd. Los Angeles, ","formattedAddress":"7165 Beverly Blvd, Los Angeles, CA 90036, USA","lat":34.0764408,"lng":-118.3457564,"zipcode":"90036","city":"Los Angeles","neighborhood":"Central LA"},{"location":"Alex Theater","address":"7165 Beverly Blvd. Los Angeles, ","formattedAddress":"7165 Beverly Blvd, Los Angeles, CA 90036, USA","lat":34.0764408,"lng":-118.3457564,"zipcode":"90036","city":"Los Angeles","neighborhood":"Central LA"},{"location":"Alex Theater","address":"7165 Beverly Blvd. Los Angeles, ","formattedAddress":"7165 Beverly Blvd, Los Angeles, CA 90036, USA","lat":34.0764408,"lng":-118.3457564,"zipcode":"90036","city":"Los Angeles","neighborhood":"Central LA"},{"location":"Alex Theater","address":"7165 Beverly Blvd. Los Angeles, ","formattedAddress":"7165 Beverly Blvd, Los Angeles, CA 90036, USA","lat":34.0764408,"lng":-118.3457564,"zipcode":"90036","city":"Los Angeles","neighborhood":"Central LA"},{"location":"Alex Theater","address":"7165 Beverly Blvd. Los Angeles, ","formattedAddress":"7165 Beverly Blvd, Los Angeles, CA 90036, USA","lat":34.0764408,"lng":-118.3457564,"zipcode":"90036","city":"Los Angeles","neighborhood":"Central LA"},{"location":"Alex Theater","address":"7165 Beverly Blvd. Los Angeles, ","formattedAddress":"7165 Beverly Blvd, Los Angeles, CA 90036, USA","lat":34.0764408,"lng":-118.3457564,"zipcode":"90036","city":"Los Angeles","neighborhood":"Central LA"},{"location":"Alex Theater","address":"7165 Beverly Blvd. Los Angeles, ","formattedAddress":"7165 Beverly Blvd, Los Angeles, CA 90036, USA","lat":34.0764408,"lng":-118.3457564,"zipcode":"90036","city":"Los Angeles","neighborhood":"Central LA"},{"location":"Alex Theater","address":"7165 Beverly Blvd. Los Angeles, ","formattedAddress":"7165 Beverly Blvd, Los Angeles, CA 90036, USA","lat":34.0764408,"lng":-118.3457564,"zipcode":"90036","city":"Los Angeles","neighborhood":"Central LA"},{"location":"Alex Theater","address":"7165 Beverly Blvd. Los Angeles, ","formattedAddress":"7165 Beverly Blvd, Los Angeles, CA 90036, USA","lat":34.0764408,"lng":-118.3457564,"zipcode":"90036","city":"Los Angeles","neighborhood":"Central LA"},{"location":"Alex Theater","address":"7165 Beverly Blvd. Los Angeles, ","formattedAddress":"7165 Beverly Blvd, Los Angeles, CA 90036, USA","lat":34.0764408,"lng":-118.3457564,"zipcode":"90036","city":"Los Angeles","neighborhood":"Central LA"},{"location":"Alex Theater","address":"7165 Beverly Blvd. Los Angeles, ","formattedAddress":"7165 Beverly Blvd, Los Angeles, CA 90036, USA","lat":34.0764408,"lng":-118.3457564,"zipcode":"90036","city":"Los Angeles","neighborhood":"Central LA"},{"location":"Alex Theater","address":"7165 Beverly Blvd. Los Angeles, ","formattedAddress":"7165 Beverly Blvd, Los Angeles, CA 90036, USA","lat":34.0764408,"lng":-118.3457564,"zipcode":"90036","city":"Los Angeles","neighborhood":"Central LA"},{"location":"Alex Theater","address":"7165 Beverly Blvd. Los Angeles, ","formattedAddress":"7165 Beverly Blvd, Los Angeles, CA 90036, USA","lat":34.0764408,"lng":-118.3457564,"zipcode":"90036","city":"Los Angeles","neighborhood":"Central LA"},{"location":"Alex Theater","address":"7165 Beverly Blvd. Los Angeles, ","formattedAddress":"7165 Beverly Blvd, Los Angeles, CA 90036, USA","lat":34.0764408,"lng":-118.3457564,"zipcode":"90036","city":"Los Angeles","neighborhood":"Central LA"},{"location":"Alex Theater","address":"7165 Beverly Blvd. Los Angeles, ","formattedAddress":"7165 Beverly Blvd, Los Angeles, CA 90036, USA","lat":34.0764408,"lng":-118.3457564,"zipcode":"90036","city":"Los Angeles","neighborhood":"Central LA"},{"location":"Alex Theater","address":"7165 Beverly Blvd. Los Angeles, ","formattedAddress":"7165 Beverly Blvd, Los Angeles, CA 90036, USA","lat":34.0764408,"lng":-118.3457564,"zipcode":"90036","city":"Los Angeles","neighborhood":"Central LA"},{"location":"Alex Theater","address":"7165 Beverly Blvd. Los Angeles, ","formattedAddress":"7165 Beverly Blvd, Los Angeles, CA 90036, USA","lat":34.0764408,"lng":-118.3457564,"zipcode":"90036","city":"Los Angeles","neighborhood":"Central LA"},{"location":"Alex Theater","address":"7165 Beverly Blvd. Los Angeles, ","formattedAddress":"7165 Beverly Blvd, Los Angeles, CA 90036, USA","lat":34.0764408,"lng":-118.3457564,"zipcode":"90036","city":"Los Angeles","neighborhood":"Central LA"},{"location":"Alex Theater","address":"7165 Beverly Blvd. Los Angeles, ","formattedAddress":"7165 Beverly Blvd, Los Angeles, CA 90036, USA","lat":34.0764408,"lng":-118.3457564,"zipcode":"90036","city":"Los Angeles","neighborhood":"Central LA"},{"location":"Alex Theater","address":"7165 Beverly Blvd. Los Angeles, ","formattedAddress":"7165 Beverly Blvd, Los Angeles, CA 90036, USA","lat":34.0764408,"lng":-118.3457564,"zipcode":"90036","city":"Los Angeles","neighborhood":"Central LA"},{"location":"Alex Theater","address":"7165 Beverly Blvd. Los Angeles, ","formattedAddress":"7165 Beverly Blvd, Los Angeles, CA 90036, USA","lat":34.0764408,"lng":-118.3457564,"zipcode":"90036","city":"Los Angeles","neighborhood":"Central LA"},{"location":"Alex Theater","address":"7165 Beverly Blvd. Los Angeles, ","formattedAddress":"7165 Beverly Blvd, Los Angeles, CA 90036, USA","lat":34.0764408,"lng":-118.3457564,"zipcode":"90036","city":"Los Angeles","neighborhood":"Central LA"},{"location":"Alex Theater","address":"7165 Beverly Blvd. Los Angeles, ","formattedAddress":"7165 Beverly Blvd, Los Angeles, CA 90036, USA","lat":34.0764408,"lng":-118.3457564,"zipcode":"90036","city":"Los Angeles","neighborhood":"Central LA"},{"location":"Alex Theater","address":"7165 Beverly Blvd. Los Angeles, ","formattedAddress":"7165 Beverly Blvd, Los Angeles, CA 90036, USA","lat":34.0764408,"lng":-118.3457564,"zipcode":"90036","city":"Los Angeles","neighborhood":"Central LA"},{"location":"Alex Theater","address":"7165 Beverly Blvd. Los Angeles, ","formattedAddress":"7165 Beverly Blvd, Los Angeles, CA 90036, USA","lat":34.0764408,"lng":-118.3457564,"zipcode":"90036","city":"Los Angeles","neighborhood":"Central LA"},{"location":"Alex Theater","address":"7165 Beverly Blvd. Los Angeles, ","formattedAddress":"7165 Beverly Blvd, Los Angeles, CA 90036, USA","lat":34.0764408,"lng":-118.3457564,"zipcode":"90036","city":"Los Angeles","neighborhood":"Central LA"},{"location":"Alex Theater","address":"7165 Beverly Blvd. Los Angeles, ","formattedAddress":"7165 Beverly Blvd, Los Angeles, CA 90036, USA","lat":34.0764408,"lng":-118.3457564,"zipcode":"90036","city":"Los Angeles","neighborhood":"Central LA"},{"location":"Alex Theater","address":"7165 Beverly Blvd. Los Angeles, ","formattedAddress":"7165 Beverly Blvd, Los Angeles, CA 90036, USA","lat":34.0764408,"lng":-118.3457564,"zipcode":"90036","city":"Los Angeles","neighborhood":"Central LA"},{"location":"Alex Theater","address":"7165 Beverly Blvd. Los Angeles, ","formattedAddress":"7165 Beverly Blvd, Los Angeles, CA 90036, USA","lat":34.0764408,"lng":-118.3457564,"zipcode":"90036","city":"Los Angeles","neighborhood":"Central LA"},{"location":"Alex Theater","address":"7165 Beverly Blvd. Los Angeles, ","formattedAddress":"7165 Beverly Blvd, Los Angeles, CA 90036, USA","lat":34.0764408,"lng":-118.3457564,"zipcode":"90036","city":"Los Angeles","neighborhood":"Central LA"},{"location":"Alex Theater","address":"7165 Beverly Blvd. Los Angeles, ","formattedAddress":"7165 Beverly Blvd, Los Angeles, CA 90036, USA","lat":34.0764408,"lng":-118.3457564,"zipcode":"90036","city":"Los Angeles","neighborhood":"Central LA"},{"location":"Alex Theater","address":"7165 Beverly Blvd. Los Angeles, ","formattedAddress":"7165 Beverly Blvd, Los Angeles, CA 90036, USA","lat":34.0764408,"lng":-118.3457564,"zipcode":"90036","city":"Los Angeles","neighborhood":"Central LA"},{"location":"Alex Theater","address":"7165 Beverly Blvd. Los Angeles, ","formattedAddress":"7165 Beverly Blvd, Los Angeles, CA 90036, USA","lat":34.0764408,"lng":-118.3457564,"zipcode":"90036","city":"Los Angeles","neighborhood":"Central LA"},{"location":"Alex Theater","address":"7165 Beverly Blvd. Los Angeles, ","formattedAddress":"7165 Beverly Blvd, Los Angeles, CA 90036, USA","lat":34.0764408,"lng":-118.3457564,"zipcode":"90036","city":"Los Angeles","neighborhood":"Central LA"},{"location":"Alex Theater","address":"7165 Beverly Blvd. Los Angeles, ","formattedAddress":"7165 Beverly Blvd, Los Angeles, CA 90036, USA","lat":34.0764408,"lng":-118.3457564,"zipcode":"90036","city":"Los Angeles","neighborhood":"Central LA"},{"location":"Alex Theater","address":"7165 Beverly Blvd. Los Angeles, ","formattedAddress":"7165 Beverly Blvd, Los Angeles, CA 90036, USA","lat":34.0764408,"lng":-118.3457564,"zipcode":"90036","city":"Los Angeles","neighborhood":"Central LA"},{"location":"Alex Theater","address":"7165 Beverly Blvd. Los Angeles, ","formattedAddress":"7165 Beverly Blvd, Los Angeles, CA 90036, USA","lat":34.0764408,"lng":-118.3457564,"zipcode":"90036","city":"Los Angeles","neighborhood":"Central LA"},{"location":"Alex Theater","address":"7165 Beverly Blvd. Los Angeles, ","formattedAddress":"7165 Beverly Blvd, Los Angeles, CA 90036, USA","lat":34.0764408,"lng":-118.3457564,"zipcode":"90036","city":"Los Angeles","neighborhood":"Central LA"},{"location":"Alex Theater","address":"7165 Beverly Blvd. Los Angeles, ","formattedAddress":"7165 Beverly Blvd, Los Angeles, CA 90036, USA","lat":34.0764408,"lng":-118.3457564,"zipcode":"90036","city":"Los Angeles","neighborhood":"Central LA"},{"location":"Alex Theater","address":"7165 Beverly Blvd. Los Angeles, ","formattedAddress":"7165 Beverly Blvd, Los Angeles, CA 90036, USA","lat":34.0764408,"lng":-118.3457564,"zipcode":"90036","city":"Los Angeles","neighborhood":"Central LA"},{"location":"Alex Theater","address":"7165 Beverly Blvd. Los Angeles, ","formattedAddress":"7165 Beverly Blvd, Los Angeles, CA 90036, USA","lat":34.0764408,"lng":-118.3457564,"zipcode":"90036","city":"Los Angeles","neighborhood":"Central LA"},{"location":"Alex Theater","address":"7165 Beverly Blvd. Los Angeles, ","formattedAddress":"7165 Beverly Blvd, Los Angeles, CA 90036, USA","lat":34.0764408,"lng":-118.3457564,"zipcode":"90036","city":"Los Angeles","neighborhood":"Central LA"},{"location":"Alex Theater","address":"7165 Beverly Blvd. Los Angeles, ","formattedAddress":"7165 Beverly Blvd, Los Angeles, CA 90036, USA","lat":34.0764408,"lng":-118.3457564,"zipcode":"90036","city":"Los Angeles","neighborhood":"Central LA"},{"location":"Alex Theater","address":"7165 Beverly Blvd. Los Angeles, ","formattedAddress":"7165 Beverly Blvd, Los Angeles, CA 90036, USA","lat":34.0764408,"lng":-118.3457564,"zipcode":"90036","city":"Los Angeles","neighborhood":"Central LA"},{"location":"Alex Theater","address":"7165 Beverly Blvd. Los Angeles, ","formattedAddress":"7165 Beverly Blvd, Los Angeles, CA 90036, USA","lat":34.0764408,"lng":-118.3457564,"zipcode":"90036","city":"Los Angeles","neighborhood":"Central LA"},{"location":"Alex Theater","address":"7165 Beverly Blvd. Los Angeles, ","formattedAddress":"7165 Beverly Blvd, Los Angeles, CA 90036, USA","lat":34.0764408,"lng":-118.3457564,"zipcode":"90036","city":"Los Angeles","neighborhood":"Central LA"},{"location":"Alex Theater","address":"7165 Beverly Blvd. Los Angeles, ","formattedAddress":"7165 Beverly Blvd, Los Angeles, CA 90036, USA","lat":34.0764408,"lng":-118.3457564,"zipcode":"90036","city":"Los Angeles","neighborhood":"Central LA"},{"location":"Alex Theater","address":"7165 Beverly Blvd. Los Angeles, ","formattedAddress":"7165 Beverly Blvd, Los Angeles, CA 90036, USA","lat":34.0764408,"lng":-118.3457564,"zipcode":"90036","city":"Los Angeles","neighborhood":"Central LA"},{"location":"Alex Theater","address":"7165 Beverly Blvd. Los Angeles, ","formattedAddress":"7165 Beverly Blvd, Los Angeles, CA 90036, USA","lat":34.0764408,"lng":-118.3457564,"zipcode":"90036","city":"Los Angeles","neighborhood":"Central LA"},{"location":"Alex Theater","address":"7165 Beverly Blvd. Los Angeles, ","formattedAddress":"7165 Beverly Blvd, Los Angeles, CA 90036, USA","lat":34.0764408,"lng":-118.3457564,"zipcode":"90036","city":"Los Angeles","neighborhood":"Central LA"},{"location":"Alex Theater","address":"7165 Beverly Blvd. Los Angeles, ","formattedAddress":"7165 Beverly Blvd, Los Angeles, CA 90036, USA","lat":34.0764408,"lng":-118.3457564,"zipcode":"90036","city":"Los Angeles","neighborhood":"Central LA"},{"location":"Alex Theater","address":"7165 Beverly Blvd. Los Angeles, ","formattedAddress":"7165 Beverly Blvd, Los Angeles, CA 90036, USA","lat":34.0764408,"lng":-118.3457564,"zipcode":"90036","city":"Los Angeles","neighborhood":"Central LA"},{"location":"Alex Theater","address":"7165 Beverly Blvd. Los Angeles, ","formattedAddress":"7165 Beverly Blvd, Los Angeles, CA 90036, USA","lat":34.0764408,"lng":-118.3457564,"zipcode":"90036","city":"Los Angeles","neighborhood":"Central LA"},{"location":"Alex Theater","address":"7165 Beverly Blvd. Los Angeles, ","formattedAddress":"7165 Beverly Blvd, Los Angeles, CA 90036, USA","lat":34.0764408,"lng":-118.3457564,"zipcode":"90036","city":"Los Angeles","neighborhood":"Central LA"},{"location":"Alex Theater","address":"7165 Beverly Blvd. Los Angeles, ","formattedAddress":"7165 Beverly Blvd, Los Angeles, CA 90036, USA","lat":34.0764408,"lng":-118.3457564,"zipcode":"90036","city":"Los Angeles","neighborhood":"Central LA"},{"location":"Alex Theater","address":"7165 Beverly Blvd. Los Angeles, ","formattedAddress":"7165 Beverly Blvd, Los Angeles, CA 90036, USA","lat":34.0764408,"lng":-118.3457564,"zipcode":"90036","city":"Los Angeles","neighborhood":"Central LA"},{"location":"Alex Theater","address":"7165 Beverly Blvd. Los Angeles, ","formattedAddress":"7165 Beverly Blvd, Los Angeles, CA 90036, USA","lat":34.0764408,"lng":-118.3457564,"zipcode":"90036","city":"Los Angeles","neighborhood":"Central LA"},{"location":"Alex Theater","address":"7165 Beverly Blvd. Los Angeles, ","formattedAddress":"7165 Beverly Blvd, Los Angeles, CA 90036, USA","lat":34.0764408,"lng":-118.3457564,"zipcode":"90036","city":"Los Angeles","neighborhood":"Central LA"},{"location":"Alex Theater","address":"7165 Beverly Blvd. Los Angeles, ","formattedAddress":"7165 Beverly Blvd, Los Angeles, CA 90036, USA","lat":34.0764408,"lng":-118.3457564,"zipcode":"90036","city":"Los Angeles","neighborhood":"Central LA"},{"location":"Alex Theater","address":"7165 Beverly Blvd. Los Angeles, ","formattedAddress":"7165 Beverly Blvd, Los Angeles, CA 90036, USA","lat":34.0764408,"lng":-118.3457564,"zipcode":"90036","city":"Los Angeles","neighborhood":"Central LA"},{"location":"Alex Theater","address":"7165 Beverly Blvd. Los Angeles, ","formattedAddress":"7165 Beverly Blvd, Los Angeles, CA 90036, USA","lat":34.0764408,"lng":-118.3457564,"zipcode":"90036","city":"Los Angeles","neighborhood":"Central LA"},{"location":"Alex Theater","address":"7165 Beverly Blvd. Los Angeles, ","formattedAddress":"7165 Beverly Blvd, Los Angeles, CA 90036, USA","lat":34.0764408,"lng":-118.3457564,"zipcode":"90036","city":"Los Angeles","neighborhood":"Central LA"},{"location":"Alex Theater","address":"7165 Beverly Blvd. Los Angeles, ","formattedAddress":"7165 Beverly Blvd, Los Angeles, CA 90036, USA","lat":34.0764408,"lng":-118.3457564,"zipcode":"90036","city":"Los Angeles","neighborhood":"Central LA"},{"location":"Alex Theater","address":"7165 Beverly Blvd. Los Angeles, ","formattedAddress":"7165 Beverly Blvd, Los Angeles, CA 90036, USA","lat":34.0764408,"lng":-118.3457564,"zipcode":"90036","city":"Los Angeles","neighborhood":"Central LA"},{"location":"Alex Theater","address":"7165 Beverly Blvd. Los Angeles, ","formattedAddress":"7165 Beverly Blvd, Los Angeles, CA 90036, USA","lat":34.0764408,"lng":-118.3457564,"zipcode":"90036","city":"Los Angeles","neighborhood":"Central LA"},{"location":"Alex Theater","address":"7165 Beverly Blvd. Los Angeles, ","formattedAddress":"7165 Beverly Blvd, Los Angeles, CA 90036, USA","lat":34.0764408,"lng":-118.3457564,"zipcode":"90036","city":"Los Angeles","neighborhood":"Central LA"},{"location":"Alex Theater","address":"7165 Beverly Blvd. Los Angeles, ","formattedAddress":"7165 Beverly Blvd, Los Angeles, CA 90036, USA","lat":34.0764408,"lng":-118.3457564,"zipcode":"90036","city":"Los Angeles","neighborhood":"Central LA"}]